{
"type": "FeatureCollection",
"name": "Karlsruhe_boundary",
"crs": { "type": "name", "properties": { "name": "urn:ogc:def:crs:OGC:1.3:CRS84" } },
"features": [
{ "type": "Feature", "properties": { "osm_type": "relation", "osm_id": 62518, "edit_timestamp": "2025-12-26T22:14:34Z", "valid_to_timestamp": "2026-06-12T22:33:56Z", "osm_version": 105, "minor_version": 0, "osm_edits": 259, "osm_user_id": 4454169, "osm_user_name": "welzheimerwald", "osm_changeset_id": 176459489, "osm_tags": "[('name', 'Karlsruhe'), ('type', 'boundary'), ('source', 'http://wiki.openstreetmap.org/wiki/Import/Catalogue/Kreisgrenzen_Deutschland_2005'), ('name:bg', 'Карлсруе'), ('name:de', 'Karlsruhe'), ('name:en', 'Karlsruhe'), ('name:fr', 'Carlsruhe'), ('name:he', 'קרלסרוהה'), ('name:ru', 'Карлсруэ'), ('name:uk', 'Карлсруе'), ('name:ur', 'کالسروئے'), ('website', 'https://www.karlsruhe.de/'), ('boundary', 'administrative'), ('de:place', 'city'), ('wikidata', 'Q1040'), ('wikipedia', 'de:Karlsruhe'), ('ref:nuts:3', 'DE122'), ('admin_level', '6'), ('admin_title', 'independent town'), ('alt_name:ur', 'کارلسروئے'), ('name:prefix', 'Stadt'), ('admin_title:de', 'Kreisfreie Stadt'), ('license_plate_code', 'KA'), ('de:regionalschluessel', '082120000000'), ('TMC:cid_58:tabcd_1:Class', 'Area'), ('TMC:cid_58:tabcd_1:LCLversion', '9.00'), ('TMC:cid_58:tabcd_1:LocationCode', '482'), ('de:amtlicher_gemeindeschluessel', '08212000')]", "bbox": { "xmin": 8.2774334, "xmax": 8.5417299, "ymin": 48.9404481, "ymax": 49.0912838 }, "geom_type": "MultiPolygon", "geom": "b'\\x01\\x06\\x00\\x00\\x00\\x01\\x00\\x00\\x00\\x01\\x03\\x00\\x00\\x00\\x01\\x00\\x00\\x00\\xd6\\x03\\x00\\x00\\xdc\\xa2\\'\\xc0\\x0b\\x8e @\\x80\\xcd\\xde\\xbe\\xb3~H@\\x11\\x9a\\x13j<\\x8f @\\xb2\\xe043\\xe9~H@\\xd7\\xb8\\xa3\\xa4,\\x90 @\\xd2\\x1d\\xc4\\xce\\x14\\x7fH@8\\xfc\\xc9s\\xd8\\x90 @\\xd8#yS6\\x7fH@Z\\xe6\\xbe\\xe6f\\x91 @\\x82\\xbd\\xd3\\xaeS\\x7fH@\\xe5\\x8eH%\\x86\\x92 @`\\xe9|x\\x96\\x7fH@|\\xc9\\x10\\x11H\\x93 @\\xd4{\\xcf\\xed\\xca\\x7fH@\\x04\\xae+f\\x84\\x93 @\\xf4\\xe0\\xee\\xac\\xdd\\x7fH@jb\\xcb<\\x03\\x94 @\\x86\\x89\\xabo\\x05\\x80H@\\x9e)\\xcf\\x17\\xd6\\x94 @\\xe5?I&L\\x80H@Y\\x8c\\x15\\x90Q\\x95 @ST\\xa2\\x91t\\x80H@\\t\\xd0\\xa5n\\x1d\\x96 @[\"\\x17\\x9c\\xc1\\x80H@QX\\x98tJ\\x96 @\\x92\\xeb\\xa6\\x94\\xd7\\x80H@?\\xf7/Z\\x91\\x96 @\\x18\\xe3h3\\xf3\\x80H@\\xfc4\\x93\\x14\\xfd\\x96 @$Mrv!\\x81H@\\xd5u\\xa8\\xa6$\\x97 @\\x81\\xa2h\\xd42\\x81H@\\x8e\\x03\\xaf\\x96;\\x97 @uE\\xdf\\x93=\\x81H@\\xeb\\\\\\xac\\x03{\\x97 @\\xa2\\xbdU2[\\x81H@\\xb1\\xa8\\xe3\\x8c\\xbc\\x97 @\\xaa\\xb5\\xd5Qz\\x81H@DZ\\x19C\\xef\\x97 @\\x13\\n\\xb6\\xb6\\x95\\x81H@\\xb7\\xc4\\xdb\\x94<\\x98 @>\\xf5\\xfe\\xf5\\xc0\\x81H@\\xa1\\xe2\\xeebP\\x98 @h\\x07\\\\W\\xcc\\x81H@\\xba\\xeb\\xb6UZ\\x98 @\\x83\\xac\\x02\\x10\\xd2\\x81H@6\\xa9\\r\\xf3\\x8a\\x98 @V\\x83\\x8bp\\xee\\x81H@\\xdaj \\xa7\\xf9\\x98 @\\x86\\x17\\xe9\\xea3\\x82H@\\xe2\\xcc\\xaf\\xe6\\x00\\x99 @\\xc4\\xa6\\xdf\\xcf:\\x82H@\\x1fz\\x9c\\xb3O\\x99 @\\xc8\\xa6\\xa6nx\\x82H@RgI\\xdbS\\x99 @\\x1a\\xc7\\xa3\\xaf{\\x82H@\\xc5\\xb4%a\\x95\\x99 @\\xac0\"\\xf6\\xae\\x82H@\\xf3\\x9c\\xe3\\x92\\x99\\x99 @i\\xa5\\xb5\\x0e\\xb3\\x82H@T*\\x97|\\xa2\\x99 @|\\x95!3\\xbc\\x82H@-\\xc2^r\\xed\\x99 @g\\xdaYO\\x08\\x83H@\\r\\xdd\\x91V!\\x9a @\\xd5\\xfd\\xad\\xaeT\\x83H@\\xb0\\xc5n\\x9fU\\x9a @\\xef<LV\\xa0\\x83H@t\\xea\\xcagy\\x9a @\\xc8\\xea\\xfb\\x15\\xd7\\x83H@\\x8b\\x18v\\x18\\x93\\x9a @\\xdcW/\\xd0\\xff\\x83H@\\x9b\\x94\\xdd\\'\\xa2\\x9a @I:\\xb9\\x95\\x14\\x84H@\\x92AI\\xdc\\xbe\\x9a @eV\\xefp;\\x84H@\\xf9\\xc5\\x00\\xe4\\xdf\\x9a @\\x92\\x1f\\x96rc\\x84H@\\x97\\xb7\\xd9\\x0e\\xfc\\x9a @\\xb1d\\xd8rx\\x84H@`\\xb6S),\\x9b @\\xc8m\\xea\\xf2\\x9c\\x84H@\\xfdu]\\xae4\\x9b @\\xa6P\\xcc0\\xa4\\x84H@\\x87C\\x80\\x1dI\\x9b @z\\x94\\xa51\\xb5\\x84H@\\x12\\x84+\\xa0P\\x9b @G\\x12\\xce\\xb8\\xba\\x84H@\\\\e\\xb7\\xe0V\\x9b @\\xf7\\x06\\xbaQ\\xbf\\x84H@\\x11P\\x86O\\xdf\\x9b @\\x10\\xa2\\xc6\\xce%\\x85H@\\r\\x1c\\xd0\\xd2\\x15\\x9c @\\x9a-\\xb4\\xceS\\x85H@+9\\x82\\xafC\\x9c @\\xaf\\xb1KTo\\x85H@7\\xcd\\xf1\\xc0\\xb6\\x9c @7\\xf2\\x8a\\xf1\\xab\\x85H@\\xe4vy\\x84\\xe4\\x9e @\\x9e\\xaf\\xfet\\xa8\\x86H@\\xfb\\xac2SZ\\x9f @\\x81\\xfc\\xb6q\\xd5\\x86H@/\\xdb\\xf3\\xa1\\xb0\\xa0 @+g\\x94\\xd3C\\x87H@\\xba\\x19\\xc9yZ\\xa1 @\\xabe!\\xf0v\\x87H@\\xf4\\xec\\xa8 \\xf5\\xa1 @\\x85\\xf1.r\\xaa\\x87H@\\x81z3j\\xbe\\xa2 @\\xe5\\xe1N3\\xee\\x87H@\\x03ft\\xf6\\x84\\xa3 @k\\xdf\\x92\\xd2\"\\x88H@\\xa5\\xef\\xdaJT\\xa4 @\\\\\\x1d\\x00qW\\x88H@\\xd8JC\\xe8\\xfb\\xa4 @\\x9c\\x85\\xe23~\\x88H@\\xb3\\x85\\xd6y\\n\\xa7 @-`\\x02\\xb7\\xee\\x88H@o\\x15\\x1f\\xfaI\\xa8 @\\xb1\\xd0\\x18\\xf70\\x89H@:\\xd7\\xe6\\xb5\\xc8\\xa8 @\\x92G&\\x96J\\x89H@\\\\\\x08\\xcd\\t5\\xaa @\\xd6\\xc8\\xae\\xb4\\x8c\\x89H@\\xba{\\xca{\\xe6\\xaa @1\\x91w\\xb3\\xab\\x89H@\\xb2G\\xa8\\x19R\\xad @\\xd2\\x1d\\xc4\\xce\\x14\\x8aH@h{O@n\\xae @\\xea\\x10\\xee\\x84M\\x8aH@\\xaf\\x00KS\\xa9\\xae @\\x08\\xb0\\xc8\\xaf\\x1f\\x8aH@\\xeb\\x89SR\\xcc\\xae @9\\xd8\\xf6\\xd1\\x04\\x8aH@2S\\xff\\xc5\\xd8\\xae @\\x803\\x8c\\x16\\xfb\\x89H@u\\x05\\xdb\\x88\\'\\xaf @\\xc7\\xfeh\\xee\\xd7\\x89H@c%\\xe6YI\\xaf @\\xe0\\xe7\\t\\x95\\xc9\\x89H@I\\xc3\\x84,f\\xaf @\\xbd\\xf4@u\\xbd\\x89H@#\\x16\\x8c\\xa5\\xa3\\xaf @\\x9e\\xaf\\xfet\\xa8\\x89H@\\xf7\\x1a\\'*\\xc0\\xb0 @\\xe41^Nd\\x89H@*v\\x8f\\xc7g\\xb1 @H\\xd3\\xea\\xf58\\x89H@d\\xd5\\xd6>\\xd3\\xb1 @(=x\\x92\\x19\\x89H@7D\\xcbp\\xf2\\xb1 @\\xe9\\x98\\x98\\xd3\\n\\x89H@o\\xa6\\xf8\\xae\\xf7\\xb1 @K\\xe7\\xc3\\xb3\\x04\\x89H@\\xcaY\\x8eF\\xf4\\xb1 @\\xe0\\x13\\xebT\\xf9\\x88H@\\x06o\\xfe\\x15\\xe8\\xb1 @{1\\x94\\x13\\xed\\x88H@\\xe4\\xa9\\xfd\\x8c\\xc1\\xb1 @r\\xac\\xe6\\x94\\xdb\\x88H@\\xe7\\\\@\\x1e\\xb0\\xb1 @n\\x8b\\x8d\\xd4\\xd6\\x88H@>\\xf1\\xf7\\xe6\\x92\\xb1 @\\x0f\\xa8\\xed\\x15\\xcc\\x88H@D\\x1d\\xb1qX\\xb1 @\\xd5\\xf4\\x8ft\\xbc\\x88H@\\xec\\x8b\\xdfo\\x0f\\xb1 @W_]\\x15\\xa8\\x88H@0\\xd4\\x06\\xcc\\xe8\\xb0 @,\\xd1\\xfe\\xac\\x9e\\x88H@}\\x11#:\\xba\\xb0 @TL\\xef,\\x8b\\x88H@\\xfc\\r$9\\xaa\\xb0 @\\xac\\xb6QS\\x81\\x88H@\\xfc}\\xb5Y\\xab\\xb0 @\\x04\\xd9\\xfc\\tx\\x88H@\\x9bU\\x9f\\xab\\xad\\xb0 @\\x83\\xf2\\xe3\\xd4s\\x88H@0\\x07\\xe6\\x8d8\\xb1 @\\x0c\\x01\\xc0\\xb1g\\x88H@C\\x0b\\xbf\\x8aB\\xb1 @\\xfe\\xf5e\\xc4`\\x88H@\\xe2o \\xc9Q\\xb1 @\\xe9\\x83\\xc0%[\\x88H@w\\'Deh\\xb1 @M\\xc4\\xb6\\xa0R\\x88H@\\xc9\\\\t\\r\\x8e\\xb1 @\\x9c\\xc9\\x92\\x94O\\x88H@/\\xe1+\\x15\\xaf\\xb1 @\\xf0\\x8b\\xa6\\x0eM\\x88H@\\xa1\\xa5\\x86\\x91\\xb9\\xb1 @\\xc7\\xf8\\x8b4L\\x88H@KK\\x9b`\\xee\\xb1 @\\xb8)y\\xd0G\\x88H@\\x05\\xd6\\xbb\\x89k\\xb2 @\\xfc\\xe8/OB\\x88H@|\\xb6\\x0e\\x0e\\xf6\\xb2 @\\x0e\\x88k\\x10A\\x88H@\\x16\\\\b\\x1b\\xa7\\xb3 @=\\xd8\\xbdpB\\x88H@\\xd5\\xa3\\xba\\xca$\\xb4 @\\xd0\\xb96\\xafE\\x88H@\\xa5gz\\x89\\xb1\\xb4 @\\xa9\\xab\\x96\\xcfM\\x88H@\\x90\\xaa\\x81A-\\xb5 @\\xdf=\\x9b\\xb0X\\x88H@\"\\xed5\\xf3\\x9a\\xb5 @1?74e\\x88H@\\xfd\\r\\x7f\\xf2\\x1c\\xb6 @!v\\xa6\\xd0y\\x88H@\\xc0\\xceM\\x9bq\\xb6 @\\x9a:4\\xd1\\x8c\\x88H@#\\xbd\\xa8\\xdd\\xaf\\xb6 @\\xcf?\\x0bS\\xa5\\x88H@\\xbc\\xd4c\\xb6\\xbf\\xb6 @>4=r\\xb5\\x88H@\\xa2\\x10\\\\@\\xc3\\xb6 @r\\xe8\\xe3\\x90\\xc3\\x88H@\\x97\\x96\\xec3\\xc2\\xb6 @\\x03\\xfa3r\\xcc\\x88H@w\\xf8\\xc6k\\xb9\\xb6 @\\x8b<\\xa4s\\xd9\\x88H@\\x18\\tm9\\x97\\xb6 @\\xfa0\\xd6\\x92\\xe9\\x88H@@\\xc0Z\\xb5k\\xb6 @v\\xc5\\x8c\\xf0\\xf6\\x88H@w_:R\"\\xb6 @\\xc58\\x7f\\x13\\n\\x89H@d\\xe4\\xd12\\xf7\\xb5 @\\x12}\\xe3\\x10\\x16\\x89H@\\xe8\\x92``\\x0c\\xb7 @\\xfa\\xec%2\\x18\\x89H@NQ\\xe4\\xffD\\xb7 @^~L\\x10\\x1a\\x89H@r\\xb9f\\x97\\x14\\xb8 @\\xbd\\xab\\x1e0\\x0f\\x89H@\\x02\\xb8Y\\xbcX\\xb8 @tF\\x94\\xf6\\x06\\x89H@C\\xfe\\x99A|\\xb8 @\\xd1\\x95\\x08T\\xff\\x88H@\\xca\\xa9\\xf8\\x1a\\xdd\\xb8 @\\x16\\xe5-\\xb2\\xf8\\x88H@\\xb1\\xed\\xfe\\xc2<\\xb9 @\\x8aB&t\\xf2\\x88H@^XH\\nv\\xb9 @\\xcb1\\xb4\\x95\\xf2\\x88H@*O\\xc52\\xa2\\xb9 @e\\x04\\xaf\\xf1\\xf4\\x88H@SZ\\x7fK\\x00\\xba @VDM\\xf4\\xf9\\x88H@\\x9fq\\xe1@H\\xba @s\\xf5c\\x93\\xfc\\x88H@M\\x01\\x1fr\\xe9\\xba @\\x83\\xf8\\xc0\\x8e\\xff\\x88H@b\\xcb<\\x034\\xbb @\\x8f\\xa6z2\\xff\\x88H@\\xeb\\xff\\x1c\\xe6\\xcb\\xbb @8\\xf7W\\x8f\\xfb\\x88H@\\xdbV\\x0e\\x88k\\xbc @\\xdc4\\x11\\x91\\xf5\\x88H@\\xe25T1:\\xbd @; d\\xb4\\xe9\\x88H@\\xdb\\xa5\\r\\x87\\xa5\\xbd @\\xe5\\xfdnp\\xd8\\x88H@\\xba\\xb5\\x96\\x13\\xfe\\xbe @\\xc7\\x03\\xdb\\xd2\\xb4\\x88H@\\xf1yj\\x9a\\x1c\\xbf @\\xda\\xa2\\x16\\x94\\xb3\\x88H@\\xccX\\xd9\\xe3*\\xbf @\\x8c\\x05\\xcf\\xce\\xb3\\x88H@L\\xa1\\x98aH\\xbf @\\xd3\\xb1\\x94v\\xb4\\x88H@\\xd6\\x1c \\x98\\xa3\\xbf @\\x87\\xae\\xfa\\x12\\xe0\\x88H@\\xf5\\x96\\x17\\x05f\\xc6 @\\xd4\\xfa\\x11u\\xd5\\x88H@\\x02=\\x1eD|\\xc9 @Z{D\\xf1\\xcf\\x88H@\\xb3]\\xa1\\x0f\\x96\\xc9 @fW\\x10\\xb9\\xcf\\x88H@\\xfa\\xa8\\xd0\\x8a\\xb9\\xc9 @N\\xb9\\x1du\\xcf\\x88H@\\xde\\xcc\\xe8G\\xc3\\xc9 @%\\xa4\\x7f\\x93\\xb7\\x88H@W<\\x9a\\x8f\\x10\\xca @1\\xc8\\x02\\xcb\\xb6\\x88H@\\xca\\xcd&v#\\xca @\\xd3-\\xe0\\n\\xcd\\x88H@YrpDR\\xca @\\ng\\xb7\\x96\\xc9\\x88H@\\xac\\xf1\\x88\\xc0G\\xcb @\\x9d\\x08,\\xca\\xb6\\x88H@\\x9a\\xdc\\xde$\\xbc\\xcb @\\xb3i[\\x83\\xad\\x88H@R1)\\x99\\xf7\\xcb @\\x8c\\xfcU\\xdb\\xa8\\x88H@\\x1bQ\\x90\\x8ea\\xcc @\\xc0\\x1a\\x0c\\x1a\\x9f\\x88H@e\\xa0\\xd7D\\x0b\\xcd @iN\\x03\\xab\\x8f\\x88H@\\xf3\\xdc\\x8c\\xe4<\\xcd @\\xfa\\x1a\\x93\\x0f\\x8b\\x88H@\\xcd\\x12\\xae\\x91n\\xcd @\\x7fg{\\xf4\\x86\\x88H@\\xbaj\\x9e#\\xf2\\xcd @\\xd8\\x8f^\\x1e|\\x88H@\\xf6j6E6\\xce @\\x8bk!m\\x88\\x88H@\\x9a\\x0fc-\\x99\\xce @\\x96\\n*\\xaa~\\x88H@\\xbc9\\x01\\xf2\\xca\\xce @\\xf8*Cfx\\x88H@\\x97\\xd4\\xbf\\xda\\x07\\xcf @ S\\x88\\x91o\\x88H@\\xbdp\\xe7\\xc2H\\xcf @\\xe5\\xef\\xdeQc\\x88H@\\xd0\\x95\\xad\\x9a\\x8c\\xcf @\\x1b\\xb8\\xa8\\xbbW\\x88H@\\xb5\\x8a\\xfe\\xd0\\xcc\\xcf @\\x96\\x82$\\xa2N\\x88H@\\x87\\xd2(n&\\xd0 @\\x07w\\x0c4D\\x88H@i\\xe9eo\\x84\\xd0 @\\xff.\"@<\\x88H@\\x17\\x87\\x8ex\\r\\xd1 @\\x12\\xe5\\xc1\\xcc-\\x88H@\\xcc,\\x9dj\\x88\\xd1 @\\xbb\\xfe\\x13\\x12\\x1f\\x88H@\\xcd[u\\x1d\\xaa\\xd1 @\\xd5\\xae\\xae\\xaf\\x1a\\x88H@\\xf9\\x97\\xee\\xbf\\xdf\\xd1 @[}\\xd0\\x0e\\x13\\x88H@\\x02NJ\\x9cp\\xd2 @\\xbe\\xfd\\x14\";\\x88H@\\xc5T\\xfa\\tg\\xd3 @`S\\x8c\\x98~\\x88H@\\x06S\\x83\\x1f\\x8b\\xd3 @\\xb8%\\xcdz\\x8c\\x88H@\\x16\\xa4\\x19\\x8b\\xa6\\xd3 @\\x19\\xfb7\\xd4\\x94\\x88H@\\x02\\xf4\\xfb\\xfe\\xcd\\xd3 @U\\x1cb\\x17\\xa0\\x88H@hE/\\xfe\\x11\\xd5 @=\\x13\\xf5\\xdd\\x08\\x89H@\\x95\\xccV\\x039\\xd5 @\\x13\\x97\\x88\\\\\\x15\\x89H@\\x99\\x0f\\x08t&\\xd5 @\\xe2|E\\x12\\x18\\x89H@\\xf7\\xa2\\x87\\xebb\\xd4 @E\\x81>\\x91\\'\\x89H@[\\xf3>\\xe9\\x9f\\xd3 @=E\\x0e\\x117\\x89H@H&\\xf1\\x03\\xa1\\xd2 @b{\\xd2.K\\x89H@Dv\\x949L\\xd2 @\\x9b\\xa9\\xb5\\xd5Q\\x89H@\\xe9\\xa5\\x18\\xd6C\\xd2 @G\\x1b\\xec\\xf2R\\x89H@6I\\xe2\\x9b\\\\\\xd2 @VMk.\\x92\\x89H@\\xf5N`\\x95f\\xd2 @e(8\\x06\\xae\\x89H@\\xb5\\xb9{\\xca{\\xd2 @;\\xf2Q\\x90\\xe9\\x89H@\\x90\\x98\\xea\\x13\\x8a\\xd2 @x\\x8a\\x0b\\xf6\\x15\\x8aH@\\x0c\\x1cu\\x19\\xa3\\xd2 @kJ\\xb2\\x0eG\\x8aH@\\x8c\\xba\\xd6\\xde\\xa7\\xd2 @)d\\x9d\\xe0Q\\x8aH@\\xcfv\\x96j\\xb0\\xd2 @2\\x11%\\x10e\\x8aH@\\xfe\\xd1\\xdc\\xaf\\xa7\\xd2 @\\xf9\\xd1\\x15\\x11j\\x8aH@\\x95\\x18\\xba\\xc8\\xf3\\xd3 @\\xf5t\\xbfT}\\x8aH@\\xaa\\xd2\\x16\\xd7\\xf8\\xd4 @)k\\xe5o\\x8c\\x8aH@V4\\x8cq\\xb4\\xd5 @\\x0em[\\xef\\x92\\x8aH@\\x8ez\\xe3\\xff\\xe9\\xd5 @$oom\\x97\\x8aH@\\x9ej\\xe3>(\\xd6 @\\x91h]\\xfe\\x9e\\x8aH@w\\x11\\xa6(\\x97\\xd6 @\\x936U\\xf7\\xc8\\x8aH@\\xbe9\\x12\\x1e#\\xd7 @\\x01\\x068s\\xfe\\x8aH@\\xcf+C\\xc11\\xd8 @\\xbd\\x06\\xd8\\xa2`\\x8bH@&#\\xc2\\x1a\\xc2\\xd8 @\\xfbWV\\x9a\\x94\\x8bH@\\xa7\\xb6/\\xfb\\xd0\\xd8 @\\xb7j\\x8d\\xf7\\x99\\x8bH@\\xf16%\\x0f\\xfa\\xd8 @\\xf3n\\xd1n\\x99\\x8bH@\\x93i\\xd9\\xff\\xa5\\xd9 @\\xad*\\xa0\\xf5\\x95\\x8bH@1C\\xe3\\x89 \\xda @\\xba\\x0c\\xa40\\x94\\x8bH@\\x87\\x97\\xf1\\x00`\\xda @\\x08\\xf2\\xa2e\\x93\\x8bH@\\x16r\\x00Xx\\xda @\\xcd\\xab\\xdf\\xf1\\x92\\x8bH@\\x93\\xcd\\xb0\\xac\\x8f\\xda @J\\xcd\\xc3\\xae\\x92\\x8bH@\\x0e\\xb3\\xe1\\xfa\\xc1\\xda @8Ne\\xac\\x91\\x8bH@\\xa7\\x8a\\xf3\\x81.\\xdb @\\xa4\\x1e\\xfd\\x8a\\x90\\x8bH@{\\x12\\xd8\\x9c\\x83\\xdb @u\\xb4\\x05\\xdf\\x8f\\x8bH@\\x93\\xb7\\x12p\\xbe\\xdb @o\\xf7\\xcdX\\x8f\\x8bH@\\xe0\\x96\\xd91\\xbf\\xdc @e\\xf9_S\\x8c\\x8bH@\\xe5\\x0faW\\xee\\xdc @\\x93\\x8b1\\xb0\\x8e\\x8bH@[8Z\\x1f \\xdd @?\\x9b\\x0b\\x12\\x91\\x8bH@_&\\x8a\\x90\\xba\\xdd @)\\xcaJ8\\x99\\x8bH@\\xf0\\x91(\\x0ff\\xde @B\\xed\\xb7v\\xa2\\x8bH@r\\x1e\\xa9\\x19\\xad\\xde @\\xc9N\\x895\\xa6\\x8bH@\\xa3\"N\\'\\xd9\\xde @\\xc1\\x85\\xe1\\xc8\\xa8\\x8bH@\\x95bG\\xe3P\\xdf @_\\t\\xa4\\xc4\\xae\\x8bH@\\xd4\\x030\\xafm\\xdf @\\xca\\xd3\\x030\\xaf\\x8bH@\\xfe\\xa8<p\\x84\\xdf @\\x83\\'>\\x88\\xae\\x8bH@\\\\:\\xe6<c\\xdf @\\x16\\xe3W\\x07\\x9b\\x8bH@4\\x89\\xd5z\\x1a\\xdf @\\xeb\\x11\\xb4\\x13o\\x8bH@\\xe0\\'\\xb3\\xe6l\\xde @PB\\x9f~\\x06\\x8bH@Z\\xe5\\xf8WE\\xde @\\xfdQ/S\\xee\\x8aH@l\\x98\\xfc\\xaa\\xb7\\xdd @\\x05\\xc6U\\xc0\\x98\\x8aH@w\\xc2\\xa6)]\\xdd @\\x0f\\x891\\x9fb\\x8aH@Z}\\x1a\\x9c-\\xdd @\\xa15\\x9a\\xb7E\\x8aH@#\\'\\xb8\\xfd\\x97\\xdc @\\xca\\xf4\\xf0\\n\\xe9\\x89H@\\xbc\\x96\\xeb\\xc8\\xec\\xdb @\\xf9\\xaf\\xbd`\\x81\\x89H@\\x0bBy\\x1fG\\xdb @\\xf1\\x17\\x0e\\xdf\\x1d\\x89H@\\x08\\x8b/\\x7f*\\xdb @<O<g\\x0b\\x89H@\\xca\\xe9\\xa1l\\x80\\xdc @\\xa9}\\xdfd\\xc0\\x88H@\\xc2dO\\xa7\\xe1\\xdc @\\xe4\\xf9ga\\xaa\\x88H@\\x87_\\xfb\\x13\\xa6\\xdd @\\xde\\xa8\\xba\\xec|\\x88H@`\\xc2\\r\\x9dC\\xde @\\x02B\\x90(Y\\x88H@j/\\xa2\\xed\\x98\\xde @\\x8f\\x12`\\xfdD\\x88H@\\xa4\\x8a\\xe2U\\xd6\\xde @a}M 6\\x88H@+\\xcd\\x9c\\xe4\\xfd\\xde @`\\x9c\\xae\\xdd,\\x88H@\\xdd\\x11\\x04~C\\xdf @Q\\xb6\\xed \\x1b\\x88H@xxt\\xc8r\\xdf @\\x84\\xd9_\\xd1\\x08\\x88H@H\\x0cL\\xb8\\xa1\\xdf @c\\x0c\\xac\\xe3\\xf8\\x87H@*\\xe9\\xbc!\\xe8\\xdf @\\xc5N\\x1dP\\xdb\\x87H@\\xf4\\x12\\x08\\xe0\\x0b\\xe0 @\\xe4\\x98\\xd14\\xcd\\x87H@(\\x12\\xa7\\xee%\\xe0 @\\xc6.\\xf6\\x03\\xc3\\x87H@\\x9d\\xe0\\xf6_B\\xe0 @\\x90&(\\x8f\\xb8\\x87H@\\xbdw/R\\x83\\xe0 @\\xff\\x1f\\xcc\\x92\\xa5\\x87H@\\x8d\\x89\\x83:\\x9b\\xe0 @y\\x9cX\\x96\\x9e\\x87H@,\\xbc&\\xff\\xee\\xe0 @\\xf7[\\x96\\n\\x85\\x87H@H\\xba\\x0b9[\\xe1 @\\xe8R\\xb7\\x0ei\\x87H@n\\x82\\x14\\xe1\\xcb\\xe1 @\\x92\\xb7\\xb7\\xb6K\\x87H@\\x19\\xf5Z\\x1a\\t\\xe2 @\\xbd%\\xef\\xd2<\\x87H@\\x97\\x1eM\\xf5d\\xe2 @\\xcc>4\\x98+\\x87H@=\\xd7R\\x9b\\x93\\xe2 @W\\t\\x16\\x873\\x87H@G4&i\\xa3\\xe3 @\\xb8\\x05Ku\\x01\\x87H@X\\x88\\xb3\\xc7\\xb0\\xe3 @\\xd7\\x86\\x8aq\\xfe\\x86H@`\\xb5\\x8d\\x9a\\n\\xe4 @\\xc3?\\xb6v\\xec\\x86H@\\xccn\\x1cg\\x89\\xe4 @>\\xf8?v\\xcd\\x86H@>\\xe8\\xd9\\xac\\xfa\\xe4 @|\\xba\\xbac\\xb1\\x86H@\\x01\\x9f\\xc4\\x8c\\x95\\xe5 @ \\xe9xq\\x87\\x86H@\\xf1d73\\xfa\\xe5 @\\xc5q\\xe0\\xd5r\\x86H@\\xf9S>_\\x0e\\xe6 @,\\xd3/\\x11o\\x86H@\\xaf\\xf45&\\x1f\\xe6 @\\xdb\\xe0D\\xf4k\\x86H@\\xb2\\x18+ \\xa3\\xe6 @\\xa3\\x0bE\\x15Y\\x86H@\\xb2R\\xf7\\xb7\\xba\\xe6 @\\xce:>\\xb5U\\x86H@\\xbdK\\xf3\\xd8\\xe0\\xe6 @\\x13\\xfa\\xf43P\\x86H@^\\x02\\x01|\\x01\\xe7 @\\x0f\\xd9\\x9bsK\\x86H@\\xb9\\xfc\\x87\\xf4\\xdb\\xe7 @*A5\\x14-\\x86H@\\x89[\\xaaw]\\xe8 @*\\x011\\t\\x17\\x86H@\\xe0\\xa4\\xc4\\t\\xa7\\xe8 @\\x11\\xf8h\\x16\\r\\x86H@\\xb1\\x80Si\\xd5\\xe8 @\\xeb\\x06eu\\x06\\x86H@\\xe3j\\t\\x9e\\xe7\\xe8 @K\\xd3V\\xdb\\x03\\x86H@Z\\\\-\\xc1\\xf3\\xe8 @F\\xa6\\x8d4\\x02\\x86H@vE:M\\xb0\\xe9 @/^=8\\xe9\\x85H@\\x07\\xb9\\xe6\\xe9\\xb7\\xea @Y\\x868\\xd6\\xc5\\x85H@\\x19\\x1ff/\\xdb\\xea @&\\xe1B\\x1e\\xc1\\x85H@6\\x8f\\xc3`\\xfe\\xea @\\x88)6\\x8b\\xbc\\x85H@\\x85b\\x86!\\xcd\\xeb @1\\x88\\xfe\\xbf\\xa0\\x85H@C\\x82\\xf3\\xf3\\xf0\\xeb @=\"K\\x8b\\x9f\\x85H@N\\xb4\\xab\\x90\\xf2\\xeb @m{\\x16\\xdf\\xab\\x85H@6\\x10\\x81\\xd9\\xf3\\xeb @\\'\\x9c\\x82\\xa1\\xb3\\x85H@p\"\\xfa\\xb5\\xf5\\xeb @tPx\\xbf\\xc0\\x85H@\"\\xde\\xdfE\\x04\\xec @V\\x7f\\x84a\\xc0\\x85H@\\xe0\\xa6\\x9a\\xb4\\x04\\xec @g&\\xbd\\x14\\xc3\\x85H@^\\xecb?0\\xec @\\xbb*P\\x8b\\xc1\\x85H@{\\x87\\xdb\\xa1a\\xed @\\x96\\x8ds@\\xb7\\x85H@\\x82\\xc9\\x8d\"k\\xed @\\x1e\\xb9\\x7fv\\xd1\\x85H@\\'\\xa6fjm\\xed @h\\x10\\xd5J\\xd7\\x85H@9%\\xc5ln\\xed @\\x7f\\xea\\x0e\\x18\\xda\\x85H@\\xff\\xcb\\xb5h\\x01\\xee @{m\\x91\\x0f\\xd5\\x85H@#\\x05`M\\xaf\\xee @\\x7f\\x15\\xe0\\xbb\\xcd\\x85H@O\\x90}5\\xac\\xee @l\\xbd\\x95\\xdb\\xac\\x85H@\\x8c.o\\x0e\\xd7\\xee @\\xe5\\xb7\\xe8d\\xa9\\x85H@kE\\x9b\\xe3\\xdc\\xee @\\\\-\\xc1\\xf3\\x9c\\x85H@\\x8a\\x9b\\t<\\xe6\\xee @\\x90\\x17-\\x9b\\x94\\x85H@\\xfe\\xb8\\xfd\\xf2\\xc9\\xee @\\xf7\\x13\\xdf\\x9a\\x85\\x85H@\\x1e\\xf3\\xa6\\xc7[\\xef @\\x89V8\\x93\\x80\\x85H@c\\x8b\\x93\\xb1\\x90\\xef @\\x96\\x89l1\\x89\\x85H@\\x0b\\x1f\\xb6\\x99\\xaf\\xef @\\xa9\\x0b\\xc2&|\\x85H@\\xc8\\xaf\\xc4\\xa8\\x10\\xf0 @jQ\\xfa\\x9d\\x81\\x85H@\\x92\\xbc)\\x9b(\\xf0 @97\\xb7S\\x84\\x85H@\\xff\\x82\\x93#S\\xf0 @\\xf4\\xb3G^\\x8c\\x85H@\\xa0D\\x95\\xabi\\xf0 @V\\x0b\\xec1\\x91\\x85H@PP/\\x9d{\\xf0 @\\xdd\\xc2\\xa9\\xc5\\x96\\x85H@D\\xf3\\xa5\\\\\\x86\\xf0 @\\xc6X\\x01\\x19\\x95\\x85H@\\xeb\\x1e4\\x16\\xa8\\xf0 @q\\xd5+\\x1b\\x8c\\x85H@\\xf8D\\xe8\\xb1w\\xf0 @$F\\xcf-t\\x85H@xE\\xf0\\xbf\\x95\\xf0 @7-\\xc2^r\\x85H@Zb\\n{\\x7f\\xf0 @n\\x8b2\\x1bd\\x85H@\\x1a\\xbe*\\xbcp\\xf0 @\\x97\\xd3T\\x05Y\\x85H@\\xae\\xfe\\xbe5f\\xf0 @x\\xd9\\n\\xf5O\\x85H@r<\\xfa\\xbag\\xf0 @u\\x06\\xa1\\x17I\\x85H@\\xe1\\xc0\\x9a\\xb9v\\xf0 @H\\xe7W\\xce9\\x85H@\\'\\xa45\\x06\\x9d\\xf0 @\\xbfB\\x8b\\x11.\\x85H@XU/\\xbf\\xd3\\xf0 @P|k\\x16\\x1e\\x85H@\\xf7\\x01Hm\\xe2\\xf0 @\\xc3\\x8bt\\xf5\\x19\\x85H@\\xe3\\x17^I\\xf2\\xf0 @\\xc0<\\t\\x11\\x15\\x85H@\\xb2&\\xbb>\\x18\\xf1 @\\xab\\x9cQN\\x0f\\x85H@\\x9e\\x06\\x0c\\x92>\\xf1 @\\x89\\x00\\xf1\\x04\\x0c\\x85H@\\xc4\\xad\\'_u\\xf1 @\\xddzM\\x0f\\n\\x85H@\\xac\\xd37\\x1f\\x8d\\xf1 @\\x84\\xabM\\xad\\x08\\x85H@G\\xc6\\x0f:\\x8d\\xf1 @NJ\\x9cp\\n\\x85H@\\n\\xae\\xa8w\\xa7\\xf1 @\\xe7\\xba:\\x11\\x0e\\x85H@9\\x92p\\xc6\\xd5\\xf1 @h+\\x8a\\xb2\\x12\\x85H@wx\\x19\\x0f\\x00\\xf2 @R\\x8e\\x13p\\x19\\x85H@\\xffu\\x13!\\x1a\\xf2 @\\xcc\\r\\xe1\\xf3\\x1e\\x85H@\\x8d\\xb5\\xbf\\xb3=\\xf2 @\\xbci\\xe9\\xc0(\\x85H@\\xe7\\xe1\\x04\\xa6\\xd3\\xf2 @\\x10M\\xea\\x15`\\x85H@\\xdaZ\\xba\\xdd&\\xf3 @?\\xc2\\xd5\\xa6V\\x85H@\\xa3KI o\\xf3 @\\xc1\\xf6\\xdd\\xbeX\\x85H@t\\x18\\xdd\\x8by\\xf3 @\\xdewgHp\\x85H@I\\xe0j\\xf8q\\xf3 @c\\xe15\\xf9w\\x85H@mF\\xbc+q\\xf3 @_\\xa9xm\\x80\\x85H@\\x11Vc\\tk\\xf3 @\\x13O,\\xa6\\x88\\x85H@\\x9c1qPg\\xf3 @S\\x18\\xa5\\x95\\x8c\\x85H@\\x17x8\\xcbv\\xf3 @\\xc7g\\xb2\\x7f\\x9e\\x85H@i\\xd89\\x17\\x90\\xf3 @\\xf0_j\\x95\\xaa\\x85H@\\x93\\xc3\\'\\x9dH\\xf4 @\\xc4\\n\\x126\\x97\\x85H@S\\xb0\\xc6\\xd9t\\xf4 @\\xf0#m\\x99\\xc2\\x85H@\\xb3eTt\\x7f\\xf4 @\\x8b\\xdd>\\xab\\xcc\\x85H@/\\xa1\\'\\n\\x99\\xf4 @d:tz\\xde\\x85H@\\xb3i[\\x83\\xad\\xf4 @9\\x14\\xf4\\xcd\\xec\\x85H@\\xb7\\xdb\\xe4\\xa6\\xbc\\xf4 @i\\xcf\\x1b\\xdd\\xf7\\x85H@dB\\'\\xdf\\xc7\\xf4 @\\xf2\\xe3y\\xba\\x04\\x86H@+P\\x8b\\xc1\\xc3\\xf4 @\\x00\\xef\\xd3\\xa7\\x0b\\x86H@\\xd3\\xfc\\x8cf\\xc0\\xf4 @\\x8b\\xe7\\xc7\\xba\\x13\\x86H@Ht*t\\xb9\\xf4 @\\\\r\\xdc)\\x1d\\x86H@qO\\xfc\\xbd\\xb9\\xf4 @qT\\x13\\xe9#\\x86H@\\x10l\\xa6\\x8c\\xc9\\xf4 @\\x0e\\t)\\x896\\x86H@\\xc8\\x9f\\x03&\\xcb\\xf4 @\\x9d\\xb8\\x1c\\xaf@\\x86H@\\xd9\\x1eb(\\xcc\\xf4 @U\\x00\\xe7 C\\x86H@\\xba\\xba\\x08\\xf8\\xda\\xf4 @^\\x8b\\xcc\\x12S\\x86H@*\\xc4#\\xf1\\xf2\\xf4 @4#\\xcdi`\\x86H@\\x89]\\xdb\\xdb-\\xf5 @J\\xa7d\\xef{\\x86H@\\xb5K\\xc0T\\xd8\\xf5 @\\xeb\\xf6\\xa3\\xf2\\xc0\\x86H@\\xc9D\\xa5l\\xec\\xf5 @vea\\x99\\xc8\\x86H@\\x00\\xde\\xa7O\\x17\\xf6 @\\xdeT\\xa4\\xc2\\xd8\\x86H@o\\x8e)\\x0eV\\xf6 @\\x01s\\x88\\x13\\xf3\\x86H@\\x91\\xf3Y\\xf9\\xc0\\xf5 @\\x88%\\x8a5\\x01\\x87H@0u\\xa1\\x03\\xdc\\xf5 @\\xba\\xec!+\\t\\x87H@\\xa2\\x0e+\\xdc\\xf2\\xf5 @\\xaa\\x82\\xac\\x02\\x10\\x87H@`\\x84:\\xf6\\xfd\\xf5 @=J\\x80\\xf5\\x13\\x87H@?\\xee\\x11 \\xf9\\xf5 @\\x16\\x14\\x06e\\x1a\\x87H@\\xa7;\\xf4\\x82\\xf4\\xf5 @\\xbd[\\xb4[&\\x87H@\\xd6F\\x86f\\xe8\\xf5 @\\xec\\xffw\\x9f>\\x87H@\\xc6\\xe7\\x04#\\xe5\\xf5 @\\xa9!`cM\\x87H@\\t1<\\x9b\\xfa\\xf5 @s?\\xf1\\xadY\\x87H@\\xffX-U\\x0e\\xf6 @\\xdb\\xf1pL`\\x87H@\\x1a\\xbf\\x95\\x91\\x1f\\xf6 @ 0jRe\\x87H@\\xdc\\xbf\\r\\x8c\\x17\\xf6 @\\xc7\\xc5\\x07,o\\x87H@\\xd7u^\\x19\\n\\xf6 @5;\\xf7\\xc3t\\x87H@\\x9c\\xcfoN\\xdb\\xf5 @\\xf9\\xaf\\xbd`\\x81\\x87H@\\x02\\x16T\\xaf\\xb6\\xf5 @\\xf1\\x98&\\x11\\x86\\x87H@\\x1c\\xd5D\\xfaH\\xf5 @\\x84\\x18C\\x94\\x8a\\x87H@:Q\\\\\\x9f\\x83\\xf4 @!\\x8e\\x1a\\xb8\\xa8\\x87H@\\x81\\xc1\\x7f\\x04\\x0f\\xf5 @\\x11\\xae\\xdb\\xfb\\xaf\\x87H@\\x14\\xf58\\xc2X\\xf5 @\\xb0Q{\\xb6\\xb3\\x87H@\\x806(Pz\\xf5 @\\x85\\xf4o\\xf2\\xb6\\x87H@a;sj\\xc2\\xf5 @M\\xe9\\xaa\\x8a\\xba\\x87H@\\x9a]\\xf7V$\\xf6 @z\\x13\\xe8\\xb8\\xbf\\x87H@5\\x0c\\x1f\\x11S\\xf6 @\\xc5\\x84\\xe2\\xd8\\xc4\\x87H@\\xe7\\xc0\\x17\\xcb\\x99\\xf6 @\\x0e\\xbcZ\\xee\\xcc\\x87H@w\\x07\\xc2_\\xdd\\xf6 @\\xab\\xaf\\xae\\n\\xd4\\x87H@\\x15\\xb1\\xe3\\x1a\\xfa\\xf6 @\\'\\xab}\\x95\\xd7\\x87H@\"\\xa5\\xd9<\\x0e\\xf7 @\\xf6:Nv\\xd8\\x87H@\\xce\\xc0m\\x12(\\xf7 @i\\x16\\r\\xbe\\xd5\\x87H@h]\\xa3\\xe5@\\xf7 @;p\\xce\\x88\\xd2\\x87H@\\xa5`2\\xfav\\xf7 @\\x05\\xf8n\\xf3\\xc6\\x87H@V\\x86\\xcc\\xf0\\xfa\\xf7 @\\xdb\\xbf\\xb2\\xd2\\xa4\\x87H@\\xe1e\\xe1F%\\xf8 @<83U\\x8b\\x87H@F\\x12s\\xffG\\xf8 @dF\\xd34\\x83\\x87H@\\x01F\\xe1\\xc4\\xa1\\xf8 @\\xa4&\\xb0\\xefy\\x87H@\\x8c\\xeb)\\x83\\xb4\\xf8 @@\\x95\\x89\\x11x\\x87H@S\\xb9\\xe4\\x13\\r\\xf9 @D\\x15\\xfe\\x0co\\x87H@\\xd6+vE:\\xf9 @Q\\x1c\\x9bxb\\x87H@\\xf6Y\\n\\xedA\\xf9 @d\\t\\xc6\\x1c_\\x87H@?8\\x9f:V\\xf9 @\\xc7q\\x96HX\\x87H@\\x1e$\\xfakh\\xf9 @\\x9a[\\xc6\\xf2S\\x87H@\\xc0\\x05\\xd9\\xb2|\\xf9 @R\\xba\\xf4/I\\x87H@\\xd0\\x8c4\\xa7\\x81\\xf9 @\\xc1\\x186oA\\x87H@M\\xc0\\nK\\x97\\xf9 @\\x03\\x05\\x83\\x105\\x87H@%\\\\\\xc8#\\xb8\\xf9 @\\xb5\\xc0\\x1e\\x13)\\x87H@V\\xf4\\xe2\\x1f\\x11\\xfa @\\x0ej\\xbf\\xb5\\x13\\x87H@HC\\xd7\\xcf\\xac\\xfa @>\\x83<q\\xef\\x86H@\\xb1\\xb4\\x9d\\x00\\xd4\\xfa @ \\xfczt\\xd9\\x86H@*\\x85\\xe5t\\xfe\\xfa @bx6\\xf5\\xcb\\x86H@L\\x10\\x1af\\r\\xfb @\\xc9\\xd9\\x850\\xc8\\x86H@\\xf4fy\\xc3\"\\xfb @}\\x87\\xec\\xcd\\xb9\\x86H@-\\x03s\\x99?\\xfb @n\\x11\\xbd1\\xa9\\x86H@\\x82\\x98:~^\\xfb @\\xa4;\\xe3V\\x9c\\x86H@\\n\\x964\\x90x\\xfb @\\x86\\xeb\\xacq\\x91\\x86H@\\x15-\\x8ah\\x85\\xfb @\\n\\xea\\xa5s\\x8f\\x86H@\\xff<\\xb2^\\xb1\\xfb @\\xea\\x8d\\xff\\xa7\\x87\\x86H@B\\x0bd\\xd1\\xcf\\xfb @\\x8e\\x9d\\xa6\\x85\\x81\\x86H@\\xd6{\\xe0\\x19#\\xfc @\\xcb\\xa4\\xe1\\xefr\\x86H@\\x19\\x85n@\\x95\\xfc @\\x1cNO\\x0eU\\x86H@\\xcf|\\x18k\\xc9\\xfc @\\x11\\xb7\\xf95H\\x86H@S\\x1e\\x82O\\x18\\xfd @7\\xb6\\xe8\\xae6\\x86H@\\x80\\xbc\\xb2f\\xbf\\xfd @\\x9bO\\xc2\\xf1!\\x86H@\\xd3^\\x8ehL\\xfe @\\x16\\x9b\\xfbP\\x0e\\x86H@\\xbf\\xe8<t\\x8b\\xfe @!\\x06\\xba\\xf6\\x05\\x86H@\\xeb\\xa69\\x1e\\xd8\\xfe @Fx{\\x10\\x02\\x86H@[$\\xedF\\x1f\\xff @B\\xd2\\xa7U\\xf4\\x85H@R(\\x0b__\\xff @\\xc6q;\\x8f\\xe5\\x85H@Y\\x8b\\xaa\\xba\\xa2\\xff @\\xe2*\\x05\\x93\\xd1\\x85H@(\\xa9\\x02\\xa4\\xec\\xff @\\xfd\\x05q\\xd4\\xc0\\x85H@\\xd2\\tW\\xf6\\x13\\x00!@ZU\\xe51\\xb9\\x85H@\\x01\\xb5b\\xc9f\\x00!@\\xcb!\\xf3\\x12\\xad\\x85H@\\xb9\\x87)6\\x8b\\x00!@E\"~\\x0f\\xa8\\x85H@p_\\x07\\xce\\x19\\x01!@d\\xfc\\xa0\\xd3\\x98\\x85H@\\x1cf\\xc3\\xf5\\x83\\x01!@\\xac\\x8b\\x80\\xaf\\x8d\\x85H@\\xa3.\\x08\\x9b\\xf0\\x01!@\\xb7\\xe8\\t\\xf0\\x82\\x85H@\\x1e&+\\xd08\\x02!@\\xa3\\x06\\xd30|\\x85H@\\xdc)\\xc2\\xf2\\x8c\\x02!@G\\x02\\r6u\\x85H@\\xc7y\\xa4f\\xb4\\x02!@\\xb4\\x96]\\x8bq\\x85H@N\\xe3(\\x8a\\xa1\\x02!@\\xf2\\xee\\xc8Xm\\x85H@{og\\xba2\\x03!@?\\x9d<va\\x85H@\\x83\\xa6%VF\\x03!@m\\xe1\\x1e\\xf0e\\x85H@\\x92\\x1f\\x96rc\\x03!@c\\xfdU6b\\x85H@\\xb7~\\xfa\\xcf\\x9a\\x03!@\\xf8\\x90Kw2\\x85H@\\x9a\\x0b\\xb7\\xd7\\xdd\\x03!@\\x8a\\x18\\x1b_ \\x85H@\\xc5\\xa5\\xcf\\xb3\\xfe\\x03!@\\x93\\x88\\x95v\\x0f\\x85H@`\\xf3`AP\\x04!@\\xc7c\\x06*\\xe3\\x84H@\\x01\\x7f\\x9d@}\\x04!@\\x84\\xcc\\xdf\\xce\\xcf\\x84H@\\xcc\\x9d\\xf4\\x19\\xab\\x04!@\\x943\\x14w\\xbc\\x84H@\\xb8\\xb3\\n\\xf6\\xba\\x04!@\\xc8\\x7f\\xdc\\xd9\\xb2\\x84H@M\\x15\\x8cJ\\xea\\x04!@|o\\xc2s\\xa5\\x84H@D\\xa5\\x113\\xfb\\x04!@I\\xfe\\x16S\\x9f\\x84H@&\\xe7\\x1f\\xd8L\\x05!@\\xd6*\\x0bp\\x8b\\x84H@\\x1c\\xd9K\\tw\\x05!@\\x04\\xf6\\xe2\\xd5\\x83\\x84H@\\xec\\x89\\t\\xc5\\xb1\\x05!@\\x97\\x16\\x9a\\x90{\\x84H@=\\xd5!7\\xc3\\x05!@Q\\x9e\\x1e\\x80y\\x84H@\\x90\\xb0\\xb9\\xb4+\\x06!@t\\xe1Qtn\\x84H@4\\x1f!\\x14\\xa5\\x06!@\\x8a\\xfa\\xc9\\xbde\\x84H@\\xc5/\\x06 \\xff\\x06!@j<\\xc76_\\x84H@\\x1d\"nN%\\x07!@\\xaaA=\"K\\x84H@\\x86\\xf8\\xd1\\xbaW\\x07!@\\xd7\\xaa\\xb8\\xccD\\x84H@)\\xec\\xa2\\xe8\\x81\\x07!@\\xb6.5B?\\x84H@\\x9be`.\\xf3\\x07!@`@\\x8a\\x95,\\x84H@\\xa0vS%%\\x08!@G\\x8d\\xaew$\\x84H@O\\x13l\\x12r\\x08!@}GC|\\x16\\x84H@\\x19\\x93Y\\x18}\\x08!@\\x9e\\xd4\\xf2^\\x10\\x84H@\\xb2\\x01\\xc7T\\xb0\\x08!@Fa\\x17E\\x0f\\x84H@\\x0e\\xf2\\x1fw\\xb6\\x08!@?\\xe0&H\\x11\\x84H@O\\xc1+\\x93+\\n!@\\xf7\\x978M\\xfa\\x83H@\\x0bk\\x19_j\\n!@\\xf36\\xdb\\x81\\xdf\\x83H@g0\\xa1\\xdd|\\n!@\\x8d\\x9e\\xb6\\xa1\\xbd\\x83H@r\\xe0\\xd5rg\\n!@\\x99\\x15\\xe5-\\xb2\\x83H@L`\\x84:\\xf6\\t!@=\\x98\\x14\\x1f\\x9f\\x83H@\\xf2g.&\\xec\\t!@\\xc0\\x87\\\\\\xba\\x93\\x83H@\\xa3S\\xfc\\x84X\\n!@T\\xed\\x89d~\\x83H@\\xc7\\xef\\x12AA\\n!@\\xe6/\\xe3\\\\y\\x83H@1\\xc9m\\xa0e\\n!@p\\xe8\\xd2dk\\x83H@\\xc4\\xdf@\\x92\\xa3\\n!@4\\xf2y\\xc5S\\x83H@24COo\\x0b!@\\x98\\x82\\xda\\x144\\x83H@\\xd8-\\x02c}\\x0b!@6mk\\xb0\\x15\\x83H@F\\x83\\xca\\xaej\\x0b!@\\xd3B\\x13r\\xef\\x82H@\\xd4\\xeaP\\xf2\\x8f\\x0b!@J\\xe9>\\xa5\\xef\\x82H@\\xb0\\x1b[tW\\x0b!@`\\'P\\x1f\\xdc\\x82H@\\xc3\\xd6l\\xe5%\\x0b!@\\xf8W\\xea\\xb4\\xc9\\x82H@\\xb2\\xe7|\\xc2#\\x0b!@\\x9f#M\\x17\\xbd\\x82H@\\xecL\\xa1\\xf3\\x1a\\x0b!@i@\\x18\\xd3\\xa7\\x82H@F\\xe0Y\\xcc\\x19\\x0b!@\\x89\\xf5\\xa1f\\xa3\\x82H@D\\xe8V\\xbe\\x1d\\x0b!@H\\xefe\\xec\\x95\\x82H@\\x1d\\xb2\\xdc-$\\x0b!@\\xbfJ\\x99/\\x8a\\x82H@}gj\\xc8.\\x0b!@dF\\xd34\\x83\\x82H@;\":_G\\x0b!@\\xf4_\\xd6zu\\x82H@B\\r:|-\\x0b!@\\x8a\\xc6\\x7f&g\\x82H@\\x19\\x97\\x05n8\\x0b!@\\xd1U_\\x02\\\\\\x82H@\\x96HX\\n7\\x0b!@\\xeb\\xa0\\\\dL\\x82H@8\\x18Ej5\\x0b!@~y\\\\\\xafD\\x82H@n\\x8dc\\x7f4\\x0b!@\\x99\\xed\\xaf\\xc3=\\x82H@\\xd3\\xd0P\\xed\\x1d\\x0b!@u\\x17\\xcdo=\\x82H@A\\xdea\\xc9\\x0b\\x0b!@\\xbf\\xa4\\xe7\\xcc,\\x82H@\\x03Ok\\xe4\\x04\\x0b!@\\xf2\\t\\xd9y\\x1b\\x82H@\\x04z<\\x88\\xf8\\n!@\\xac\\xa8\\xc14\\x0c\\x82H@\\xfb\\xb2\\x0f\\r\\xe6\\n!@:&\\xe6\\xb4\\x02\\x82H@\\tm9\\x97\\xe2\\n!@\\x9d\\x8e\\xb6\\xe0\\xfb\\x81H@v\\xe7\\xe4\\xa0\\xdf\\n!@E5\\x80\\x12\\xfa\\x81H@\\xb2\\xa9\\xa9\\x1b\\xde\\n!@u5\\x1e\\x11\\xf8\\x81H@\\xf7\\xf8\\xcey\\xd7\\n!@\\x1f\\xd4\\xeaP\\xf2\\x81H@\\xfb\\x91\"2\\xac\\n!@G\\xb4x\\x0c\\xea\\x81H@n\\x85Ua\\xd8\\n!@s\\xfd\\x16\\xf8\\xe5\\x81H@\\xe4\\x8fXA\\xc2\\n!@\\n\\xe0\\xc1\\xaa\\xd5\\x81H@\\xef\\x928+\\xa2\\n!@1J\\x86\\xd2\\xcd\\x81H@^\\x08\\xde5\\x8d\\n!@L\\xb8\\xa1s\\xc8\\x81H@\\t\\xf5\\x99X\\x85\\n!@\\xa67\\xeds\\xc6\\x81H@U~c\\x19,\\n!@\\x15\\xd5l/\\xb3\\x81H@(\\xc0fo\\xdf\\t!@\\x06_=\\x93\\xa2\\x81H@H$\\xc0\\x9f\\xd0\\t!@+\\x9d\\xb4\\x15\\xa0\\x81H@\\x0c\\xb8\\x9dl\\xb9\\t!@\\x9e\\xac\\xbd\\xf4\\x9b\\x81H@\\x8a\\xbc\\x9b]\\xad\\t!@.m\\xddr\\x9a\\x81H@\\x92,\\x16u\\x9c\\t!@\\x05\\x0e\\r0\\x98\\x81H@\\xfc\\x0c^\\xaa\\x88\\t!@\\x18\\xadH\\xf1\\x96\\x81H@,I\\x9e\\xeb\\xfb\\x08!@\\x88\\x9b\\xf8\\x0f\\x8e\\x81H@\\xdb\\xbb\\xab\\xc3v\\x08!@\\x0fV\\xad\\x96\\x85\\x81H@TZ\\xda\\x04s\\x07!@\\x1dUM\\x10u\\x81H@\\xf2 \\xe2\\x8b\\x9b\\x07!@\\xaa\\xa9\\x1b\\xdeb\\x81H@\\xf6\\x0c\\xe1\\x98e\\x07!@]\\x12\\x0c\\x8ca\\x81H@5\\xca\\x9f\\x14R\\x07!@^\\xa2zk`\\x81H@\\xc1`\\xed\\xde@\\x07!@r^RkP\\x81H@\\xedl~\\xb2\\x18\\x07!@*\\xc6\\xf9\\x9bP\\x81H@\\xea\\xef\\x00\\xaa\\x13\\x07!@\\xf0:v\\xabB\\x81H@\\xccF\\xe7\\xfc\\x14\\x07!@ W4\\xe7*\\x81H@x\\xb8\\x1d\\x1a\\x16\\x07!@<\\xd1\\xbfn\"\\x81H@=^\\xed\\xcd\\x14\\x07!@\\xa2\\xad\\x94\\xaf\\x15\\x81H@\\xa3\\x8b\\xf2q\\x12\\x07!@\\x9d\\x9apT\\x13\\x81H@\\x07\\xcc\\xe8\\xec\\t\\x07!@Nx\\xae\\x94\\n\\x81H@\\xf0\\xd7\\t\\xd4\\x07\\x07!@\\xaf\\xe8{\\xb2\\x07\\x81H@R\\xb0k \\x02\\x07!@3\\xd3\\x07\\xdc\\x04\\x81H@ \\xe3\\x9b\\xb7\\xfb\\x06!@\\x82\\xaa\\xd1\\xab\\x01\\x81H@\\xbb\\x13GyA\\x07!@\\x0b\\xa2I\\xbd\\x02\\x81H@/\\xb3\\xbe7<\\x07!@A\\xd5\\xe8\\xd5\\x00\\x81H@\\xa7\\x1aba-\\x07!@\\xfd7\\x8a\\x07\\xef\\x80H@\\xf1\\x06\\xe2\\x86)\\x07!@v\\x8b\\xc0X\\xdf\\x80H@9n\\xe7\\xb1\\x1c\\x07!@b\\xee\\xff\\x88\\xcb\\x80H@\\xbe\\xd4t\\xe2\\x17\\x07!@=_X\\xa3\\xc3\\x80H@~\\x05\\xc4\\x7f\\x15\\x07!@O\\xd0\\x81@\\xc2\\x80H@\\x86\\xc4\\xe2\\xdc\\xcb\\x06!@ \\xaeA\\x04\\xc1\\x80H@\\x91\\xd9\\xb4\\xad\\xc1\\x06!@\\xa87\\xa3\\xe6\\xab\\x80H@L\\xdd:\\xa4\\xbd\\x06!@\\xba)\\x8a\\xfc\\x9f\\x80H@q\\xf3\\xd7u\\xb9\\x06!@\\xe83\\xa0\\xde\\x8c\\x80H@\\xb9\\x0e\\x1f\"\\x7f\\x06!@\\xb93\\xb8Rt\\x80H@\\xed\\xde\\xe5}w\\x06!@w\\x9d\\r\\xf9g\\x80H@\\x13w\\x06W\\x8a\\x06!@78l\\xb6M\\x80H@\\t\\xf9\\xa0g\\xb3\\x06!@Mv}0:\\x80H@\\xe8\\xc7\\x15\\xcd\\xb9\\x06!@<\\xac&>-\\x80H@\\xe0H\\xa0\\xc1\\xa6\\x06!@z\\xcd\\x06\\xf4\\x1d\\x80H@V\\xa6N\\xf6\\x85\\x06!@\\x07K+t\\x14\\x80H@\\x95\\xa8\\xcd\\xee\\x7f\\x06!@ \\xdb\\xe8R\\x12\\x80H@\\xbe\\xd6J\\x8du\\x06!@\\xe0\\xaf\\x13\\xa8\\x0f\\x80H@!\\x13:\\xf9>\\x06!@\\xf7>U\\x85\\x06\\x80H@Qf\\x83L2\\x06!@#\\xeaO,\\x01\\x80H@\\xd42\\xad\\xa8\\x1c\\x06!@\\xed\\x99\\xcaG\\xf7\\x7fH@\\x02\\xb5\\xbd\\x82\\xd9\\x05!@\\xb3mb\\x92\\xdb\\x7fH@\\x07\\xf0q\\x01\\xc3\\x05!@\\xecV\\x85\\xbc\\xd4\\x7fH@\\xebt \\xeb\\xa9\\x05!@\\x95yP\\xf5\\xd0\\x7fH@\\xa8\\x8aN;\\xa1\\x04!@\\x8d\\xe05\\x9e\\xbe\\x7fH@\\xbc\\xca\\xda\\xa6x\\x04!@t\\x11:C\\xcc\\x7fH@\\x98\"\\xaf\\xbd\\x05\\x04!@\\x06n8\\x87\\xc6\\x7fH@\\x14\\xea\\xe9#\\xf0\\x03!@\\xd8\\xcd1\\xc5\\xc1\\x7fH@\\x01\\x1e\\xacZ-\\x03!@\\xcfp^\\xf7\\xb1\\x7fH@\\xe69\\xc7%3\\x03!@w\\xa7\\x96\\x08\\xaf\\x7fH@\\x99{\\xed>l\\x02!@\\x14\\xa9\\xd5\\xfc\\x9d\\x7fH@\\xdb-nHH\\x01!@V\\xba\\xbb\\xce\\x86\\x7fH@*\\xf4\\x0b\\xc0P\\x01!@\\x1cc\\x82uw\\x7fH@\\xbc\\xdb\\x06\\xffl\\x01!@\\xc1-i\\xd6c\\x7fH@$q\\xa0\\xd1g\\x01!@\\x9c\\xd2\\x0b\\x88Z\\x7fH@P\\xb9\\xd3\\xe7\\xb4\\x00!@\\x81\\x9a\\xb5oI\\x7fH@\\x81.\\xd0\\xa4\\x03\\x00!@Y\\x91\\x87t.\\x7fH@o\\xd7KS\\x04\\x00!@^\\x08\\x83|\\x1a\\x7fH@H\\xa1\\xd1\\xc2\\n\\x00!@f\\x024\\x00\\n\\x7fH@,\\xd7\\xdbf*\\x00!@\\xaaB\\xa8\\xf7\\xf9~H@H\\xae\\xf6\\x0b\\xd1\\x00!@O]\\xf9,\\xcf~H@\\xee\\xb9\\xa7\\x06\\xf5\\x00!@\\xd3DD\\xd6\\xbf~H@[\\x84\\x18\\x9eM\\x01!@y\\xb0\\xc5n\\x9f~H@^\\xe0\\xa8\\xcb\\x18\\x01!@\\xfb=\\xb1N\\x95~H@\\xdbu%\\xb8G\\x01!@-f\\xdfpz~H@t\\x91\\xe7\\x9f\\x85\\x01!@\\xb18\\xf7\\xb2H~H@h\\x14\\x81\\xa0\\x92\\x01!@O\\x15\\x9dvB~H@\\xbd\\x86\\x85\\xff\\x19\\x02!@\\xfe\\xee\\x1d5&~H@\\xb2-\\x03\\xceR\\x02!@<\\xab`\\xaf\\x0b~H@\\x1e\\xd8\\x96\\xa6\\xad\\x02!@p*\\xad\\x1a\\xdf}H@}N\\x8b\\x0bQ\\x03!@\\x92\\xbd\\x94p\\xd7}H@\\xdf\\xe5}w\\x86\\x04!@\\x9a\\xf9\\xc4\\xf0\\xc7}H@\\x14\\xad\\x81RY\\x05!@D\\xb8n\\xef\\xbf}H@\\xa4\\xa2V=\\x05\\x05!@\\x9b;\\xfa_\\xae}H@m\\xf6QW\\x88\\x04!@\\xe3\\xfb\\xe2R\\x95}H@\\xfa\\xe11M\"\\x04!@\\x06\\xc0\\xd3\\xbf\\x7f}H@\\x8b\\n\\xe6\\xf9\\x1d\\x04!@yj?cp}H@=\\n|\\xea\\xfd\\x03!@^:\\x9c\\xafH}H@\\xad(o\\x91\\xc5\\x03!@\\xd2K\\xd6\\xf2\\x14}H@ON\\xfe8\\xab\\x03!@\\xbc\\x8bAq\\x11}H@\\xc2\\x02N\\xa5U\\x03!@\\x8d;\\xef\\x10\\x10}H@\\xbaX\\x07\\xf6N\\x03!@\\xd0\\x08\\xdb\\xf4\\x0c}H@\\xa2\\xed\\x98\\xba+\\x03!@\\xf0\\xe85,\\xfc|H@\\x94\\x1dv:\\xeb\\x02!@A~6r\\xdd|H@\\xfa\\x00\\xee\\xc3\\x8b\\x03!@\\xf1\\x18y\\xb4\\xcc|H@\\x19\\x9f\\x13\\x8c\\x94\\x03!@\\xbdV\\x9d0\\xbc|H@\\xcc\\xa9\\xae\\x8d\\xc2\\x03!@\\x16\\x93\\xed2\\xb2|H@ YeK\\xfb\\x03!@\\x83\\xb1t\\xf4\\xae|H@\\xd6m\\xf5A;\\x04!@M\\x1fp\\x13\\xa4|H@\\x12\\xa0K\\xdd:\\x04!@\\xa8+\\xe9r\\x94|H@\\'M\\x83\\xa2y\\x04!@v\\xf6:Nv|H@>{.S\\x93\\x04!@\\xe8\\x80\\xc92i|H@D\\x8a\\x01\\x12M\\x04!@\\x9d\\x7f`3e|H@[V\\x06zM\\x04!@\\x07\\n\\xbc\\x93O|H@\\x1f\\x86V\\'g\\x04!@\\x83\\xdao\\xedD|H@\\x9e%\\xc8\\x08\\xa8\\x04!@A\\xb7\\x974F|H@\\xd9\\x9c\\xde \\xb5\\x04!@T\\x92\\xd0\\xf1,|H@\\x06\\x85\\x9cR\\xb9\\x04!@\\x01\\x99\\xe7\\xd2\\t|H@\\xcbRF\\xb7\\xb9\\x04!@\\x16\\x08L\\xf1\\x02|H@\\xad\\xe6\\xef\\x94\\xc4\\x04!@\\xb4bn\\xad\\xe5{H@/\\xca\"\\x03/\\x05!@\\x18~\\xcb\\xf7\\xe7{H@Y0\\x96\\x8e\\xde\\x05!@\\xa5\\x12\\x9e\\xd0\\xeb{H@\\x91\\xd0\\x96s)\\x06!@\\xaa\\xdd\\n\\xbc\\xee{H@\\xa1\\xba\\xb9\\xf8\\xdb\\x06!@e\\xea\\t\\xa6\\xf5{H@\\x9f~\\x06\\x8a\\x0e\\x07!@\\x94\\x9c\\xb8\\xc1\\xf5{H@\\x86\\xe3\\xf9\\x0c\\xa8\\x07!@\\x8a.\\xb9\\x9b\\xf1{H@\\tS\\x94K\\xe3\\x07!@c\\xc1\\xb3\\xf3\\xec{H@V\\xc0\\x98\\x88\\x12\\x08!@\\x8f\\x94\\x88K\\xe9{H@\\x90z\\x99r\\xcf\\x08!@\\xeau0\\x07\\xe6{H@y\\xc4\\x8d\\x00\\x13\\t!@mZ\\x84\\xbd\\xe4{H@:ps\\xcf_\\t!@d\\x96\\x98\\xc2\\xde{H@\\xf8f@b`\\n!@3\\x0e?I\\xcb{H@\\x13\\x98\\xf31\\xc4\\n!@\\x16/\\x16\\x86\\xc8{H@xW\\x87\\xed8\\x0b!@\\x85\\x11V\\xbe\\xc2{H@\\x85\\xa0Y\\xc8\\x12\\x0c!@r\\xcb\\xfd\\xc4\\xb7{H@q\\x03>?\\x8c\\x0c!@c\\x86!\\xcd\\xb3{H@$\\x08\\xfc\\x86.\\r!@\\xd6\\xaf\\xcf\\xf7\\xae{H@\\x9f\\xfaQ\\x1e\\'\\x0e!@\\x16H\\xf5B\\xa6{H@\\xce\\x14\\xdf\\xf5>\\x0e!@\\xcfY\\xb0\\x9e\\xa4{H@\\xf6W4B\\xe4\\r!@\\xb1\\x9bc\\x8a\\x83{H@$\\xafsx\\xad\\r!@2\\x87\\xee\\xa3d{H@h\\x05\\x86\\xacn\\r!@M\\x03\\xf5\\x1cG{H@\\xf2/892\\r!@z\\xd6\\x7f\\xe7({H@/G\\xd9l\\xf6\\r!@\\x96P\\x0bo {H@4\\xc9~\\xcc\\xbd\\x0e!@J,\\x840\\x12{H@#\\xc6\\xc6\\x17H\\x0f!@\\xd3\\x99\\xc5\\xd5\\x12{H@\\xff\\x02\\xe6\\xc6\\x99\\x0f!@2t\\xec\\xa0\\x12{H@3\\xc3FY\\xbf\\x11!@B\\x88u\\xf4\\t{H@\\xb9\\xb7l\\xbe[\\x12!@z\\x93:\\\\\\x06{H@K\\x1d\\xe4\\xf5`\\x12!@\\xc70\\x82!\\x06{H@ N\\x16\\xad\\x92\\x12!@\\xab\\t\\xa2\\xee\\x03{H@\\x1a\\xa0\\xd9\\x1a\\xb6\\x12!@\\xc3Q\\xa8]\\x02{H@\\xa1\\xf0~\\x81\\xc5\\x12!@\\xd5\\xa8,\\xaf\\x01{H@\\x9b\\xaf\\xedHP\\x13!@)p\\xfc\\x9a\\xf6zH@;\\xbf\\xcd\\x87\\x0c\\x14!@\\xfe\\x85y\\xea\\xeczH@\\xb0\\x9f\\x0f\\xe0>\\x14!@\\x99~\\x89x\\xebzH@\\xe0\\x87\\xde=\\x9b\\x14!@55\\x1a\\n\\xe9zH@\\xfb\\x8c\\xb0M\\xcf\\x14!@N\\x91\\x8dQ\\xe8zH@\\x81\\x9a\\xb5oI\\x15!@\\x9cb\\x1f\\xae\\xe6zH@\\xdc\\x87\\x17\\x9f]\\x15!@\\xf6\\xe1j\\xae\\xe4zH@x\\xa8\\xb7PC\\x15!@\\xd6#h\\'\\xdezH@\\xc8\\xc0\\xf0\\x00\\x05\\x15!@\\xb6\\x906D\\xcbzH@\\x19\\xd1,\\xbf\\xc2\\x14!@I8\\xe3\\xea\\xb6zH@{<\\xe3\\xb1U\\x14!@\\x98pC\\xe7\\x90zH@\\xcb\\x01q\\r\"\\x14!@N0R\\xde}zH@\\xef\\xd6CE\\xe6\\x13!@-,\\x13\\xd9bzH@\\xa6KZL\\xc7\\x13!@/!\\xd5fRzH@\\x00\\x1f\\xbcvi\\x13!@\\x8eg\\x86C%zH@/\\x9a\\xdfz^\\x13!@\\x8a\\xbc\\xf6\\x16 zH@\\xc6$\\x12;\\t\\x13!@ryb\\x8c\\xfeyH@\\x02~2k\\xce\\x12!@q9^\\x81\\xe8yH@\\x1d\\x1dW#\\xbb\\x12!@\\xb2\\xc6\\x8f\\xe7\\xe9yH@\\x0b\\xdeF\\xb9\\xea\\x10!@\\xf4\\x0f\\xc7_\\xffyH@\\xe0\\xb9\\x9c\\xb7V\\x10!@XS\\xfeZ\\x03zH@\\xbc;2V\\x9b\\x0f!@{\\xb3\\x17\\x1b\\x04zH@\\xe5~\\x87\\xa2@\\x0f!@\\xa5\\xf0E \\x03zH@`j\\x95\\xaa\\xfe\\x0e!@:&\\xe6\\xb4\\x02zH@2\\xfe\"\\r\\x13\\x0e!@|nW\\x9e\\xf6yH@\\xcdLz)\\x86\\r!@\\x15\\x94\\xfdN\\xeeyH@\\xe6\\xf6\\x81\\x9a\\x10\\r!@\\x14W:\\xc4\\xe4yH@\\x13z\\xa2\\x90\\t\\r!@\\rz%\\x7f\\xe6yH@K\\x0e\\x8eH\\xca\\x0c!@\\xab\\x98J?\\xe1yH@V\\x1fY\\n\\x92\\x0c!@\\xb9rQ\\x88\\xdbyH@F\\xca\\xbb\\x8fH\\x0c!@~\\xf5\\x02\\xfd\\xcfyH@\\x9fhhM=\\x0c!@\\xa821\\x02\\xcfyH@\\xe0\\xaa\\xa1\\xc32\\x0c!@Z\\x95\\xe9<\\xcfyH@\\xb0\\xb8\\xee\\x9c\\x1c\\x0c!@\\xbb\\xa3Z\\x9f\\xcdyH@\\xf8\\x99i\\xb1\\xca\\x0b!@\\x12\"*\\x9e\\xc4yH@\\x04\\x13\\xc9\\xa1\\x8f\\x0b!@R\\xb4\\x17v\\xbdyH@a\\xef\\x0f\\xa5\\x07\\x0b!@\\xc1#\\x85\\r\\xaayH@e\\xbe(\\xe6\\xc5\\n!@P7P\\xe0\\x9dyH@\\x1e\\xd4\\x8f\\x97\\x7f\\n!@\\xc1\\x03^\\xc1\\x91yH@]\\x0f\\xcb\\x0bU\\n!@S\\xea\\x92q\\x8cyH@\\x00\\x9a\\xf7\\xeeE\\n!@0\\xec\\xd5l\\x8ayH@p\\xbe\\xc7O\\x99\\t!@\\x90g\\x97o}yH@\\xe5\\xc1\\xcc-c\\t!@\\xd4\\xf2\\x03WyyH@H\\t\\xb0~\"\\t!@\\x19\\x00\\xaa\\xb8qyH@\\x04\\xf3F\\x9c\\x04\\t!@\\x81\\xa9\\xb0cmyH@\\xf9\\xd8]\\xa0\\xa4\\x08!@\\xf9R\\xd3\\x89_yH@\\xd92*\\xba?\\x08!@\\xd4?-\\xabUyH@<\\x00\\x98!D\\x08!@\\x94(\\xc5\\xd8SyH@f\\xfe,\\xf1\\xdb\\x07!@\\xa6bc^GyH@Lp\\xea\\x03\\xc9\\x07!@\\xa7\\xca\\xf7\\x8cDyH@\\x96\\x87;\\xcd\\xb8\\x07!@\\xc9qL\\xbb=yH@&\\x8f\\x02\\x9fz\\x07!@l\\x89\\xa6\\xfd yH@\\xdd\\xe2+\\xcb!\\x07!@\\xaf9\\xac\\x15\\x12yH@\\xd3y\\x9e\\x89\\xfa\\x06!@5\\xfc]\\x8e\\ryH@\\xfe\\x0f\\xb0V\\xed\\x06!@\\xa2\\x96\\xe6V\\x08yH@\\x15/`\\x13\\xe3\\x06!@s#v\\xb7\\xfcxH@\\xd5\\x1a\\xef3\\xd3\\x06!@\\x90\\xfc\\x1cz\\xe6xH@\\x88!\\x83&\\xd3\\x06!@\\xccYD\\xb9\\xd9xH@7\\x99\\xa7)\\xb8\\x06!@\\x14\\xf2\\x9c\\x88\\xd9xH@x#\\x98\\x0f\\xad\\x06!@\\xbb\\xa3Z\\x9f\\xcdxH@\\xae\\x163\\x1d\\x95\\x06!@R\\x05H\\xd9\\xc7xH@\\xa2\\xb5\\xa2\\xcdq\\x06!@\\x90\\xe7\\xe9\\x12\\xc4xH@}\\xe2\\xa5@\\x0b\\x06!@\\xda\\xc54\\xd3\\xbdxH@\\xd8jj4\\x14\\x06!@S\\x92u8\\xbaxH@\\xba[\\xa3/\\xce\\x05!@\\xfd\\xa6\\x0b\\x0c\\xb4xH@\\xf5/Ie\\x8a\\x05!@\\x9c\\xd1\\xa0\\xb2\\xabxH@\\x03\\xd7p\\xec4\\x05!@\\xe6\\xc3XK\\xa6xH@\\xfb\\xa9\\x96\\x19\\xdb\\x04!@\\xea\\xad&\\xf4\\x9fxH@2\\xbd\\x0e\\xe6\\xc0\\x04!@\\x91 \\xa6\\x8e\\x9fxH@\\xaf\\xd7\\xaa\\x13\\x86\\x03!@{\\xc5\\xaeH\\xa7xH@g\\xdf\\xcb3\\xe5\\x01!@\\x86\\x9bB\\x9d\\xa8xH@X\\x9f\\xbc\\xd90\\x00!@!\\x1e\\x89\\x97\\xa7xH@\\x8ch;\\xa6\\xee\\xfe @\\xa66\\'\\xe5\\xa4xH@\\xad4)\\x05\\xdd\\xfe @d\\xd1\\xcf/\\xa5xH@%\\xc9s}\\x1f\\xfe @\\xb2tOh\\xa3xH@\\xc1K\\xbaw\\x1e\\xfe @aZ\\x8a\\x9a\\x9exH@\\xde\\x10\\x99\\xa8\\x94\\xfd @E\\xd7\\x85\\x1f\\x9cxH@C,\\xace|\\xfd @p4\\x91\\xe3\\x98xH@\\xc8ca\\xe3U\\xfd @$u\\xa7\\xe0\\x95xH@\\xb0\\x07\\xee\\x9bV\\xfd @O\\xfa\\x8cU\\x94xH@\\x14,\\xc4\\xd9c\\xfc @\\x04\\xff[\\xc9\\x8exH@\\x8d\\xbe8\\xa7H\\xfc @FPF\\xa6\\x8dxH@+5{\\xa0\\x15\\xfc @\\x8f~E\\xc8\\x8axH@\\x139\\x8ei\\xb7\\xfb @od\\x1e\\xf9\\x83xH@\\x17\\x04\\xa0\\x9bG\\xfb @3\\x15\\xe2\\x91xxH@\\x89\\x9c\\x19X\"\\xfb @\\xde\\x04\\xdf4}xH@\\x0c\\xe6\\xaf\\x90\\xb9\\xfa @\\x8d\\x8b\\xb4\\x9ekxH@n\\xc9\\x05\\xc2\\xa9\\xfa @\\x17\\xff-\\xb7jxH@\\xb7\\x98\\x9f\\x1b\\x9a\\xfa @@\\xda\\xff\\x00kxH@8\\x1a\\x1b\\x15\\x93\\xfa @\\xa5\\xe1\\xefrlxH@0\\xf1GQg\\xfa @\\xd0\\xc3\\xbf\\xbe\\x8cxH@\\x1e5&\\xc4\\\\\\xfa @w\\x92c\\xa1\\x8cxH@j\\xed\\xc77%\\xfa @*\\xb9\\xd4R\\x8axH@\\x05\\xc9\\x96@\\xa5\\xf9 @\\xc1\\xb8e\\xd1\\x85xH@D\\x08\\xd9\\xc3\\xa8\\xf9 @\"\\xc7\\xd63\\x84xH@\\xfb\\xf6d\\xb4D\\xf9 @M\\n=\\xac\\x81xH@p\\xe1\\x8a\\xd50\\xf9 @\\xed\\xd3\\xf1\\x98\\x81xH@\\xd5\\th\"l\\xf8 @\\xe2\\xb5\\xa6\\xd4\\x80xH@y\\x85O\\x84\\x1e\\xf7 @\\xf3\\x06\\xf3\\xb2\\x81xH@\\x99\\xfdpF\\x83\\xf6 @fr \\xda}xH@\\x89\\x01\\\\\\xda\\xba\\xf5 @\\x93\\xad\\x89`wxH@\\xf6\\x02X\\x89\\x1e\\xf5 @\\xf0\\xf6\\xc5JqxH@U2\\x00Tq\\xf3 @,\\x9c\\xa4\\xf9cxH@1V\\xe5\\x8cr\\xf2 @\\x80\\xa07pbxH@\\xcd\\x95A\\xb5\\xc1\\xf1 @\\xec\\x8at\\x9a`xH@`o\\x07\\x8f\\xdb\\xf0 @\\xaa\\xafSQaxH@\\x12\\xaa/\\xa6\\xf4\\xef @\\x03QA\\x8fbxH@4\\x1aTvU\\xef @b\\x87\\x8c\\xa2bxH@\\r#s\\x1b\\xc3\\xee @\\xa4\\xa4,\\xe8bxH@\\xbe\\x8e\\x93\\x1dv\\xee @\\x08J\\xc0\\x9eexH@\\x0f\\x86\\xf0\\x1eV\\xee @H\\x8f:\\x95gxH@\\x7fJ:o\\x08\\xee @N\\n\\xf3\\x1egxH@\\xfa\\xae\\xadDE\\xed @vw\\xf8\\xc6kxH@-\\x12\\xc9F\\xd6\\xec @Q\\x9b\\xdd\\xfflxH@\\x93\\x16\\xd3\\xf1=\\xec @\\xc1\\x92\\x06\\x12oxH@\\xc6s\\x11:C\\xec @\\xf7\\x94\\x9c\\x13{xH@st\\xa6\\x1a\\x07\\xec @V\\xae\\x01[oxH@!yB\\n\\xf9\\xeb @\\xde\\xa8\\xba\\xec|xH@\\xa5\\xca\\xe6`\\xec\\xeb @\\x84\\xa8\\xb1s\\x89xH@9p\\x18\\x16\\xed\\xeb @\\x99.\\xc4\\xea\\x8fxH@\\x86,\\xc1\\x98\\xe3\\xeb @\\xd8\\x11\\xe2%\\x93xH@\\xc8\\xd6\\x8e=\\xd6\\xeb @\\x13>\\x00N\\x94xH@q\\x00\\xfd\\xbe\\x7f\\xeb @\\x9bC\\xad\\xc4\\x97xH@@\\xaa\\xbcx\\x9a\\xeb @ON\\xfe8\\xabxH@9l\\x11\\x07\\xbf\\xeb @\\x0b\\x87\\x94U\\xc7xH@Z\\x115\\xd1\\xe7\\xeb @\\xc9\\xd4\\x13L\\xebxH@;Q\\x12\\x12i\\xeb @2\\x93\\x03\\xd1\\xeexH@\\x94\\x08\\x9e\\x8c;\\xeb @\\x0e\\x13\\rR\\xf0xH@S]\\xc0\\xcb\\x0c\\xeb @\\x08\\x98T\\xc8\\xf0xH@\\xff\\x9e\\x0e\\x1a\\xb0\\xea @>\\xc5\\xbbm\\xf0xH@\\xa1t\\xd83:\\xea @a\\xc9\\xb0\\xe5\\xf0xH@Pxd\\x07\\xf0\\xe9 @\\xae\\x04\\x9c\\xef\\xf1xH@`\\xbc\\xd5)E\\xe9 @\\x1f\\x02\\xfdt\\xf2xH@\\xa4\\xcd\\'\\xe1\\xf8\\xe8 @\\x08\\x98T\\xc8\\xf0xH@\\x1cz\\x8b\\x87\\xf7\\xe8 @\\xdbT8\\xdd\\ryH@\\xcaeH\\xba\\x0b\\xe9 @\\xe2\\xc7=\\x02$yH@\\xf1\\x1b\\x15\\xeeK\\xe8 @\\xa2\\x0f\\xf1j\\x14yH@\\x1a\\xeb\\xd1\\n\\xc2\\xe7 @\\xff0S\\xa4\\x0cyH@\\xff\\x8aF\\x88<\\xe7 @\\xeb\\x96\\xd3T\\x05yH@4\\xf0Ha\\x83\\xe6 @V\\xa0q<\\xfaxH@\\x93\\x99\\xc1\\xce\\x03\\xe6 @\\xc4\\xb0\\xc3\\x98\\xf4xH@ \\x94\\x9c\\xb8\\xc1\\xe5 @OD\\x1ap\\xf1xH@\\xbcF\\x81\\xf4\\x03\\xe5 @\\xd7\\xeaa\\x1e\\xe8xH@\\x98\\x12\\xee:\\xc0\\xe4 @VC\\x87e\\xd8xH@\\xb9S:X\\xff\\xe3 @\\xa2\\xe0\\x18\\xb8\\xf2xH@\\x85\\xc1\\xeb\\xe9\\xd9\\xe2 @,\\x13\\xd9b\\x12yH@1\\x17\\x02\\xca\\xf0\\xe1 @\\xa8\\xb8\\xbb\\x18\\x14yH@e\\n\\x8c\\xab\\x80\\xe1 @$*T7\\x17yH@p[\\x00\\xbf\\xeb\\xe0 @[l\\xa4\\xb6\\x1eyH@\\x1c\\x89\\x86{\\x1b\\xe1 @\\xe6\\xc95\\x052yH@\\x1e\\x89\\x97\\xa7s\\xe1 @\\xe9\\x8bs\\x8aDyH@;\\x00\\xe2\\xae^\\xe1 @\\xef8EGryH@\\xfd}\\x10\\x13\\x1e\\xe2 @\\xf2\\x9e^\\x84\\x84yH@\\xc6\\xf80{\\xd9\\xe2 @\\xc2\\x1d\\x03\\r\\x91yH@\\xf3\\'\\xe0\\x8d\\xbb\\xe3 @\\xb7\\xf7\\x04\\xe4\\xa6yH@\\xc5\\x88\\xe9\\xe7\\xf2\\xe3 @h)\\xb4\\x07\\xb5yH@\\x9b\\x82F\\xfa\\xfe\\xe3 @(c|\\x98\\xbdyH@\\xb1\\x0e\\x91\\xe4\\x03\\xe4 @*\\x1cA*\\xc5yH@\\xc1 D\\x8d\\x9d\\xe3 @\\xa8\\xff\\xac\\xf9\\xf1yH@\\xc8\\xeaV\\xcfI\\xe3 @\\x169\\x9f\\x95\\x0fzH@Ou\\xc8\\xcdp\\xe3 @\\xb4l\\xf7\\xbc,zH@\\xd3/\\x11o\\x9d\\xe3 @(iYRIzH@\\x040\\xafm\\x9b\\xe3 @z\\x11\\x12\\x0ebzH@\\xb0]5*\\xcb\\xe3 @\\xa4\\xf5\\\\KmzH@5\\xbe\\xe5\\xa0:\\xe4 @\\x89(&o\\x80zH@\\x81\\xfd!G\\x84\\xe4 @\\xcae\\xed\\x00\\x99zH@\\x1e\\x99X*\\xb9\\xe4 @\\x8emc\\xfd\\xb0zH@\\xb6Vj\\xac\\xb3\\xe4 @\\x16\\xde\\xe5\"\\xbezH@Ny\\x19j\\xb9\\xe4 @\\xea\\xf9\\xe4r\\xcdzH@\\x92\\xd79\\xbc\\xd6\\xe4 @Ga\\xcd\\xb7\\xf4zH@S\\xbd\\xeb\";\\xe5 @_\\xddgK\\x0c{H@\\xb6k\\x9d\\x13\\xd6\\xe5 @\\xe7<\\xbe\\x18%{H@Rn\\x91j\\x8e\\xe6 @.#PX={H@\\xa1\\xbf\\xd0#F\\xe7 @]\\x90\\x88\\x84J{H@R\\xea7\\xb8\\x19\\xe7 @\\xe0\\xae\\xa8\\xd2`{H@T?\\xca\\xe3\\xc4\\xe6 @!\\xfd\\x9b\\xbcm{H@\\xe9\\x9b4\\r\\x8a\\xe6 @ \\xb8%\\xcdz{H@\\x07 Z\\xd0 \\xe6 @\\x945E\\xdb\\x8c{H@\\xcd4\\xab\\x88\\xe4\\xe5 @=\\x08\\xa6?\\xa0{H@\\x8f-\\x15e\\x80\\xe5 @\\x12r\\x94r\\xad{H@\\xd5,\\x86av\\xe5 @\\x9b*\\xce\\x07\\xba{H@\\xd0Rh\\x0fj\\xe5 @\\xb2\\x94v\\xb4\\xbb{H@\\x85\\xebQ\\xb8\\x1e\\xe5 @\\x04+=\\x89\\xbe{H@\\xear\\xef\\x86\\xd9\\xe4 @\\x01\\xe5J\\x98\\xc4{H@I\\xd0\\xa9u,\\xe4 @\\xe7\\xa2\\xc6)\\xdf{H@u^\\xbeP\\x1b\\xe4 @\\xbc\\x8dr\\xd5\\xe1{H@\\xe9\\xf4\\x17\\xd5}\\xe3 @?\\xd4l\\xd4\\xf9{H@:w\\xbb^\\x9a\\xe2 @\\xd8\\xa1\\xf5K\\x1f|H@T\\x97B\\xd6\\t\\xe2 @\\xbc\\x02\\xd1\\x932|H@\\\\q\\x16\\x9b\\xfb\\xe0 @\\x84\\xfd\\x8d,O|H@XY6\\xce\\x01\\xe1 @\\xdd\\x9e{jP|H@i\\x9b\\xd1E\\xf9\\xe0 @\\x00-\\xa7NQ|H@\\x92\\xf6\\xf52@\\xe0 @\\xdf\\xfe\\\\4d|H@\\xbb\\xc5\\xb2O\\xb6\\xdf @\\xe8\\xbf\\x07\\xaf]|H@\\xf5\\xec\\x03\\xdag\\xdf @-\\x85\\xf6\\xa0V|H@Jdz\\x1d\\xcc\\xdd @\\x01\\x94u\\xee,|H@c\\xd8\\xbc\\x05m\\xdd @}\\x08\\x05\\x00\"|H@\\x03\\xa8\\xf3\\xf2\\x85\\xda @\\xc9R\\x90D\\xd4{H@\\x98\\xa1\\x96\\x8b\\x9d\\xd9 @\\x82\\x86\\xa3P\\xbb{H@`|,\\xd8\\xa1\\xd9 @*\\xe5\\xb5\\x12\\xba{H@\\x86f\\xe8\\xe9m\\xd9 @JX\\xc0\\xa9\\xb4{H@w\\x97\\xd5\\x85i\\xd9 @\\xe4\\x8c\\x17\\xc1\\xb5{H@\\xe3\\xec\\x8c\\xa5\\xfe\\xd8 @\\xfc;6]\\xaa{H@\\x08\\xac\\x1cZd\\xd7 @]i\\xbe\\xef\\x84{H@\\xe0\\xd9\\x1e\\xbd\\xe1\\xd6 @\\xa5,\\xe8bx{H@\\x81\\x88\\x1eB\\xa6\\xd6 @[\\x93\\x13\\x92q{H@\\xdf\\x9b\\xf0\\\\)\\xd5 @~\\xf8\\x9e6O{H@\\xbb\\x1bU\\x97\\x9d\\xd3 @8\\xfb^\\x9e){H@\\xdcu\\x80q\\xba\\xd2 @*\\xed\\xc30\\x16{H@{\\xa6\\xf2\\xd1=\\xd2 @\\x1d\\x02G\\x02\\r{H@\\xaa@\\xd2L\\x9c\\xd1 @R:\\xa2\\x8c\\x02{H@]\\r\\x9a\\xa7\\x84\\xd1 @\\xf4\\xc7\\x0f\\xf0\\xffzH@\\xbcY\\x83\\xf7U\\xd1 @\\xf3p\\xa7\\x19\\xf7zH@\\x9fy\\x94\\xa51\\xd1 @\\xb2<Y{\\xe9zH@R\\xab\\xf9;%\\xd1 @\\x80\\xff\\xf7\\xf1\\xe1zH@\\xc4\\x883u\\r\\xd1 @}Th\\xc5\\xdczH@|Z\\xea\\xc5\\xf5\\xd0 @\\x02\\x11\\xe2\\xca\\xd9zH@\\xb5\\x00\\xc8d\\xcc\\xd0 @\\xe6ypw\\xd6zH@\\xc9\\xcd\\xcb\\xbc\\xb0\\xd0 @\\x87]\\xca\\xaf\\xd5zH@2Iv\\xb6\\x91\\xd0 @\\xceQG\\xc7\\xd5zH@\\xd3c\\x00M)\\xd0 @\\xe5\\xcf\\\\L\\xd8zH@\\xa7\\x19\\x9c\\xd2\\x0b\\xd0 @,\\xf2\\xeb\\x87\\xd8zH@\\xcf\\xe2{5\\xf6\\xcf @\\xaaG\\x1a\\xdc\\xd6zH@\\xd8\\'%\\xa9\\xf1\\xcf @\\x03\\x8d\\xe3\\xd1\\xd7zH@\\xf6\\xb3X\\x8a\\xe4\\xcf @D\\xf2:\\x87\\xd7zH@=\\xfb\\x80\\xf6\\xd9\\xcf @\\xf9\\xfc\\x8b\\xfb\\xeazH@\\xf5\\xa8Sy\\x96\\xcf @\\xb3\\x9e\\xb56\\xe8zH@X\\xbexP\\x9a\\xcf @\\x82<\\xbb|\\xebzH@h\\xb8\\\\X\\x92\\xcf @^f\\xd8(\\xebzH@S~\\xad\\xa6F\\xcf @\\xe3\\xf4?\\n\\xe8zH@@2\\x1d:=\\xcf @\\xa7\\x1e\\x0e\\xb7\\xe8zH@\\x8eb\\x14_H\\xce @Mno\\x12\\xdezH@\\x01\\x16\\xf9\\xf5C\\xcc @?\\x18\\x1d5\\xcbzH@\\xafn\\x06\\xc9L\\xcb @\\x04\\xa1\\x06\\x1d\\xbezH@\\xf2\\x8b\\\\\\x812\\xcb @\\xbc\\xda\\x9b)\\xbezH@\\xb3\\'\\x81\\xcd9\\xc8 @\\x9f\\xf4td\\x9bzH@\\xde>\\x06\\x86\\x07\\xc8 @\\xab`\\xaf\\x0b\\x9azH@\\x03\\xfb\\xf9\\x00\\xee\\xc7 @\\x15\\x81\\xfbK\\x9czH@\\xb6\\x9c\\xf0\\xb7\\xe2\\xc7 @\\xb4>@R\\x9fzH@\\xe6\\xef9\\x0b\\xd6\\xc7 @[\\xb1\\xbf\\xec\\x9ezH@\\xe1R\\xdfC\\xd3\\xc7 @\\xe0\\x87\\xde=\\x9bzH@\\x96\\xfa\\xc3\\xe0\\xab\\xc7 @\\xf8?v\\xcd\\x9azH@\\xc1\\xbb\\xa6Q\\x92\\xc7 @\\xa0\\x14R#\\x99zH@o\\x8a}\\xb8\\x9a\\xc7 @3\\xf9\\x0b\\xe2\\xa8zH@f\\x9d\\x96\\xc4\\xfe\\xc7 @N\\xa1N\\xd4-{H@\\x13\\xfa\\xf43P\\xc4 @\\xea\\xdf?\\'\\xce{H@1_^\\x80}\\xc4 @1\\xa9\\xeb\\x9a\\xda{H@\\x16\\x7f\\x80Z\\xb1\\xc4 @\\xc9\\x02&p\\xeb{H@\\xb0\\xfe\\xcfa\\xbe\\xc4 @\\xbf\\r1^\\xf3{H@\\xe2g\\x12\\xab\\xf5\\xc4 @\\xf9\\x92|\\xdb\\x02|H@\\xa9\\xde\\x1a\\xd8*\\xc5 @\\xdcwV\\x1c\\x18|H@s^\\x08\\xde5\\xc5 @\\xf48g\\x9f\"|H@\\xf7g\\xf5\\xc4)\\xc5 @}\\xec.PR|H@~\\xf6\\xc8\\x8b\\xf1\\xc2 @\\x15\\xfdF\\xe0\\xb4|H@\\x82\\xf1\\xc2\\x8c\\xdf\\xc2 @\\xb84\\xc8n\\xb0|H@a\\x11hU\\xf0\\xc0 @\\xdd\\xf5\\x88\\x87\\xe6|H@\\xce\\xb6\\xe4\\x02\\xe1\\xc0 @Thj#\\xe8|H@\\xf1@\\t\\xd8\\xb3\\xc0 @\\xab\\xcc\\x94\\xd6\\xdf|H@\\xa1\\x03\\xdc=\\x8a\\xc0 @[?\\xfdg\\xcd|H@\\x8bzw\\x1a\\x1f\\xc0 @V\\xe3[\\x0e\\xaa|H@\\xd2\"6\\xb3\\xf1\\xbf @d\\x86\\xd7?\\x99|H@D/H\\x9f\\xfb\\xbf @h.&\\xec\\x91|H@\\x1e\\xdf\\xde5\\xe8\\xbf @\\xaa\\x90<!\\x85|H@l.\\xed\\x8a\\xcf\\xbf @\\xdf\\xe2<\\xf7y|H@\\xe5\\xd9@\\x15\\x92\\xbf @.\\xbfx\\xabS|H@\\xd6\\xf2\\x14\\x83\\xd1\\xbe @)x\\n\\xb9R|H@\\xa9c:\\x19\\xc1\\xbb @\\x10ie\\x0c\\xbd|H@c6\\xb7\\xf8\\xca\\xba @l_@/\\xdc|H@|\\xd9\\xd1\\x93\\x8d\\xba @c\\xdbX?\\xec|H@\\x10\\x1af\\r\\x83\\xba @,\\xbc&\\xff\\xee|H@1n\\xb4-\\x14\\xba @\\xa7\\x19\\x9c\\xd2\\x0b}H@\\x9bs\\xf0Lh\\xb6 @\\xfd\\xe6\\xb4]W}H@ \\x02\\xb3\\xe7\\xd7\\xb3 @e\\xab&\\xe3s}H@\\x156\\x03\\\\\\x90\\xb1 @\\x0bo n\\x98}H@\\x9dY\\\\-\\xc1\\xaf @R\\xb4\\x17v\\xbd}H@\\xf6J\\xb4?\\xab\\xaf @P\\x04\\xcc\\xd7\\xc0}H@\\xcd\\xcfh\\x06L\\xaf @\\xd7n\\x16\\x8a\\xcf}H@*4\\xb5\\x11\\xf4\\xac @\\x9c\\xa0\\xf2T,~H@w\\x84\\xd3\\x82\\x17\\xad @Q29\\xb53~H@\\x10\\xf0\\xff>>\\xac @\\x03\\x17u\\xf7J~H@\\xa9\\x97)\\xf7L\\xac @\\xa2\\x02\\xcc!N~H@\\xeb\\xcb-\\x08@\\xab @B\\xa4\\xf0\\xeaf~H@l\\x13\\xddi!\\xab @\\xd6\\xfb2\\xbdi~H@kb\\x81\\xaf\\xe8\\xaa @ha\\xaa\\xf4n~H@\\xad\\xc2f\\x80\\x0b\\xaa @\\xb7\\xc3p\\xbf\\x8d~H@9iu\\xcd?\\xa9 @\\x13\\x13/\\xaa\\xa0~H@\\x88w\\xca\\xb4G\\xa9 @\\x18\\xc2{X\\xb9~H@\\xcc6\\x813B\\xa9 @\\xd6\\xe9\\x9b\\x8f\\xc6~H@\\x1ds\\x9e\\xb1/\\xa9 @#\\xe6H\\x1d\\xd3~H@U\\x85\\x06b\\xd9\\xa8 @u\\x07\\x0c\\xed\\xf7~H@\\x1c\\x93jD\\xd5\\xa8 @R\\xa7\\xf2,\\xf7~H@\\xfeb\\xb6dU\\xa8 @@\\x8ck\\xd7\\xdf~H@\\x92#\\x9d\\x81\\x91\\xa7 @\\xf1/\\xdd\\x7f\\xbf~H@\\xcd\\t5\\x9ec\\xa7 @}+\\xc8\\x85\\xb9~H@\\x8b+x\\x1b\\xe5\\xa6 @I/j\\xf7\\xab~H@m\\xd4\\xf9\\xa6\\x9f\\xa6 @4\\xd7i\\xa4\\xa5~H@\\x01|\\x01\\x07\\xfe\\xa5 @\\x9aW\\x1a\\x9d\\x98~H@p@KW\\xb0\\xa5 @\\xc0\\x87\\\\\\xba\\x93~H@k:LEt\\xa5 @\\xf1\\xfd\\xc3L\\x91~H@\\xd0\\xe0\\xa5\\x8a\\x98\\xa4 @\\x0c*`\\xf1\\x8a~H@\\xeel\\xd9k\\x8b\\xa4 @\\xa8\\xac\\xa6\\xeb\\x89~H@\\x16 \\xc0\\xd81\\xa4 @\\x1fY\\n\\x92\\x88~H@8\\xd7\\xd5\\x89p\\xa4 @\\x14\\x06e\\x1aM~H@tz\\xde\\x8d\\x05\\xa5 @;\\xf5\\x92\\x10\\xf6}H@\\xc9\\x11|\\x1d\\x82\\xa4 @0\\x95\\xc8O\\xf4}H@\\x7f\\x89x\\xeb\\xfc\\xa3 @>\\xc5\\xbbm\\xf0}H@/\\xbf\\xd3d\\xc6\\xa3 @,\\xfe\\xa5\\xfb\\xef}H@3\\x16Mg\\'\\xa3 @\\xbb\\x14\\xb2N\\xf0}H@\\xdb4\\xb6\\xd7\\x82\\xa2 @H\\xa9\\x84\\'\\xf4}H@\\xa9w\\xa7\\xf1\\xc1\\xa1 @\\xe8\\xfco\\x80\\xf4}H@^q\\'\\xc7S\\xa1 @R\\xd5\\x04Q\\xf7}H@\\xdd\\xce\\xbe\\xf2 \\xa1 @\\xe7\\xc2\\xedu\\xf7}H@\\xb0\\xa9\\xf3\\xa8\\xf8\\x9f @\\xa7\\r\\xe2^\\xf4}H@%\\xdf\\xb6\\x00~\\x9f @}F}\\xed\\xf4}H@*\\x1f\\xddcD\\x99 @\\xcd_|,\\xd8~H@\"\\x83\\x81\\x8c%\\x99 @\\xf6y\\x8c\\xf2\\xcc~H@nX\\t\\xcc\\xf9\\x98 @\\x9cg\\x91\\x92\\xc3~H@\\xe5\\xaa\\xc3\\x1b\\xe3\\x98 @\\x89\\xd9\\x81)\\xb9~H@\\xd2AM\\xe3\\xcd\\x98 @:\\xdcX\\x9a\\xa5~H@s\\x18\\'\\x19\\x94\\x98 @\\xc5\\xd9\\xbe\\x91\\x8a~H@5\\x93\\x14\\xfdF\\x98 @\\xff}!?v~H@\\x03\\xb3B\\x91\\xee\\x97 @?\\xdf\\xbbrb~H@\\xb2r\\x1e\\x04\\xd3\\x97 @\\xc0\\xc5\\xd4\\xa7f~H@\\x19[c+\\xc3\\x97 @\\xf5\\xc4))f~H@\\x7f\\x8c\\x14%|\\x96 @x\\x9f>]8~H@lvIA\\\\\\x96 @\\x01\\xae\\x1a:,~H@\\x9e\\tM\\x12K\\x96 @\\xdeM\\x01z+~H@\\xaf\\xe9AA)\\x96 @>\\x8a\\x84\\x00*~H@\\xdc\\xda\\xc2\\xf3R\\x95 @7\\xec\\xad7 ~H@NS\\x15d\\x15\\x94 @\\xca\\x1d\\x91J\\x0c~H@\\x87\\xce!_\\xf8\\x93 @\\x17Y|T\\r~H@*9\\'\\xf6\\xd0\\x92 @NG[\\xf0\\xfd}H@\\xe0\\x19#\\xc8\\xf7\\x8f @ET\\x97B\\xd6}H@\\x04C\\xb1p\\xed\\x8f @\\x8c\\xa7y\"\\xe3}H@u\\xc98F\\xb2\\x8f @\\xaa\\x03j{\\x05~H@5\\x86\\xef\\xb3\\x80\\x8f @\\xf9\\xb8\\xdb\\x9a\\x19~H@S\\xc6d\\x16F\\x8f @\\xd7VG\\xe9-~H@\\xbdz\\xcb\\x8b\\x02\\x8f @{M\\x0f\\nJ~H@\\xa9\\xf1w\\x94\\xef\\x8e @\\xb6\\xa2\\xcdqn~H@\\xdc\\xa2\\'\\xc0\\x0b\\x8e @\\x80\\xcd\\xde\\xbe\\xb3~H@'", "clipped": false, "tags": { "name": "Karlsruhe", "type": "boundary", "source": "http://wiki.openstreetmap.org/wiki/Import/Catalogue/Kreisgrenzen_Deutschland_2005", "name:bg": "Карлсруе", "name:de": "Karlsruhe", "name:en": "Karlsruhe", "name:fr": "Carlsruhe", "name:he": "קרלסרוהה", "name:ru": "Карлсруэ", "name:uk": "Карлсруе", "name:ur": "کالسروئے", "website": "https://www.karlsruhe.de/", "boundary": "administrative", "de:place": "city", "wikidata": "Q1040", "wikipedia": "de:Karlsruhe", "ref:nuts:3": "DE122", "admin_level": "6", "admin_title": "independent town", "alt_name:ur": "کارلسروئے", "name:prefix": "Stadt", "admin_title:de": "Kreisfreie Stadt", "license_plate_code": "KA", "de:regionalschluessel": "082120000000", "TMC:cid_58:tabcd_1:Class": "Area", "TMC:cid_58:tabcd_1:LCLversion": "9.00", "TMC:cid_58:tabcd_1:LocationCode": "482", "de:amtlicher_gemeindeschluessel": "08212000" }, "admin_level": "6" }, "geometry": { "type": "MultiPolygon", "coordinates": [ [ [ [ 8.2774334, 48.9898604 ], [ 8.2797578, 48.9914917 ], [ 8.2815906, 48.9928225 ], [ 8.2829014, 48.9938454 ], [ 8.2839882, 48.9947413 ], [ 8.2861797, 48.9967795 ], [ 8.2876592, 48.9983804 ], [ 8.2881195, 48.9989525 ], [ 8.2890872, 49.0001659 ], [ 8.2906959, 49.0023239 ], [ 8.2916379, 49.0035574 ], [ 8.2931933, 49.0059085 ], [ 8.2935368, 49.006579 ], [ 8.2940777, 49.0074219 ], [ 8.2948996, 49.0088337 ], [ 8.2952015, 49.0093637 ], [ 8.2953765, 49.0096917 ], [ 8.2958604, 49.0105956 ], [ 8.2963604, 49.0115454 ], [ 8.2967473, 49.0123814 ], [ 8.2973372, 49.0137012 ], [ 8.2974883, 49.0140485 ], [ 8.2975642, 49.0142231 ], [ 8.2979351, 49.0150891 ], [ 8.2987797, 49.0172094 ], [ 8.298835, 49.0174198 ], [ 8.2994362, 49.0193003 ], [ 8.2994679, 49.0193996 ], [ 8.2999678, 49.0209644 ], [ 8.2999998, 49.0210894 ], [ 8.3000678, 49.0213684 ], [ 8.3006397, 49.0236911 ], [ 8.3010356, 49.0260218 ], [ 8.3014345, 49.0283306 ], [ 8.3017075, 49.0300014 ], [ 8.3019035, 49.0312443 ], [ 8.3020184, 49.0318782 ], [ 8.3022374, 49.033064 ], [ 8.3024894, 49.0342849 ], [ 8.3027043, 49.0349258 ], [ 8.3030713, 49.0360397 ], [ 8.3031363, 49.0362607 ], [ 8.3032922, 49.0367796 ], [ 8.3033495, 49.0369483 ], [ 8.3033972, 49.0370886 ], [ 8.3044381, 49.0402163 ], [ 8.304854, 49.0416201 ], [ 8.3052039, 49.04246 ], [ 8.3060818, 49.0443098 ], [ 8.3103372, 49.0520159 ], [ 8.311236, 49.0533888 ], [ 8.3138476, 49.0567574 ], [ 8.3151434, 49.0583172 ], [ 8.3163233, 49.0598891 ], [ 8.317859, 49.0619568 ], [ 8.3193738, 49.0635627 ], [ 8.3209556, 49.0651685 ], [ 8.3222344, 49.0663514 ], [ 8.3262518, 49.069785 ], [ 8.3286894, 49.0718068 ], [ 8.3296563, 49.0725887 ], [ 8.3324359, 49.0746065 ], [ 8.3337897, 49.0755524 ], [ 8.338517, 49.07876 ], [ 8.3406849, 49.0804907 ], [ 8.3411356, 49.079092 ], [ 8.3414026, 49.0782721 ], [ 8.3414976, 49.0779751 ], [ 8.3420985, 49.0769022 ], [ 8.3423565, 49.0764643 ], [ 8.3425764, 49.0760943 ], [ 8.3430454, 49.0754534 ], [ 8.3452161, 49.0733736 ], [ 8.3464949, 49.0720508 ], [ 8.3473148, 49.0710929 ], [ 8.3475528, 49.0706429 ], [ 8.3475928, 49.070456 ], [ 8.3475668, 49.070109 ], [ 8.3474738, 49.069735 ], [ 8.3471798, 49.0692011 ], [ 8.3470468, 49.0690561 ], [ 8.3468239, 49.0687282 ], [ 8.3463779, 49.0682512 ], [ 8.3458209, 49.0676295 ], [ 8.3455261, 49.0673424 ], [ 8.3451708, 49.0667473 ], [ 8.3450487, 49.0664467 ], [ 8.3450573, 49.0661633 ], [ 8.345075, 49.0660349 ], [ 8.3461346, 49.0656645 ], [ 8.3462108, 49.0654531 ], [ 8.3463271, 49.0652816 ], [ 8.3464996, 49.0650216 ], [ 8.3467869, 49.0649286 ], [ 8.3470389, 49.0648516 ], [ 8.3471189, 49.0648256 ], [ 8.3475218, 49.0646916 ], [ 8.3484767, 49.0645236 ], [ 8.3495335, 49.0644856 ], [ 8.3508843, 49.0645276 ], [ 8.3518432, 49.0646266 ], [ 8.352917, 49.0648746 ], [ 8.3538609, 49.0652066 ], [ 8.3546978, 49.0655885 ], [ 8.3556896, 49.0662175 ], [ 8.3563355, 49.0667974 ], [ 8.3568105, 49.0675453 ], [ 8.3569314, 49.0680373 ], [ 8.3569584, 49.0684682 ], [ 8.3569504, 49.0687392 ], [ 8.3568834, 49.0691361 ], [ 8.3566225, 49.0696281 ], [ 8.3562905, 49.070036 ], [ 8.3557306, 49.07062 ], [ 8.3554016, 49.0709859 ], [ 8.3575163, 49.0710509 ], [ 8.3579483, 49.0711079 ], [ 8.3595321, 49.070776 ], [ 8.360052, 49.070525 ], [ 8.360323, 49.070292 ], [ 8.3610619, 49.0700896 ], [ 8.3617917, 49.0698991 ], [ 8.3622287, 49.0699031 ], [ 8.3625656, 49.0699751 ], [ 8.3632835, 49.070128 ], [ 8.3638325, 49.070208 ], [ 8.3650623, 49.070299 ], [ 8.3656312, 49.070288 ], [ 8.36679, 49.070177 ], [ 8.3680079, 49.0699941 ], [ 8.3695846, 49.0696321 ], [ 8.3704035, 49.0691052 ], [ 8.3730322, 49.0680183 ], [ 8.3732651, 49.0679803 ], [ 8.3733741, 49.0679873 ], [ 8.3735991, 49.0680073 ], [ 8.374295, 49.0693382 ], [ 8.3874971, 49.0690142 ], [ 8.3935262, 49.0688459 ], [ 8.393723, 49.0688392 ], [ 8.3939937, 49.0688311 ], [ 8.394068, 49.0681023 ], [ 8.3946576, 49.0680784 ], [ 8.3948018, 49.0687574 ], [ 8.3951589, 49.068652 ], [ 8.3970318, 49.0680783 ], [ 8.3979198, 49.0677952 ], [ 8.3983734, 49.0676531 ], [ 8.3991818, 49.0673554 ], [ 8.4004766, 49.0668844 ], [ 8.4008552, 49.0667438 ], [ 8.4012342, 49.0666185 ], [ 8.402238, 49.0662878 ], [ 8.4027578, 49.0666634 ], [ 8.4035124, 49.0663655 ], [ 8.4038921, 49.0661743 ], [ 8.4043568, 49.0659048 ], [ 8.404852, 49.065531 ], [ 8.4053696, 49.0651774 ], [ 8.4058595, 49.0648997 ], [ 8.4065432, 49.0645814 ], [ 8.4072604, 49.0643387 ], [ 8.4083059, 49.0638977 ], [ 8.4092439, 49.0634482 ], [ 8.409501, 49.0633144 ], [ 8.4099102, 49.0630816 ], [ 8.4110154, 49.0643046 ], [ 8.4128955, 49.0663634 ], [ 8.4131708, 49.0667871 ], [ 8.41338, 49.0670419 ], [ 8.413681, 49.0673856 ], [ 8.4161529, 49.0705831 ], [ 8.4164506, 49.0709644 ], [ 8.416309, 49.0710471 ], [ 8.4148172, 49.07152 ], [ 8.4133294, 49.071993 ], [ 8.4113847, 49.0726069 ], [ 8.4107378, 49.0728099 ], [ 8.4106738, 49.0728439 ], [ 8.4108628, 49.0747736 ], [ 8.4109389, 49.0756233 ], [ 8.4111007, 49.0774403 ], [ 8.4112097, 49.0787952 ], [ 8.4114006, 49.0802935 ], [ 8.411437, 49.0806237 ], [ 8.4115022, 49.0812092 ], [ 8.4114356, 49.0813619 ], [ 8.4139693, 49.0819498 ], [ 8.415961, 49.0824108 ], [ 8.4173923, 49.0826091 ], [ 8.4178009, 49.0827462 ], [ 8.4182758, 49.0829771 ], [ 8.419122, 49.084258 ], [ 8.4201898, 49.0858902 ], [ 8.4222546, 49.0888866 ], [ 8.4233559, 49.0904725 ], [ 8.4234694, 49.0906362 ], [ 8.4237828, 49.0906199 ], [ 8.4250946, 49.0905139 ], [ 8.4260295, 49.0904599 ], [ 8.4265137, 49.0904357 ], [ 8.4266994, 49.0904219 ], [ 8.4268774, 49.0904139 ], [ 8.4272612, 49.0903831 ], [ 8.4280892, 49.0903486 ], [ 8.4287385, 49.0903281 ], [ 8.4291873, 49.0903121 ], [ 8.4311462, 49.0902199 ], [ 8.4315059, 49.090292 ], [ 8.4318857, 49.0903647 ], [ 8.433064, 49.0906134 ], [ 8.4343724, 49.0908955 ], [ 8.4349144, 49.0910098 ], [ 8.4352505, 49.0910884 ], [ 8.436164, 49.091271 ], [ 8.4363837, 49.0912838 ], [ 8.4365573, 49.0912638 ], [ 8.436304, 49.0906686 ], [ 8.4357489, 49.0893273 ], [ 8.4344246, 49.0861357 ], [ 8.4341228, 49.0853981 ], [ 8.4330419, 49.0827866 ], [ 8.4323514, 49.0811347 ], [ 8.4319886, 49.0802526 ], [ 8.4308471, 49.0774244 ], [ 8.4295409, 49.0742608 ], [ 8.428277, 49.0712241 ], [ 8.4280586, 49.0706605 ], [ 8.4306673, 49.0683714 ], [ 8.4314091, 49.0676996 ], [ 8.4329077, 49.0663124 ], [ 8.4341096, 49.0652209 ], [ 8.4347605, 49.0646054 ], [ 8.435229, 49.0641518 ], [ 8.4355308, 49.0638692 ], [ 8.4360618, 49.0633279 ], [ 8.4364226, 49.0627691 ], [ 8.4367807, 49.062283 ], [ 8.4373179, 49.0613804 ], [ 8.4375906, 49.0609499 ], [ 8.4377894, 49.0606389 ], [ 8.4380064, 49.0603198 ], [ 8.4385019, 49.0597404 ], [ 8.4386843, 49.0595272 ], [ 8.4393234, 49.0587476 ], [ 8.4401491, 49.0578936 ], [ 8.4410086, 49.0569981 ], [ 8.4414757, 49.0565437 ], [ 8.4421765, 49.0560179 ], [ 8.4425324, 49.05626 ], [ 8.4446061, 49.054732 ], [ 8.4447081, 49.05464 ], [ 8.4453934, 49.0540913 ], [ 8.4463608, 49.0531452 ], [ 8.447225, 49.0522885 ], [ 8.4484066, 49.0510084 ], [ 8.4491745, 49.0503795 ], [ 8.4493284, 49.0502645 ], [ 8.4494564, 49.0501695 ], [ 8.4504633, 49.0495936 ], [ 8.4506433, 49.0494906 ], [ 8.4509342, 49.0493226 ], [ 8.4511832, 49.0491776 ], [ 8.45285, 49.0482507 ], [ 8.4538381, 49.047578 ], [ 8.4543994, 49.0472744 ], [ 8.4547532, 49.0470721 ], [ 8.4548921, 49.0469927 ], [ 8.4549847, 49.0469423 ], [ 8.4564232, 49.0461798 ], [ 8.4584344, 49.0451 ], [ 8.4587035, 49.044956 ], [ 8.458972, 49.0448164 ], [ 8.4605494, 49.0439682 ], [ 8.4608227, 49.0439314 ], [ 8.460835, 49.0443076 ], [ 8.4608448, 49.0445444 ], [ 8.460859, 49.0449447 ], [ 8.4609701, 49.0449335 ], [ 8.4609734, 49.0450159 ], [ 8.4613056, 49.044969 ], [ 8.4636355, 49.0446549 ], [ 8.463708, 49.0454548 ], [ 8.4637254, 49.0456327 ], [ 8.4637331, 49.0457182 ], [ 8.4648545, 49.0455646 ], [ 8.4661812, 49.045341 ], [ 8.4661576, 49.0443377 ], [ 8.4664845, 49.044232 ], [ 8.466529, 49.0438523 ], [ 8.4666003, 49.0435976 ], [ 8.4663845, 49.0431398 ], [ 8.4674971, 49.0429863 ], [ 8.4679008, 49.0432493 ], [ 8.4681366, 49.0428513 ], [ 8.4688771, 49.0430181 ], [ 8.4690598, 49.0431008 ], [ 8.4693843, 49.0433462 ], [ 8.4695562, 49.0434935 ], [ 8.4696931, 49.0436637 ], [ 8.4697751, 49.0436126 ], [ 8.4700324, 49.0433382 ], [ 8.4696632, 49.042608 ], [ 8.4698925, 49.0425528 ], [ 8.4697226, 49.0421175 ], [ 8.4696101, 49.0417792 ], [ 8.4695298, 49.0415026 ], [ 8.4695414, 49.0412931 ], [ 8.4696558, 49.0408266 ], [ 8.469948, 49.0404684 ], [ 8.4703655, 49.0399807 ], [ 8.4704775, 49.0398547 ], [ 8.4705985, 49.0397054 ], [ 8.4708881, 49.0395296 ], [ 8.4711805, 49.0394293 ], [ 8.4715986, 49.0393695 ], [ 8.4717798, 49.0393273 ], [ 8.4717806, 49.0393811 ], [ 8.4719808, 49.0394918 ], [ 8.4723341, 49.0396331 ], [ 8.4726567, 49.0398388 ], [ 8.4728556, 49.0400071 ], [ 8.473127, 49.0403062 ], [ 8.474271, 49.0419948 ], [ 8.4749059, 49.0417069 ], [ 8.4754572, 49.0417708 ], [ 8.4755367, 49.0424891 ], [ 8.4754789, 49.0427238 ], [ 8.4754728, 49.0429818 ], [ 8.475426, 49.0432327 ], [ 8.4753976, 49.0433528 ], [ 8.4755157, 49.0438995 ], [ 8.4757087, 49.0442683 ], [ 8.4771165, 49.0436771 ], [ 8.477454, 49.0450012 ], [ 8.4775349, 49.0453085 ], [ 8.4777301, 49.045852 ], [ 8.4778863, 49.0462892 ], [ 8.4780018, 49.0466267 ], [ 8.4780874, 49.0470193 ], [ 8.478056, 49.0472307 ], [ 8.4780304, 49.0474771 ], [ 8.4779774, 49.047765 ], [ 8.4779796, 49.0479709 ], [ 8.4781002, 49.0485393 ], [ 8.4781124, 49.048849 ], [ 8.4781201, 49.0489236 ], [ 8.4782331, 49.0494102 ], [ 8.478416, 49.0498173 ], [ 8.4788655, 49.0506572 ], [ 8.4801661, 49.0527633 ], [ 8.4803194, 49.0529968 ], [ 8.4806466, 49.05349 ], [ 8.4811253, 49.0542931 ], [ 8.4799879, 49.0547244 ], [ 8.4801942, 49.0549673 ], [ 8.4803685, 49.0551761 ], [ 8.4804532, 49.0552966 ], [ 8.4804163, 49.055493 ], [ 8.4803811, 49.0558581 ], [ 8.4802887, 49.0565986 ], [ 8.4802638, 49.0570492 ], [ 8.4804276, 49.0574243 ], [ 8.4805781, 49.0576263 ], [ 8.4807096, 49.0577796 ], [ 8.4806484, 49.0580802 ], [ 8.4805458, 49.0582509 ], [ 8.4801888, 49.0586358 ], [ 8.4799094, 49.0587789 ], [ 8.4790724, 49.0589166 ], [ 8.4775667, 49.0598364 ], [ 8.4786302, 49.0600581 ], [ 8.4791928, 49.0601719 ], [ 8.4794488, 49.0602706 ], [ 8.4799989, 49.0603803 ], [ 8.480746, 49.0605384 ], [ 8.4811025, 49.0606948 ], [ 8.4816421, 49.0609415 ], [ 8.4821577, 49.0611585 ], [ 8.4823769, 49.0612666 ], [ 8.4825305, 49.0612934 ], [ 8.4827276, 49.0612104 ], [ 8.482917, 49.0611125 ], [ 8.4833296, 49.060759 ], [ 8.4843364, 49.0597175 ], [ 8.4846594, 49.0589396 ], [ 8.4849243, 49.0586916 ], [ 8.4856092, 49.0584087 ], [ 8.4857522, 49.0583517 ], [ 8.4864279, 49.0580765 ], [ 8.4867727, 49.0576926 ], [ 8.4868311, 49.0575901 ], [ 8.486986, 49.0573817 ], [ 8.4871248, 49.0572494 ], [ 8.4872795, 49.056921 ], [ 8.4873173, 49.0566844 ], [ 8.4874824, 49.0563069 ], [ 8.487733, 49.055941 ], [ 8.4884119, 49.055289 ], [ 8.4895997, 49.0541822 ], [ 8.4898987, 49.0535112 ], [ 8.4902226, 49.0530993 ], [ 8.4903366, 49.0529843 ], [ 8.4904996, 49.0525453 ], [ 8.4907196, 49.0520384 ], [ 8.4909553, 49.0516461 ], [ 8.4911542, 49.0513136 ], [ 8.4912522, 49.0512528 ], [ 8.4915876, 49.0510149 ], [ 8.4918199, 49.0508277 ], [ 8.4924553, 49.0503826 ], [ 8.4933262, 49.0494707 ], [ 8.4937242, 49.0490787 ], [ 8.4943261, 49.0485438 ], [ 8.4956009, 49.0479109 ], [ 8.4966767, 49.0473119 ], [ 8.4971577, 49.047057 ], [ 8.4977426, 49.046938 ], [ 8.4982855, 49.046519 ], [ 8.4987745, 49.0460681 ], [ 8.4992884, 49.0454582 ], [ 8.4998523, 49.0449472 ], [ 8.5001523, 49.0447142 ], [ 8.5007842, 49.0443443 ], [ 8.5010621, 49.0441913 ], [ 8.50215, 49.0437264 ], [ 8.5029599, 49.0433864 ], [ 8.5037888, 49.0430584 ], [ 8.5043397, 49.0428525 ], [ 8.5049816, 49.0426395 ], [ 8.5052826, 49.0425276 ], [ 8.5051387, 49.0423995 ], [ 8.5062464, 49.0420368 ], [ 8.506396, 49.0421734 ], [ 8.5066181, 49.0420597 ], [ 8.5070405, 49.0406026 ], [ 8.5075519, 49.0400504 ], [ 8.5078026, 49.0395344 ], [ 8.5084248, 49.0381825 ], [ 8.5087681, 49.0375918 ], [ 8.5091179, 49.0370015 ], [ 8.5092389, 49.0367081 ], [ 8.5096, 49.0362992 ], [ 8.509729, 49.0361122 ], [ 8.5103519, 49.0355053 ], [ 8.5106738, 49.0352733 ], [ 8.5111219, 49.0350209 ], [ 8.511255, 49.0349579 ], [ 8.5120522, 49.0346208 ], [ 8.5129782, 49.0343549 ], [ 8.5136652, 49.0341557 ], [ 8.5139565, 49.0335429 ], [ 8.5143412, 49.0333496 ], [ 8.514663, 49.0331805 ], [ 8.5155272, 49.0326106 ], [ 8.5159084, 49.0323629 ], [ 8.5164953, 49.0319362 ], [ 8.5165794, 49.0317496 ], [ 8.5169703, 49.031716 ], [ 8.5170171, 49.0317774 ], [ 8.5198637, 49.0310761 ], [ 8.5203428, 49.0302584 ], [ 8.5204839, 49.0292246 ], [ 8.5203205, 49.0288751 ], [ 8.5194567, 49.0282935 ], [ 8.5193798, 49.0279458 ], [ 8.5202066, 49.0272947 ], [ 8.5200291, 49.0271412 ], [ 8.5203066, 49.0267149 ], [ 8.5207792, 49.025994 ], [ 8.5223336, 49.0250269 ], [ 8.522441, 49.0240994 ], [ 8.5222983, 49.0229323 ], [ 8.5225826, 49.0229384 ], [ 8.5221516, 49.0223426 ], [ 8.5217735, 49.0217806 ], [ 8.5217572, 49.0213956 ], [ 8.52169, 49.0207466 ], [ 8.5216812, 49.0206116 ], [ 8.5217113, 49.0202003 ], [ 8.5217604, 49.0198421 ], [ 8.5218413, 49.0196291 ], [ 8.5220289, 49.0192102 ], [ 8.5218314, 49.0187729 ], [ 8.5219149, 49.0184329 ], [ 8.5219043, 49.0179563 ], [ 8.5218919, 49.0177211 ], [ 8.5218849, 49.0175099 ], [ 8.5217127, 49.0174999 ], [ 8.5215743, 49.0169922 ], [ 8.5215217, 49.0164635 ], [ 8.5214274, 49.0159975 ], [ 8.5212864, 49.0157076 ], [ 8.52126, 49.0154992 ], [ 8.5212374, 49.0154441 ], [ 8.5212258, 49.0153829 ], [ 8.5211752, 49.0152074 ], [ 8.520845, 49.0149551 ], [ 8.5211821, 49.0148306 ], [ 8.5210133, 49.0143331 ], [ 8.5207685, 49.0140937 ], [ 8.5206086, 49.0139298 ], [ 8.5205486, 49.0138688 ], [ 8.5198677, 49.0132808 ], [ 8.5192828, 49.0127739 ], [ 8.5191698, 49.0126979 ], [ 8.5189928, 49.0125719 ], [ 8.5189008, 49.0125259 ], [ 8.5187718, 49.0124569 ], [ 8.5186208, 49.0124189 ], [ 8.517547, 49.0121479 ], [ 8.5165311, 49.0118893 ], [ 8.5145494, 49.011385 ], [ 8.5148586, 49.0108297 ], [ 8.514447, 49.0107894 ], [ 8.5142981, 49.010755 ], [ 8.5141668, 49.0102667 ], [ 8.5138603, 49.0102725 ], [ 8.5138219, 49.0098471 ], [ 8.513832, 49.0091218 ], [ 8.5138405, 49.0088633 ], [ 8.5138306, 49.0084743 ], [ 8.5138126, 49.0084024 ], [ 8.5137476, 49.0081354 ], [ 8.5137316, 49.0080474 ], [ 8.5136881, 49.0079608 ], [ 8.5136392, 49.0078635 ], [ 8.5141714, 49.0078961 ], [ 8.5141313, 49.007838 ], [ 8.5140181, 49.0072946 ], [ 8.5139887, 49.006816 ], [ 8.5138908, 49.0062114 ], [ 8.5138541, 49.0059704 ], [ 8.5138359, 49.0059281 ], [ 8.5132741, 49.0058904 ], [ 8.5131964, 49.005246 ], [ 8.5131656, 49.0048824 ], [ 8.5131337, 49.004299 ], [ 8.5126887, 49.0035499 ], [ 8.5126304, 49.003173 ], [ 8.5127742, 49.0023716 ], [ 8.5130875, 49.0017758 ], [ 8.5131363, 49.0013807 ], [ 8.512991, 49.0009141 ], [ 8.5127408, 49.0006242 ], [ 8.5126948, 49.0005592 ], [ 8.5126156, 49.0004778 ], [ 8.5121992, 49.000199 ], [ 8.5121025, 49.0000358 ], [ 8.5119374, 48.9997339 ], [ 8.5114251, 48.9988883 ], [ 8.5112534, 48.9986797 ], [ 8.511062, 48.9985644 ], [ 8.5090426, 48.9980047 ], [ 8.508733, 48.9984211 ], [ 8.5078563, 48.9982461 ], [ 8.5076915, 48.9981009 ], [ 8.5062054, 48.9976186 ], [ 8.5062496, 48.9975291 ], [ 8.5047321, 48.9970089 ], [ 8.5025046, 48.9963015 ], [ 8.5025692, 48.9958331 ], [ 8.5027847, 48.9952343 ], [ 8.5027452, 48.9949503 ], [ 8.5013802, 48.9944286 ], [ 8.5000278, 48.9936052 ], [ 8.500033, 48.9929958 ], [ 8.5000821, 48.9924927 ], [ 8.5003235, 48.9920034 ], [ 8.5015949, 48.9906975 ], [ 8.5018694, 48.9902294 ], [ 8.5025453, 48.9892405 ], [ 8.5021423, 48.9889315 ], [ 8.5025003, 48.9881116 ], [ 8.5029726, 48.9865936 ], [ 8.5030718, 48.9864033 ], [ 8.5041046, 48.985541 ], [ 8.504538, 48.9847316 ], [ 8.5052311, 48.9833711 ], [ 8.5064777, 48.9831372 ], [ 8.5088384, 48.9826642 ], [ 8.5104471, 48.9824199 ], [ 8.5098056, 48.981884 ], [ 8.5088527, 48.9811195 ], [ 8.5080742, 48.9804611 ], [ 8.5080412, 48.9799923 ], [ 8.5077966, 48.9787807 ], [ 8.5073667, 48.9772018 ], [ 8.5071657, 48.9770948 ], [ 8.5065128, 48.9770528 ], [ 8.5064618, 48.9769579 ], [ 8.506193, 48.9764457 ], [ 8.5057009, 48.975508 ], [ 8.5069257, 48.9749971 ], [ 8.5069927, 48.9744931 ], [ 8.5073437, 48.9741882 ], [ 8.5077766, 48.9740892 ], [ 8.5082646, 48.9737572 ], [ 8.5082616, 48.9732803 ], [ 8.5087405, 48.9723604 ], [ 8.5089365, 48.9719604 ], [ 8.5084005, 48.9718384 ], [ 8.5084036, 48.9711785 ], [ 8.5085995, 48.9708535 ], [ 8.5090945, 48.9708925 ], [ 8.5091944, 48.9701216 ], [ 8.5092264, 48.9690498 ], [ 8.5092294, 48.9688398 ], [ 8.5093123, 48.9679467 ], [ 8.5101243, 48.9680166 ], [ 8.5114636, 48.968134 ], [ 8.512035, 48.9682231 ], [ 8.513397, 48.9684341 ], [ 8.5137828, 48.9684374 ], [ 8.514954, 48.9683108 ], [ 8.515406, 48.9681687 ], [ 8.5157664, 48.9680571 ], [ 8.5172077, 48.9679574 ], [ 8.5177231, 48.9679181 ], [ 8.5183091, 48.9677356 ], [ 8.5202666, 48.9671413 ], [ 8.5210281, 48.967057 ], [ 8.5219187, 48.9668806 ], [ 8.5235808, 48.9665457 ], [ 8.5245075, 48.9664246 ], [ 8.5257456, 48.9662771 ], [ 8.5276422, 48.9660114 ], [ 8.5278241, 48.9659613 ], [ 8.5271321, 48.9649518 ], [ 8.5267141, 48.9640088 ], [ 8.526235, 48.9631077 ], [ 8.5257738, 48.9621858 ], [ 8.5272707, 48.9619273 ], [ 8.5287918, 48.9614926 ], [ 8.5298469, 48.9615123 ], [ 8.5304701, 48.961506 ], [ 8.534663, 48.9612413 ], [ 8.5358562, 48.9611316 ], [ 8.535896, 48.9611246 ], [ 8.5362753, 48.9610575 ], [ 8.5365456, 48.9610097 ], [ 8.5366631, 48.9609889 ], [ 8.5377219, 48.9606508 ], [ 8.5391581, 48.9603551 ], [ 8.5395422, 48.960311 ], [ 8.5402469, 48.9602368 ], [ 8.5406441, 48.9602148 ], [ 8.5415759, 48.9601648 ], [ 8.5417299, 48.9601038 ], [ 8.5415292, 48.9599046 ], [ 8.5410538, 48.9593282 ], [ 8.5405483, 48.9587072 ], [ 8.5397163, 48.9575471 ], [ 8.5393223, 48.9569662 ], [ 8.5388662, 48.9561416 ], [ 8.5386299, 48.9556397 ], [ 8.537914, 48.9542622 ], [ 8.5378302, 48.9541043 ], [ 8.5371798, 48.9530807 ], [ 8.5367311, 48.952408 ], [ 8.536584, 48.9524507 ], [ 8.5330408, 48.9531059 ], [ 8.5319116, 48.9532274 ], [ 8.530482, 48.9532503 ], [ 8.52979, 48.9532204 ], [ 8.5292867, 48.9532076 ], [ 8.5274891, 48.9528387 ], [ 8.5264142, 48.9525851 ], [ 8.5255173, 48.9522939 ], [ 8.5254636, 48.9523467 ], [ 8.5249808, 48.9521865 ], [ 8.5245517, 48.9520121 ], [ 8.5239911, 48.9516598 ], [ 8.5239052, 48.9516299 ], [ 8.5238248, 48.9516369 ], [ 8.5236558, 48.9515876 ], [ 8.5230308, 48.9513128 ], [ 8.5225802, 48.9510944 ], [ 8.5215427, 48.9505021 ], [ 8.5210411, 48.9501305 ], [ 8.5205047, 48.9497606 ], [ 8.5201801, 48.9495985 ], [ 8.5200648, 48.9495369 ], [ 8.5187478, 48.9491405 ], [ 8.5183348, 48.9490155 ], [ 8.5178413, 48.948783 ], [ 8.5176133, 48.9486508 ], [ 8.516881, 48.9482281 ], [ 8.5161112, 48.9479269 ], [ 8.5161448, 48.9478713 ], [ 8.5153499, 48.9474905 ], [ 8.5152055, 48.9474045 ], [ 8.5150818, 48.9471964 ], [ 8.5146074, 48.9463193 ], [ 8.5139297, 48.9458644 ], [ 8.5136302, 48.9457262 ], [ 8.5135295, 48.945567 ], [ 8.5134512, 48.9452123 ], [ 8.5133301, 48.9445336 ], [ 8.5133297, 48.9441444 ], [ 8.5131238, 48.9441386 ], [ 8.5130391, 48.9437751 ], [ 8.5128564, 48.9435989 ], [ 8.512587, 48.9434837 ], [ 8.5118046, 48.943293 ], [ 8.5118729, 48.943183 ], [ 8.5113387, 48.9429946 ], [ 8.5108215, 48.9427398 ], [ 8.5101694, 48.9425749 ], [ 8.5094841, 48.9423814 ], [ 8.5092842, 48.9423693 ], [ 8.5068823, 48.9426051 ], [ 8.5037018, 48.9426457 ], [ 8.5003727, 48.9426145 ], [ 8.4979145, 48.9425322 ], [ 8.49778, 48.9425411 ], [ 8.496334, 48.9424868 ], [ 8.4963262, 48.9423402 ], [ 8.4952748, 48.9422645 ], [ 8.4950897, 48.9421658 ], [ 8.4947959, 48.9420739 ], [ 8.4948014, 48.9420268 ], [ 8.4929493, 48.9418575 ], [ 8.4927418, 48.9418228 ], [ 8.4923525, 48.9417353 ], [ 8.4916337, 48.9415275 ], [ 8.4907807, 48.9411795 ], [ 8.4904964, 48.941321 ], [ 8.489697, 48.9407843 ], [ 8.4895764, 48.9407567 ], [ 8.489457, 48.9407655 ], [ 8.4894034, 48.9408096 ], [ 8.4890695, 48.9417952 ], [ 8.488989, 48.9417917 ], [ 8.4885652, 48.9417213 ], [ 8.4875889, 48.9415838 ], [ 8.4876157, 48.9415345 ], [ 8.4868523, 48.9414573 ], [ 8.4867007, 48.941455 ], [ 8.4852, 48.9414316 ], [ 8.4826547, 48.9414581 ], [ 8.4814703, 48.9413407 ], [ 8.4799412, 48.9411431 ], [ 8.4787486, 48.9409574 ], [ 8.475474, 48.940551 ], [ 8.4735302, 48.9405041 ], [ 8.472181, 48.9404481 ], [ 8.4704251, 48.9404699 ], [ 8.4686634, 48.9405078 ], [ 8.4674489, 48.9405101 ], [ 8.4663323, 48.9405184 ], [ 8.4657449, 48.9406012 ], [ 8.4655008, 48.9406611 ], [ 8.4649081, 48.940647 ], [ 8.4634191, 48.9407891 ], [ 8.4625723, 48.9408264 ], [ 8.4614101, 48.9408896 ], [ 8.4614504, 48.941256 ], [ 8.4609917, 48.9408983 ], [ 8.4608844, 48.9413124 ], [ 8.4607878, 48.9416947 ], [ 8.4607932, 48.941892 ], [ 8.4607208, 48.9419906 ], [ 8.4606189, 48.9420259 ], [ 8.459959, 48.9421316 ], [ 8.4601629, 48.9427253 ], [ 8.4604418, 48.9435832 ], [ 8.460753, 48.9446807 ], [ 8.459786, 48.9447881 ], [ 8.4594387, 48.944834 ], [ 8.459082, 48.9448481 ], [ 8.4583748, 48.9448373 ], [ 8.4574753, 48.9448516 ], [ 8.4569094, 48.9448833 ], [ 8.4556058, 48.9448992 ], [ 8.4550238, 48.9448481 ], [ 8.4550135, 48.9457356 ], [ 8.4551676, 48.9464114 ], [ 8.4537043, 48.9459356 ], [ 8.4526523, 48.9456983 ], [ 8.4516337, 48.9454752 ], [ 8.4502211, 48.9451366 ], [ 8.4492478, 48.9449645 ], [ 8.4487436, 48.9448681 ], [ 8.4472958, 48.9445837 ], [ 8.4467791, 48.9441039 ], [ 8.4453075, 48.9449072 ], [ 8.4430688, 48.9458736 ], [ 8.4412902, 48.9459258 ], [ 8.4404348, 48.946021 ], [ 8.4392986, 48.9462498 ], [ 8.4396628, 48.946839 ], [ 8.4403355, 48.9474042 ], [ 8.4401755, 48.9488 ], [ 8.4416357, 48.9493566 ], [ 8.4430655, 48.9497391 ], [ 8.4447903, 48.9504056 ], [ 8.4452126, 48.9508371 ], [ 8.4453047, 48.9510985 ], [ 8.4453422, 48.9513295 ], [ 8.4445614, 48.952697 ], [ 8.4439225, 48.9536006 ], [ 8.44422, 48.9544903 ], [ 8.4445605, 48.9553626 ], [ 8.4445452, 48.9561174 ], [ 8.4449094, 48.9564604 ], [ 8.4457598, 48.9570445 ], [ 8.4463217, 48.9577943 ], [ 8.4467252, 48.9585263 ], [ 8.4466833, 48.9589275 ], [ 8.4467271, 48.9593948 ], [ 8.4469508, 48.9605932 ], [ 8.4477168, 48.9613127 ], [ 8.4488989, 48.9620696 ], [ 8.4503053, 48.9628096 ], [ 8.451707, 48.9632116 ], [ 8.4513681, 48.9638923 ], [ 8.4507209, 48.9642864 ], [ 8.450272, 48.9646851 ], [ 8.4494691, 48.9652361 ], [ 8.4490092, 48.9658279 ], [ 8.4482452, 48.9662307 ], [ 8.4481688, 48.9666147 ], [ 8.4480748, 48.9666658 ], [ 8.4475, 48.9667522 ], [ 8.4469721, 48.9669371 ], [ 8.4456517, 48.9677479 ], [ 8.4455209, 48.9678294 ], [ 8.4443194, 48.9685617 ], [ 8.442584, 48.9697051 ], [ 8.4414813, 48.9702935 ], [ 8.4394196, 48.9711662 ], [ 8.4394669, 48.9712041 ], [ 8.4394018, 48.9712313 ], [ 8.4379898, 48.971808 ], [ 8.4369378, 48.971609 ], [ 8.4363392, 48.9713937 ], [ 8.4331979, 48.9701212 ], [ 8.4324724, 48.9697876 ], [ 8.4268032, 48.9674154 ], [ 8.4250301, 48.9666539 ], [ 8.4250629, 48.966616 ], [ 8.4246667, 48.9664509 ], [ 8.4246332, 48.9664842 ], [ 8.4238178, 48.9661366 ], [ 8.4206875, 48.9649944 ], [ 8.419691, 48.9646114 ], [ 8.4192372, 48.9644034 ], [ 8.4163312, 48.9633549 ], [ 8.4133117, 48.9622076 ], [ 8.4115787, 48.9616147 ], [ 8.4106279, 48.9613345 ], [ 8.4093956, 48.9610153 ], [ 8.4092152, 48.9609356 ], [ 8.408859, 48.9606659 ], [ 8.4085819, 48.9602503 ], [ 8.4084872, 48.9600203 ], [ 8.4083058, 48.9598624 ], [ 8.4081251, 48.9597715 ], [ 8.4078094, 48.95967 ], [ 8.4075984, 48.9596462 ], [ 8.4073617, 48.959649 ], [ 8.4065651, 48.9597259 ], [ 8.4063402, 48.959733 ], [ 8.4061753, 48.959682 ], [ 8.4061406, 48.9597113 ], [ 8.4060405, 48.9597024 ], [ 8.4059598, 48.9602961 ], [ 8.4054449, 48.9602116 ], [ 8.4054742, 48.9603115 ], [ 8.4054134, 48.9603015 ], [ 8.4048359, 48.9602063 ], [ 8.404764, 48.9602269 ], [ 8.4028959, 48.9599021 ], [ 8.398956, 48.9593264 ], [ 8.3970702, 48.9589268 ], [ 8.3968697, 48.9589283 ], [ 8.391066, 48.9578672 ], [ 8.3906824, 48.9578261 ], [ 8.3904877, 48.9578948 ], [ 8.3904016, 48.9579871 ], [ 8.3903049, 48.957975 ], [ 8.3902837, 48.9578626 ], [ 8.3899832, 48.9578492 ], [ 8.3897882, 48.9577984 ], [ 8.3898523, 48.9582789 ], [ 8.3906156, 48.9623361 ], [ 8.3834244, 48.9672288 ], [ 8.38377, 48.9676088 ], [ 8.3841656, 48.9681225 ], [ 8.384265, 48.9683645 ], [ 8.3846868, 48.9688372 ], [ 8.3850925, 48.9694858 ], [ 8.3851766, 48.9698066 ], [ 8.3850843, 48.971262 ], [ 8.3807491, 48.9742699 ], [ 8.3806118, 48.9741343 ], [ 8.3768336, 48.9757852 ], [ 8.3767167, 48.9758343 ], [ 8.3763721, 48.975581 ], [ 8.3760547, 48.9750185 ], [ 8.3752373, 48.9739397 ], [ 8.3748909, 48.9734268 ], [ 8.3749666, 48.9732032 ], [ 8.3748185, 48.9728128 ], [ 8.3746303, 48.9724721 ], [ 8.3741614, 48.9713034 ], [ 8.3726922, 48.9712745 ], [ 8.3667076, 48.9745193 ], [ 8.3648298, 48.9754695 ], [ 8.3643614, 48.9759597 ], [ 8.3642811, 48.9760436 ], [ 8.3634352, 48.9769233 ], [ 8.3562645, 48.9792287 ], [ 8.3512566, 48.9800991 ], [ 8.3468045, 48.9812143 ], [ 8.3432707, 48.9823444 ], [ 8.3431034, 48.9824476 ], [ 8.3423769, 48.9828961 ], [ 8.3377996, 48.9857279 ], [ 8.33807, 48.985953 ], [ 8.3364124, 48.9866628 ], [ 8.3365247, 48.9867594 ], [ 8.3344729, 48.9875158 ], [ 8.3342393, 48.9876019 ], [ 8.3338065, 48.9877611 ], [ 8.332119, 48.9887008 ], [ 8.3305649, 48.9892781 ], [ 8.3306252, 48.9900313 ], [ 8.3305832, 48.9904346 ], [ 8.330442, 48.9908177 ], [ 8.3297835, 48.9919411 ], [ 8.3297521, 48.9919182 ], [ 8.3287765, 48.9912061 ], [ 8.327282, 48.9902191 ], [ 8.3269319, 48.9900367 ], [ 8.3259667, 48.989623 ], [ 8.3254368, 48.98943 ], [ 8.3242037, 48.9890324 ], [ 8.323611, 48.9888833 ], [ 8.3231527, 48.9888092 ], [ 8.3214763, 48.9886152 ], [ 8.3213762, 48.988584 ], [ 8.3206928, 48.9885428 ], [ 8.3211711, 48.986728 ], [ 8.322308, 48.9840718 ], [ 8.3213052, 48.9840183 ], [ 8.320289, 48.9838998 ], [ 8.319873, 48.9838862 ], [ 8.31866, 48.9838961 ], [ 8.3174045, 48.9840135 ], [ 8.3159328, 48.9840241 ], [ 8.3150923, 48.98411 ], [ 8.3147045, 48.9841144 ], [ 8.312444, 48.9840201 ], [ 8.3115082, 48.9840371 ], [ 8.2993499, 48.9909721 ], [ 8.2991146, 48.9906295 ], [ 8.2987808, 48.9903434 ], [ 8.2986077, 48.9900257 ], [ 8.2984458, 48.9894288 ], [ 8.2980049, 48.9886038 ], [ 8.2974166, 48.9879836 ], [ 8.296742, 48.9873794 ], [ 8.2965318, 48.9875078 ], [ 8.2964109, 48.9874927 ], [ 8.2939159, 48.9860951 ], [ 8.2936726, 48.9857247 ], [ 8.2935415, 48.9857018 ], [ 8.2932835, 48.9856568 ], [ 8.2916485, 48.9853582 ], [ 8.2892257, 48.9847501 ], [ 8.2890043, 48.9847818 ], [ 8.2867505, 48.9843121 ], [ 8.2811873, 48.9831012 ], [ 8.2811084, 48.9834941 ], [ 8.280657, 48.9845423 ], [ 8.2802788, 48.9851564 ], [ 8.2798316, 48.9857761 ], [ 8.2793163, 48.9866345 ], [ 8.2791716, 48.9877455 ], [ 8.2774334, 48.9898604 ] ] ] ] } }
]
}
