{
"type": "FeatureCollection",
"name": "Paris_boundary",
"crs": { "type": "name", "properties": { "name": "urn:ogc:def:crs:OGC:1.3:CRS84" } },
"features": [
{ "type": "Feature", "properties": { "osm_type": "relation", "osm_id": 7444, "edit_timestamp": "2026-05-13T12:38:19Z", "valid_to_timestamp": "2026-06-11T13:34:03Z", "osm_version": 203, "minor_version": 40, "osm_edits": 740, "osm_user_id": 8874984, "osm_user_name": "anyroka", "osm_changeset_id": 182599694, "osm_tags": "[('name', 'Paris'), ('type', 'boundary'), ('capital', 'yes'), ('name:af', 'Parys'), ('name:am', 'ፓሪስ'), ('name:an', 'París'), ('name:ar', 'باريس'), ('name:ba', 'Париж'), ('name:be', 'Парыж'), ('name:bg', 'Париж'), ('name:bn', 'প্যারিস'), ('name:bo', 'ཕ་རི།'), ('name:br', 'Pariz'), ('name:bs', 'Pariz'), ('name:ca', 'París'), ('name:co', 'Parighji'), ('name:cs', 'Paříž'), ('name:cu', 'Парижь'), ('name:cv', 'Парис'), ('name:de', 'Paris'), ('name:el', 'Παρίσι'), ('name:eo', 'Parizo'), ('name:es', 'París'), ('name:et', 'Pariis'), ('name:eu', 'Paris'), ('name:fa', 'پاریس'), ('name:fi', 'Pariisi'), ('name:fr', 'Paris'), ('name:fy', 'Parys'), ('name:ga', 'Páras'), ('name:gl', 'París'), ('name:gn', 'Parĩ'), ('name:gu', 'પૅરિસ'), ('name:gv', 'Paarys'), ('name:ha', 'Pariis'), ('name:he', 'פריז'), ('name:hi', 'पैरिस'), ('name:hr', 'Pariz'), ('name:ht', 'Pari'), ('name:hu', 'Párizs'), ('name:hy', 'Փարիզ'), ('name:is', 'París'), ('name:it', 'Parigi'), ('name:ja', 'パリ'), ('name:ka', 'პარიზი'), ('name:kk', 'Париж'), ('name:km', 'ប៉ារីស'), ('name:kn', 'ಪ್ಯಾರಿಸ್'), ('name:ko', '파리'), ('name:ku', 'Parîs'), ('name:kv', 'Париж'), ('name:ky', 'Париж'), ('name:la', 'Lutetia'), ('name:lb', 'Paräis'), ('name:li', 'Paries'), ('name:ln', 'Pari'), ('name:lt', 'Paryžius'), ('name:lv', 'Parīze'), ('name:mi', 'Parī'), ('name:mk', 'Париз'), ('name:ml', 'പാരിസ്'), ('name:mn', 'Парис'), ('name:mr', 'पॅरिस'), ('name:my', 'ပါရီမြို့'), ('name:ne', 'पेरिस'), ('name:nl', 'Parijs'), ('name:no', 'Paris'), ('name:oc', 'París'), ('name:or', 'ପ୍ୟାରିସ'), ('name:os', 'Париж'), ('name:pa', 'ਪੈਰਿਸ'), ('name:pl', 'Paryż'), ('name:ps', 'پاريس'), ('name:ru', 'Париж'), ('name:sc', 'Parigi'), ('name:sh', 'Pariz'), ('name:sk', 'Paríž'), ('name:sl', 'Pariz'), ('name:so', 'Baariis'), ('name:sq', 'Parisi'), ('name:sr', 'Париз'), ('name:sv', 'Paris'), ('name:ta', 'பாரிஸ்'), ('name:te', 'పారిస్'), ('name:tg', 'Париж'), ('name:th', 'ปารีส'), ('name:tk', 'Pariž'), ('name:tl', 'Paris'), ('name:tt', 'Париж'), ('name:ug', 'پارىژ'), ('name:uk', 'Париж'), ('name:ur', 'پیرس'), ('name:uz', 'Parij'), ('name:vi', 'Paris'), ('name:wa', 'Paris'), ('name:wo', 'Pari'), ('name:yi', 'פאריז'), ('name:yo', 'Parisi'), ('name:za', 'Bahliz'), ('name:zh', '巴黎'), ('name:zu', 'IParisi'), ('boundary', 'administrative'), ('name:arc', 'ܦܐܪܝܣ'), ('name:arz', 'باريس'), ('name:ast', 'París'), ('name:cdo', 'Bă-là̤'), ('name:ckb', 'پاریس'), ('name:csb', 'Pariz'), ('name:eml', 'Parì'), ('name:ext', 'París'), ('name:fur', 'Parîs'), ('name:gan', '巴黎'), ('name:hak', 'Pâ-lì-sṳ'), ('name:haw', 'Palika'), ('name:jbo', 'paris'), ('name:koi', 'Париж'), ('name:krc', 'Париж'), ('name:lez', 'Париж'), ('name:lij', 'Pariggi'), ('name:lzh', '巴黎'), ('name:mhr', 'Париж'), ('name:mrj', 'Париж'), ('name:myv', 'Париж ош'), ('name:mzn', 'پاریس'), ('name:nan', 'Pa-lí'), ('name:nap', 'Parigge'), ('name:nds', 'Paris'), ('name:pcd', 'Paris'), ('name:pnb', 'پیرس'), ('name:rue', 'Паріж'), ('name:sah', 'Париж'), ('name:scn', 'Pariggi'), ('name:szl', 'Paryż'), ('name:tet', 'París'), ('name:tzl', 'Parighi'), ('name:udm', 'Париж'), ('name:vec', 'Parixe'), ('name:vep', 'Pariž'), ('name:vls', 'Parys'), ('name:vro', 'Pariis'), ('name:xmf', 'პარიზი'), ('name:yue', '巴黎'), ('wikidata', 'Q90'), ('ref:INSEE', '75056'), ('wikipedia', 'fr:Paris'), ('population', '2133111'), ('ref:FR:MGP', 'T1'), ('admin_level', '8'), ('alt_name:vi', 'Ba Lê'), ('loc_name:fr', 'Paname'), ('name:nds-nl', 'Paries'), ('old_name:fr', 'Lutèce'), ('postal_code', '75000;75001;75002;75003;75004;75005;75006;75007;75008;75009;75010;75011;75012;75013;75014;75015;75016;75017;75018;75019;75020;75116'), ('name:bat-smg', 'Parīžios'), ('name:roa-rup', 'Parij'), ('ref:FR:SIREN', '217500016'), ('name:roa-tara', 'Parigge'), ('name:be-tarask', 'Парыж'), ('population:date', '2021'), ('source:population', 'INSEE 2024'), ('name:zh-Latn-pinyin', 'Bālí')]", "bbox": { "xmin": 2.224122, "xmax": 2.4697602, "ymin": 48.8155755, "ymax": 48.902156 }, "geom_type": "MultiPolygon", "geom": "b'\\x01\\x06\\x00\\x00\\x00\\x01\\x00\\x00\\x00\\x01\\x03\\x00\\x00\\x00\\x01\\x00\\x00\\x00\\xe0\\x03\\x00\\x00M\\x83\\xa2y\\x00\\xcb\\x01@Q\\xa3\\x90dVmH@\\x1a\\x18yY\\x13\\xcb\\x01@\\xe5\\xd59\\x06dmH@M1\\x07AG\\xcb\\x01@c\\x99~\\x89xmH@\\xa2~\\x17\\xb6f\\xcb\\x01@\\xe1\\x0b\\x93\\xa9\\x82mH@\\xd5]\\xd9\\x05\\x83\\xcb\\x01@}\\xcb\\x9c.\\x8bmH@\\xf1\\x82\\x88\\xd4\\xb4\\xcb\\x01@\\xf3\\xe4\\x9a\\x02\\x99mH@s\\xf2\"\\x13\\xf0\\xcb\\x01@\\x81Z\\x0c\\x1e\\xa6mH@\\x1d\\x01\\xdc,^\\xcc\\x01@\\xc9t\\xe8\\xf4\\xbcmH@\\x12\\xfb\\x04P\\x8c\\xcc\\x01@k\\xf1)\\x00\\xc6mH@\\xd2\\x89\\x04S\\xcd\\xcc\\x01@\\xa0O\\xe4I\\xd2mH@\\x0b&\\xfe(\\xea\\xcc\\x01@\\xd3\\xf4\\xd9\\x01\\xd7mH@`s\\x0e\\x9e\\t\\xcd\\x01@\\x07\\x9a\\xcf\\xb9\\xdbmH@\\xe8\\x9f\\xe0bE\\xcd\\x01@P\\xffY\\xf3\\xe3mH@\\'\\xf9\\x11\\xbfb\\xcd\\x01@6;R}\\xe7mH@YLl>\\xae\\xcd\\x01@\\xcc\\t\\xda\\xe4\\xf0mH@\\xeb\\x9d\\x1b\\xe4?\\xce\\x01@\\xe7A0\\xfd\\x01nH@~V\\x99)\\xad\\xcf\\x01@\\xa4^\\xa6\\xdc3nH@\\x1bd\\x92\\x91\\xb3\\xd0\\x01@\\x905~<OnH@f*ij~\\xd1\\x01@\\x8f\\xf3H\\xcdhnH@\\xbc\\xe6U\\x9d\\xd5\\xd2\\x01@\\xad-\\xe1u\\xa2nH@\\xa2+laq\\xd3\\x01@:\\xe8\\x12\\x0e\\xbdnH@*\\xaf\\xf0\\x89\\xd0\\xd3\\x01@\\x06@&c\\xc6nH@5K]\\x8dG\\xd4\\x01@\\xe2\\xfc\\xf2n\\xd1nH@\\xe1\\x05\\xb6\\xef\\xf6\\xd5\\x01@I\\x87\\xe2\\xe9\\xf0nH@\\xa7\\x14*\\xee.\\xd6\\x01@\\x1e\\x102\\xda\\xf4nH@\\\\\\xcfkG\\xcc\\xd7\\x01@\\xdf\\x8f6\\xe9\\x11oH@\\x05G\\x139\\x8e\\xd9\\x01@\\xbe\\x84\\n\\x0e/oH@?w\\xdd\\xb6J\\xdb\\x01@\\xe5\\x117\\x02LoH@\\x18\\xa3d(\\xdd\\xdc\\x01@\\xd5Ee\\x1eToH@0892E\\xdf\\x01@\\xa6n\\x1d\\xd2^oH@G\\xa7S\\xc3#\\xe6\\x01@\\xc6\\xf0\"]}oH@\\xf0\\x1b\\xba4\\xd9\\xea\\x01@\\xec\\xfe\\x0c\\xca\\x8foH@\\xfc\\x19\\xde\\xac\\xc1\\xeb\\x01@\\xea\\xecdp\\x94oH@\\xfeI\\xd7\\xa7w\\xec\\x01@\\x05d\\xf9\\x04\\x9aoH@J5\\xa2j\\xaa\\xed\\x01@\\x9f\\x87$\\xc4\\xa6oH@%/!\\xd5f\\xf2\\x01@&\\xc8ca\\xe3oH@17)\\x16\\t\\xf7\\x01@N1\\xbd\\xb3,pH@\\xb2\\x02\\x8d\\xe3\\xd1\\xf7\\x01@\\xfc\\xc8\\x08\\x03*pH@\\x9e3X\\'\\x1d\\xfb\\x01@z\\x01Q\\x8b\\x1cpH@iC\\xb4\\x0c\\'\\xff\\x01@\\x9a\\x99\\xf4R\\x0cpH@\\xa1D\\xf0d\\xdc\\t\\x02@\\xb6\\x88\\x83\\xdf\\xe1oH@\\xe9\\xdf\\xe4m[\\n\\x02@\\xbb\\x9b\\xa7:\\xe4oH@\\xc6A\\xf8\\x06\\x15\\x0b\\x02@\\xa7\\n\\xa1\\xde\\xe7oH@\\x9ca\\xb4\\xd87\\x11\\x02@\"f@\\x07\\xa7pH@\\xbd\\xe9\\xf1\\xd6T\\x11\\x02@\\x0f\\x0f\\xbc\\xb5\\xa7pH@n\\xed\\x8e\\xd6b\\x11\\x02@]dL\\x0b\\xa8pH@\\xe1\\xde\\xebZ1\\x12\\x02@\\xad\\xac#\\xfd\\xacpH@\\xe0\\xbe\\x0e\\x9c3\\x12\\x02@f\\xe6\\xb8\\t\\xadpH@\\x9d\\xc5A\\xf8\\x06\\x15\\x02@\\xa4D\\\\J\\xa7pH@\\xd2~Z\\xfb\\xf1\\x1d\\x02@\\xf5\\x94\\xe6\\xa0\\x95pH@h\\xa8\\x9b\\xd5L8\\x02@\\xa5N@\\x13apH@|T\\r\\x0cj9\\x02@\\rc\\x1cmfpH@\\x83c;\\x84\\x96:\\x02@^\\x91N\\x13lpH@\\n\\xbf\\xd4\\xcf\\x9b:\\x02@\\xcf\\x04y,lpH@\\x1f\\x14\\xef[\\x08=\\x02@u\\xc2\\xf0\\xb6wpH@YaD\\xec]=\\x02@\\xec4\\xd2RypH@\\xac9@0G?\\x02@\\xee\\n\\xd8i\\xffpH@\\x80\"\\xbbwy?\\x02@{\\x0f<c\\x04qH@\\xdc\\xa3\\x92\\x95\\xba?\\x02@[\\xea \\xaf\\x07qH@\\x1e\\x03\\r\\x91.A\\x02@vd\\xf6\\xc3\\x19qH@z\\x10L\\x7f@A\\x02@\\x1cu\\x19\\xa3\\x1aqH@\\xa3\\xf4;\\x03\\xd9A\\x02@Z\\x8eF\\xf4!qH@\\x18\\xc1\\xb5\\xc9\\x97F\\x02@lvIA\\\\qH@\\xa9\\xf2\\xe2i\\x9eH\\x02@\\xa0\\xd1\\x0c\\x98vqH@\\xa8\\xf7\\xf9\\x94\\x08I\\x02@\\xc1\\x0b\\x11&{qH@*\\xe0C.\\xddI\\x02@^G\\x1c\\xb2\\x81qH@;\\xea\\x9e+\\x00L\\x02@h\\xe6n|\\x92qH@\\xbd1\\xa9FTM\\x02@\\xfd\\xf6u\\xe0\\x9cqH@X\\x85\\x17\\x8e1Q\\x02@)UG3\\xbbqH@jM\\xf3\\x8eST\\x02@\\xd5\\xd27\\xc4\\xd3qH@\\xb2lAJGT\\x02@\\x93\\xf7\\x16{\\xd4qH@\\xa1%\\xd94\\x00U\\x02@+\\x90\\x8f\\xcc\\xd9qH@\\xd05\\x82C^U\\x02@\\x1f>\\xfap\\xdaqH@6\\x16^\\x93\\x7fW\\x02@\\xdc\\x84{e\\xdeqH@\\xb3y\\x1c\\x06\\xf3W\\x02@\\xe1o\\xc5\\x0f\\xdfqH@\\x9e\\xd73\\xdf\\x1cY\\x02@\\x99[k9\\xe1qH@_\\xbd\\xe5E\\x81Y\\x02@?>|\\xf4\\xe1qH@0\\x88\\xa3\\x06.Z\\x02@8\\xd70C\\xe3qH@\\xd5\\xd4\\ro1Z\\x02@J\\x14\\x10I\\xe3qH@v\\xa9\\x11\\xfa\\x99Z\\x02@\\xe5\\xecB\\x18\\xe4qH@\\x8a]6\\x95\\xa0Z\\x02@2\\xe6\\xae%\\xe4qH@\\xe1A\\xb3\\xeb\\xdeZ\\x02@\\x85n@\\x95\\xe4qH@gC\\xfe\\x99A\\\\\\x02@r\\x9b\\xba<\\xe7qH@\\xcc\\x0b\\xb0\\x8fN]\\x02@\\\\\\x82B\\xf3\\xefqH@/\\x13\\xea\\x8ej]\\x02@g\\xce\\x9f\\xdb\\xf0qH@\\xf7\\'Ls\\x86]\\x02@\\xb4\\xdbx\\xc1\\xf1qH@\\xe1\\xa7`C&_\\x02@\\x12)r-\\xffqH@\\x16X\\xb6\\xc5\\xeb`\\x02@4\\xb4\\xa6\\x1e\\x0erH@xy\\xdf\\x9d!a\\x02@\\x16\\x95\\xc3\\xdd\\x0frH@\\r\\xe9K\\xca8a\\x02@!\\xb3\\x0e\\xa2\\x10rH@Uoh%\\x08b\\x02@w\\x84\\xd3\\x82\\x17rH@\\xd5\\xbb.\\xb2Sb\\x02@\\x10\\x85\\xe0\\x02\\x1arH@\\x89\\xff\\x85/]b\\x02@\\xb7\\xdd\\xbaQ\\x1arH@e\\xc8\\x0c\\xaf\\x7fb\\x02@\"\\x8euq\\x1brH@\\xd6\\xc3<\\xd0\\xafb\\x02@\\xf1\\x03\\xa1\\x06\\x1drH@1\\x94\\xb83\\xb8b\\x02@\\xc7\\xe0\\x17M\\x1drH@Y\\xcfZ\\x1btc\\x02@\\xb2\\x8bXz#rH@p\\x1a\\xec\\x97\\x99c\\x02@\\x1d<\\x13\\x9a$rH@\\xf6e\\xc4`Yd\\x02@so46*rH@\\x86U\\xbc\\x91yd\\x02@\\xe4\\xf6\\xcb\\'+rH@W\\xa9\\xea/\\x05e\\x02@\\xdc\\'\\xecG/rH@\\xdb\\x92\\x0b\\x84Se\\x02@\\xe7?\\xff\\x981rH@\\x7f\\xe4\\x8c\\x17\\xc1e\\x02@P\\xa2\\xca\\xd54rH@\\x0c\\xcb\\x9fo\\x0bf\\x02@\\xc6\\xcc\\xf4\\x017rH@\\xf9x2Ivf\\x02@\\xd6\\xfdc!:rH@E\\x084}\\x1bg\\x02@9U\\x08\\xf5>rH@q\\'\\xc7SEg\\x02@-\\xbb\\xbb)@rH@\\xc0z\\xdc\\xb7Zg\\x02@&n\\x15\\xc4@rH@\\xb3\\xab\\xda\\x7f\\xaeg\\x02@\\xc0@\\x10 CrH@\\xeeo\\x1a\\xec\\x97i\\x02@\\xb8\\xc2`\\xa3QrH@\\x15\\xf4(\\xa6\\x1cm\\x02@\\xbdku\\xdekrH@\\xcc(\\x96[Zm\\x02@]\\xb9(\\xc4mrH@\\xd8\\xec\\xed;+n\\x02@M\\xc5|/trH@\\xe9W\\x84\\xac\\xb8r\\x02@\\x83\\xbf_\\xcc\\x96rH@\\x92\\x85\\x9e\\x83\\x1du\\x02@\\xd9#\\xd4\\x0c\\xa9rH@\\xdb\\xaf\\xf1O_u\\x02@\\xde\\xda\\xd3\\x1f\\xabrH@\\xac\\xe69\"\\xdfu\\x02@\\xee\\xc3\\x8b\\xcf\\xaerH@R!\\xc3\\xcf$v\\x02@\\x88\\xb0+w\\xb0rH@)\\x84\\xc4,jv\\x02@\\x10`\\xec\\x18\\xb2rH@\\xa8[\\xd1A\\xf2y\\x02@v\\xc7\\xbdT\\xc7rH@\\x95\\xac\\xd4\\xfd\\xad~\\x02@&R\\x9a\\xcd\\xe3rH@\\xb3;I_\\xad\\x7f\\x02@\\xac\\x93\\x8e\\xcd\\xe9rH@\\xe6\\xdd\\xa2\\xdd2\\x81\\x02@\\x02\\xc1w\\xf6\\xf0rH@\\xbb\\x08\\xf8\\xda\\xd8\\x81\\x02@H{r\\x03\\xf4rH@\\x8f\\xdep\\x1f\\xb9\\x85\\x02@2\\x85\\x18\\xf9\\x06sH@{\\x12\\xd8\\x9c\\x83\\x87\\x02@\\x8c\\xc5%}\\x10sH@\\xde\\xc1\\x99\\xa9Z\\x8c\\x02@?\\xf2\\x18/\\'sH@\\xb2\\x1e\\xad \\xbc\\x8c\\x02@\\x02\\xe2d\\xd1*sH@\\x8d}\\xc9\\xc6\\x83\\x8d\\x02@\\xd4\\x16\\x8dk2sH@k\\x83n\\x8a\"\\x8f\\x02@\\x8bu\\x056BsH@\\xf0\\x91\\x83\\xc8\\xd8\\x8f\\x02@\\xf8\\x12\\xcf~IsH@M38\\xa5\\x17\\x90\\x02@\\xe5\\x117\\x02LsH@\\xb5\\xbfX\\x84\\x07\\x92\\x02@\\xa9\\xf3M?MsH@l\\xbfk\\x86\\n\\x94\\x02@\\xcc\\xaf\\x8bGNsH@\\xad\\x0b\\x89\\xc5\\xb9\\x97\\x02@\\x90w\\xfd8PsH@\\xbfO\\x0b\\x14g\\x9b\\x02@\\xee_YiRsH@,\\xd8\\xa1\\xf5K\\x9f\\x02@\\xc9\\x83>\\xa2SsH@1\\xb1\\xf9\\xb86\\xa4\\x02@u#\\x87\\xe3TsH@\\xb9\\x88\\x94\\x0b:\\xa6\\x02@i\\xff\\x03\\xacUsH@\\xd8\\x81sF\\x94\\xa6\\x02@\\xd4m?\\xcfUsH@\\xa1\\x89\\x0b\\x9b\\\\\\xa7\\x02@QGl\\x1cVsH@!\\x02\\x0e\\xa1J\\xad\\x02@\\x9d \\xfbjXsH@\\xdc\"zcR\\xad\\x02@\\\\_\\x7fmXsH@\\xf0\\x10k\\x96p\\xad\\x02@VZ\\x90wXsH@\\x12\\x9c\\x9f\\x87\\x7f\\xad\\x02@\\xd3\\xd7\\x98|XsH@\\x04s\\xf4\\xf8\\xbd\\xad\\x02@\\xaf\\x8b\\xec\\x94XsH@YQ\\x83i\\x18\\xae\\x02@\\x1a\\xfa\\'\\xb8XsH@\\x0eI-\\x94L\\xae\\x02@\\xa3\\xaf \\xcdXsH@\\xb8l\\xbe[j\\xae\\x02@s+\\x84\\xd5XsH@\\x077c\\xe2\\xa0\\xae\\x02@U\\xe4\\xc6\\xe3XsH@\\x01\\x0b\\xaaW\\xdb\\xae\\x02@\\xde\\x99\\xbf\\xf8XsH@\\xf3\\x8aLe\\xf6\\xae\\x02@D\\xd5\\xf9\\x01YsH@kf\\x88\\xbe\\x16\\xaf\\x02@\\xfc\\x0e\\x8f\\x0eYsH@>\\x9b\\xb0X\\x1e\\xaf\\x02@&\\x8e<\\x10YsH@D\\tD\\x99W\\xaf\\x02@\\xf0\\x04\\xb1\"YsH@\\xe72\\xdaOk\\xaf\\x02@\\x02B\\x90(YsH@\\xdb\\xa0\\x9b\\xa2\\xc8\\xaf\\x02@\\x1a\\xb2pHYsH@o\\xdbRb2\\xb0\\x02@m\\xde\\xddoYsH@\\xaf7{\\xb1A\\xb0\\x02@\\x7f\\x1b\\xbduYsH@8\\x84*5{\\xb0\\x02@\\x9d\\x90\\x8c\\x8bYsH@7\\x89A`\\xe5\\xb0\\x02@\\xae\\xfb}\\xb5YsH@@\\x8eA\\x82=\\xb1\\x02@\\xb4.\\x7f\\xcfYsH@\\xd2\\xbd\\xf30Y\\xb1\\x02@\\xae)\\x90\\xd9YsH@\\xa9\\x03\\x0f\\xc2\\x92\\xb1\\x02@y\\xa0\\x04\\xecYsH@\\x1d\\x08$\\xbc\\x98\\xb1\\x02@\\xa2\\x1f\\xb2\\xedYsH@\\xcb\\xab)\\x7f\\xad\\xb1\\x02@\\x08[\\xec\\xf6YsH@E\\x92j\\xe9\\x1b\\xb2\\x02@\\xae\\x85\\xb4!ZsH@\\xd62\\xbe\\xd4t\\xb2\\x02@\\x01\\xb2!IZsH@\\xc8x\\x94Jx\\xb2\\x02@+1\\xcfJZsH@\\xff+\\x86\\x06\\xbd\\xb2\\x02@\\x01\\xe03mZsH@\\x12\\xfa\\x99z\\xdd\\xb2\\x02@\\xfb\\xdaDwZsH@\\x04\\x97\"T\\x04\\xb3\\x02@\\xb4\\x14\\xda\\x83ZsH@kH\\xdcc\\xe9\\xb3\\x02@\\x1f\\xb1\\'\\xcbZsH@\\x81\\x90\\xd1\\xa6\\x8f\\xb5\\x02@f/\\xdbN[sH@9,h\\xb5\\x1b\\xb8\\x02@\\xad\\t\\xb3\\x1a\\\\sH@\\xc7Ia\\xde\\xe3\\xbc\\x02@5\\x8ba\\x98]sH@7\\x84\\xcf{\\x08\\xbf\\x02@\\xd05\\x82C^sH@[\\x12V\\x19|\\xc0\\x02@\\x0b|E\\xb7^sH@d\\xdd\\x89\\xa3\\xbc\\xc0\\x02@\\xffqg\\xcb^sH@\\x89v\\xba\\x98\\x0b\\xc1\\x02@\\x9ad?\\xe6^sH@\\x01\\xf8\\xa7T\\x89\\xc2\\x02@\\x8e\\xe4\\x97f_sH@\\xdb\\xeb\\x93\\x92\\xd4\\xc8\\x02@\\xe0\\x94\\x03\\x87asH@E\\xb2\\xec\\xee\\xa6\\xd0\\x02@\\x0eU\\xe7\\x07dsH@J\\xa6\\xf9\\x19\\xcd\\xd0\\x02@\\xafL\\xae\\x18dsH@\\xc3\\xdb\\xde\\xc9\\x02\\xd1\\x02@y\\x95\\x10\\x07dsH@X\\xc4U\\n&\\xd3\\x02@\\xbb\\x0e\\xd5\\x94dsH@\\xd5\\xd0a\\x19v\\xd3\\x02@I\\xf7\\xce\\xc3dsH@\\x01fc\\xca,\\xd7\\x02@\\x9ce\\xbb\\xe7esH@\\x83m\\xc4\\x93\\xdd\\xdc\\x02@\\x00%\\xf4\\xe9gsH@\\xf7\\xa3\\xf2\\xc0\\x11\\xde\\x02@\\xbf\\xbf\\x9c4hsH@\\xc0\\xd81d+\\xde\\x02@e\\xbcR;hsH@\\xc2%\\x11+\\xed\\xde\\x02@\\xf4\\xa4LjhsH@._MT%\\xe0\\x02@\\xe2\\xf1\\xa3\\xd0hsH@\\xd549\\xc6_\\xe4\\x02@d@Q4jsH@\\xc2\\xe2\\xcb\\x9f\\xca\\xe4\\x02@;\\xef\\xb5VjsH@a\\xee\\xa4\\xcfX\\xe5\\x02@\\xca\\xd7\\xaf\\x85jsH@\\xb9Uk\\xbc\\xcf\\xec\\x02@9Y\\x0f\\x04msH@K\\xb08\\x9c\\xf9\\xf5\\x02@Pa[\\xf5osH@Z\\xaf3\\xcf[\\xf6\\x02@\\x08\\xc9\\x02&psH@\\x7fr\\xca\\x92\\xef\\xf8\\x02@\\x08\\xddo\\xfepsH@\\xa0\\x0b4\\xe9\\x00\\x02\\x03@Y\\xcfZ\\x1btsH@\\xbdd-O1\\x08\\x03@\\x8e8\\tJvsH@\\xba\\xf4/Ie\\n\\x03@\\x8e\\x1ed\\xfevsH@\\x01\\x05\\xcd\\x9dO\\x13\\x03@\\xf1\\xf1\\t\\xd9ysH@\\xd7\\xae\\xbf\\xdbr\\x14\\x03@\\xcf\\'\\x97kvsH@kb\\x81\\xaf\\xe8\\x16\\x03@\\xb5Z\\x16\\x02osH@\\xd3\\x9f\\xfdH\\x11\\x19\\x03@M\\xd6\\xa8\\x87hsH@$\\xce/\\xef\\x16\\x1d\\x03@\\xe3\\x1cut\\\\sH@]8kKx\\x1d\\x03@\\x13\\x03n\\'[sH@Z\\xeaj<\" \\x03@\\xa0\\xa8lXSsH@\\x81\\xd0z\\xf82!\\x03@\\xf2\\x97\\x16\\xf5IsH@\\xc6\\xcc\\xf4\\x017!\\x03@]\\xaa-\\xd0IsH@0ww\\xae9!\\x03@\\x16\\xb6\\xb0\\xb8IsH@\\x80\\'-\\\\V!\\x03@\\xb18\\xf7\\xb2HsH@.\\x049(a&\\x03@\\n\\xf0\\x82-\\x1bsH@\\x13`\\xfdD\\n*\\x03@\\xeb_H=\\xfarH@4\\r/-\\x8f*\\x03@\\xabY\\x0c\\xc3\\xecrH@\\xc2\\xc4z\\xfe\\x0f+\\x03@\\xab\\x9e\\x82\\xb2\\xdfrH@)YNB\\xe9+\\x03@i\\x9d\\x02\\xaa\\xc9rH@\\xfbm\\x99\\x1d\\xf3+\\x03@.\\x9f\\xf6\\xa5\\xc8rH@5\\x91>R\\xe9,\\x03@\\xff\\xe6\\xc5\\x89\\xafrH@\\xa0\\xb2P!\\r-\\x03@%\\x87\\x99\\xc7\\xabrH@uD\\x19\\x05\\x1c-\\x03@\\xa3\\n\\xda?\\xaarH@2\\xff\\xe8\\x9b4-\\x03@\\xa4\\xce\\x92\\xb6\\xa7rH@\\xb9\\xe3M~\\x8b.\\x03@\\xe0\\xa96\\xee\\x83rH@h\\xa70\\x00\\x9e.\\x03@p\\xe0\\x1f\\x00\\x82rH@\\xcb\\xd3^\\xe9!/\\x03@D\\xder\\xf5crH@\\x10\\xd0\\xd8\\xf2%/\\x03@-Z%\\xfdbrH@\\xeb\\x01\\xf3\\x90)/\\x03@\\x1b\\t\\xd9\\x1ebrH@\\x1cg.\\xcb2/\\x03@\\xb7I\\xa0\\x1c`rH@\\r\\xaa\\rND/\\x03@\\x95\\xc7\\xe4\\x1e\\\\rH@U@\\xeb+Y/\\x03@9G\\x1d\\x1dWrH@#\\xa3\\x03\\x92\\xb0/\\x03@gq\\x10\\xbeArH@\\xbcHW\\x9fa0\\x03@\\xb2@`\\x8a\\x17rH@\\xb1\\xd6\\xf5\\xb0\\xbc0\\x03@\\xa7\\xcbbb\\xf3qH@\\xb5\\x04\\xcfs\\xfa0\\x03@}\\xde\\x9e1\\xddqH@q\\xa4\\xd8v\\x7f1\\x03@z\\no\\xc5\\xb4qH@N3\\x93^\\x8a1\\x03@\\xbd\\xd7Z\\xa9\\xb1qH@\\x9a\\x0c\"\\xad\\x8c1\\x03@O\\x03\\x06I\\x9fqH@\\xd0\\xf1\\xd1\\xe2\\x8c1\\x03@\\x0e\\xa4\\xe6\\x06\\x9eqH@\\xc1\\x17\\xcb\\x99\\x921\\x03@B|`\\xc7\\x7fqH@I\\xb3\\x1ec\\x931\\x03@-\\n\\xbb(zqH@\\x9ci\\xc2\\xf6\\x931\\x03@\\xe5\\x03L*dqH@M0\\x9ck\\x981\\x03@\\x1c\\xd8\\x85zUqH@\\xf1\\'\\xcfac3\\x03@%\\x95)\\xe6 qH@\\xbb\\xc8N\\x8956\\x03@?J6h\\xf9pH@\\xa7\\xa2\\xc2\"\\xd0:\\x03@\\xa54\\xf6\\x80\\xd4pH@:\\x804R\\xa5<\\x03@8\\xcbv\\xcf\\xcbpH@AG\\xabZ\\xd2A\\x03@\\x9eV\\x1b\\xad\\xb4pH@*+\\x97\\xd7[D\\x03@A\\xbc\\xae_\\xb0pH@\\x94\\xda\\x8bh;F\\x03@Hq\\xe9\\xf3\\xacpH@\\x84Q\\xff\\x0ffI\\x03@a\\xfa^CppH@J\\xec\\xda\\xdenI\\x03@\\xf7\\xd3\\xda\\x8fopH@h6\\xd9P{K\\x03@}\\xcfH\\x84FpH@\\xb5\\xb8\\x10\\xf5\\xccL\\x03@0t6.-pH@[B>\\xe8\\xd9L\\x03@\\x8b\\x83\\xf0\\r*pH@\\x8f\\x07\\x11_\\xdcL\\x03@\\xebI\\xaa\\x00)pH@\\x0b\\xbf\\x8aB\\x81M\\x03@h\\xe0\\x91\\xc2\\x06pH@b\\xf2\\xab\\xde\\x86M\\x03@\\xb6;Z\\x8b\\x05pH@\\xee\\xa3\\t\\xca#N\\x03@\\xd3%-\\xa6\\xe3oH@VK\\x95\\x834N\\x03@\\x93\\x9e3\\xb3\\xe0oH@\\xa7\\xdedeEN\\x03@AP$N\\xddoH@\\x88DF\\xacjN\\x03@:\\xda\\'6\\xd5oH@j\\x04\\xd1I\\xa5N\\x03@|jP\\x8f\\xc8oH@\\xbd\\xf4@u\\xbdN\\x03@\\xf5<\\xc9g\\xc3oH@\\x08\\xb6\\x00#\\x1eO\\x03@x==[\\xacoH@\\x8d\\xf1\\xbc\\xaf%O\\x03@\\xde\\xac\\xc1\\xfb\\xaaoH@\\xd65\\xffT\\x81O\\x03@\\x80GT\\xa8noH@\\x7f\\xb0B\\x80\\xc2O\\x03@\\xbb\\xc0\\x9b$LoH@\\x19\\xc0\\x00g\\xceO\\x03@\\x8f\\x9c\\x96iEoH@\\xce@\\x1bo\\xe1O\\x03@N\\xd8\\xd9\\xeb8oH@y\\x10\\xf1\\xc5\\xcdO\\x03@\\xbf\"d\\xc5\\x15oH@V\\x82\\xc5\\xe1\\xccO\\x03@\\x1d^kJ\\roH@ts\\x96\\xfe\\xcaO\\x03@\\xc0\\xc3\\xfe\\xfc\\x08oH@(`;\\x18\\xb1O\\x03@C?\\xaeh\\xcenH@\\xaa\\x01\\x94\\xd0\\xa7O\\x03@\\xc8\\xb6g\\xf1\\xbdnH@\\xb3\\x01}\\xc7\\x95O\\x03@\\xb17\\x8c\\xdd\\x99nH@\\xa2\\x04\\xa2\\xcc\\xabO\\x03@\\xce\\xb7O\\xd8\\x8fnH@i\\xbfZZ\\xb2O\\x03@\\x05{]\\xd0\\x8cnH@\\xec\\xd7B5\\xcaO\\x03@\\xc4\\x82V\\xbb\\x81nH@\\x1f\\xf1\\xd0\\x1c\\xfeO\\x03@Y<\\xab\\xbbhnH@G\\x98\\xfd\\x15\\x8dP\\x03@F\\xbe\\x01\\x1c1nH@\\xa8\\x9c@\"\\xb7P\\x03@\\xc5*\\x94;\"nH@\\x1fu\\x85\\x88\\xe5P\\x03@\\xdbh\\xa5\\xb5\\x0enH@us\\xf1\\xb7=Q\\x03@>U*M\\xefmH@\\x04&&^TQ\\x03@\\x170\\xdc\\x14\\xeamH@h\\xc1\\xd5K\\x9dQ\\x03@&F\\xe0Y\\xccmH@C\\xa4K\\xa4\\xd9Q\\x03@\\xdfs\\xbb\\xf2\\xb4mH@\\xba\\r\\x0f\\x06CR\\x03@\\xca\\x1a\\xf5\\x10\\x8dmH@\\xf3\\xe3\\xd4swR\\x03@\\xb6}4AymH@\\xb3\\xc1x\\xbc\\x7fR\\x03@|WN\\x8cvmH@b\\xa2A\\n\\x9eR\\x03@vI\\xe6\\xa2kmH@\\x8f\\x1b~7\\xddR\\x03@\\x9e\\xb0iJWmH@\\xf5\\x9f5?\\xfeR\\x03@U\\x7f)\\xa8MmH@\\xb7\\x14Fi%S\\x03@\"[\\xf1h>mH@\\xff\\xe1\\xf8\\xeb_S\\x03@\\x987\\xe2$(mH@\\x1e\\xdb\\xd7&\\xbaS\\x03@\\xf0\\xd7\\t\\xd4\\x07mH@\\xad\\x01\\xa5\\xfc\\xffS\\x03@\\x98\\xd4uM\\xedlH@_%\\x1f\\xbb\\x0bT\\x03@B\\xb5\\xc1\\x89\\xe8lH@\\xb7cEh_T\\x03@\\xf2\\x9a\\xb2.\\xc9lH@\\xbb\\xcb\\xea\\xc2\\xb4T\\x03@\\xc2\\x8eZ\\xbc\\xb3lH@q\\xa6\\xae!\\xddT\\x03@\\x17\\xd8c\"\\xa5lH@\\xfcd\\xd6\\x9c\\xcdT\\x03@x\\xc42G\\xa0lH@\\xb0\\x8bGN\\xcbT\\x03@%\\xe0|\\x8f\\x9flH@l\\xaf\\xaa\\x03\\xc5T\\x03@\\xa3\\x07\\x99\\xbf\\x9dlH@\\xa5\\xd7\\x0b\\xaa\\xb2T\\x03@\\x0c\\xb7\\xd7\\xdd\\x97lH@\\xe2\\x7f\\xe1K\\x97T\\x03@\\n\\xbc\\x93O\\x8flH@J\\xcd\\xc3\\xae\\x92T\\x03@\\xa6\\xb4\\xa3\\xdd\\x8dlH@\\x8eo\\x94a\\x81T\\x03@\\xc6\\'\\xaet\\x88lH@N0R\\xde}T\\x03@\\xc1\\xb2-^\\x87lH@{\\xa1\\x80\\xed`T\\x03@\\x8av\\x15R~lH@\\x1e\\x91J\\x0c]T\\x03@\\xd8\\xd1\\xdd\\x1a}lH@\\xd3\\xd7\\x98|XT\\x03@\\\\\\x88\\x1f\\xad{lH@\\xc3\\xc0\\xce\\xa8TT\\x03@P\\xe0\\x9d|zlH@\\xaaoOFKT\\x03@\\xf8\\x16\\xd6\\x8dwlH@\\xc9` cIT\\x03@\\xe7!\\xae\\xf7vlH@\\xe5\\xf4P6@T\\x03@Y\\xcfZ\\x1btlH@,\\xf4\\xc126T\\x03@\\xd2\\x81\\xf64qlH@Ph\\xfe=\\x1dT\\x03@;e\\x7f\\xeailH@_\\x089\\xef\\xffS\\x03@\\x87c\\xa7ialH@*\\x06\\xa3\\xed\\xf3S\\x03@\\x8e\\xea\\xcf\\xd9]lH@?c\\x15%\\xd7S\\x03@s\\xc9\\'\\x1aZlH@\\x96\\xb6\\x13\\x80\\xdaS\\x03@\\xf7\\xf52@XlH@F\\xe9w\\x06\\xb2S\\x03@\\x88]%iHlH@\\x9b\\xdf\\xd5\\x17\\xaeS\\x03@\\x05=\\x8a)GlH@\\xaf\\x1ck\\x90\\x93S\\x03@\\x8d%Q\\xd4>lH@\\xb3\\x9c\\xdf\\x8b\\x8aS\\x03@;\\x8f\\x8a\\xff;lH@\\xee>\\xc7G\\x8bS\\x03@\\xed\\x95\\x1e\\xf2;lH@\\xd2p\\xca\\xdc|S\\x03@\\x96\\x00\\xa1\\x9a7lH@\\xb3b\\x13\\xf4rS\\x03@\\xc7\\xec\\xd1\\xc04lH@x\\xa3ElfS\\x03@j\\n\\xae\\x031lH@\\x80\\x83Q\\xa4VS\\x03@\\xa2\\xd3\\xf3n,lH@]\\xe8\\x00w\\x8fR\\x03@cC7\\xfb\\x03lH@\\x92V!\\x8anR\\x03@\\xd2\\xe3\\xf76\\xfdkH@\\xf6\\t\\xa0\\x18YR\\x03@\\xb0\\xd7\\x05\\xcd\\xf8kH@\\xa4V\\xf3wJR\\x03@\\xff\\xdc\\xe1\\xc0\\xf5kH@F&\\xe0\\xd7HR\\x03@\\x88\\x08\\xa4i\\xf5kH@\\xc7\\x8au\\x056R\\x03@rH\\x0f\\xe8\\xf1kH@\\x87\\xc2g\\xeb\\xe0P\\x03@~\\xe0\\xcf\\x95\\xadkH@H\\xd5\\xc0\\xa0\\x96P\\x03@J\\x04O\\xc6\\x9dkH@F[:\\x8b\\x83P\\x03@\\x0b;\\xd6\\xd6\\x99kH@\\x11y\\x81HuP\\x03@\\xfa\\tg\\xb7\\x96kH@\\xba\\x08\\x9d!fP\\x03@&gr{\\x93kH@]\\xf8f@bP\\x03@\\xa3\\xd0\\r\\xa8\\x92kH@^0\\x13\\xa0\\x01P\\x03@\\xc5\\xd6}\\x11~kH@ap\\xcd\\x1d\\xfdO\\x03@\\x1f<$\\xc6|kH@\\xa5\\xd8\\xd18\\xd4O\\x03@;\\x12\\xd4\\x95tkH@\\xdb\\xa0\\x9b\\xa2\\xc8O\\x03@\\xb4 \\x94\\xf7qkH@@\\x91\\xdd\\xbb\\xbcO\\x03@P{\\x00AokH@\\x9bDsS\\xb9O\\x03@\\xd3\\x17\\x9d\\x87nkH@\\x015\\xb5l\\xadO\\x03@@\\x1c\\x7f\\xfdkkH@\\xd9\\t/\\xc1\\xa9O\\x03@L@\\x025kkH@\\x1d\\xc9\\xe5?\\xa4O\\x03@\\x94\\x96\\xdb\\x07jkH@`K\\xd93\\x95O\\x03@\\xfb\\xafs\\xd3fkH@\\xf2\\x03\\xfc\\xbf\\x8fO\\x03@\\x96\\x04\\xa8\\xa9ekH@\\x1e\\x92\\x10\\x9b~O\\x03@-\\x18\\xa6\\x00bkH@\\xf8\\x86g\\xaexO\\x03@\\x81x]\\xbf`kH@\\x19\\xb8\\xf2HrO\\x03@|\\xa7\\xb8`_kH@\\xe0U\\xc5\\nmO\\x03@\\xd05\\x82C^kH@\\xdf\\xde5\\xe8KO\\x03@V\\xbc\\xec2WkH@\\xbe9\\x12\\x1e#O\\x03@\\xc0\\xd3\\xbf\\x7fNkH@\\xdc\\xd09\\xe4\\x0bO\\x03@\\xec\\x08\\xf1\\x92IkH@\\\\\\xf8\\x0b\\x87\\xefN\\x03@\\x8a\\xb7\\x842CkH@\\x0b\\x82\"q\\xeaN\\x03@\\xdeEN\\x15BkH@L\\xc4[\\xe7\\xdfN\\x03@\\x92l\\xbf\\xc6?kH@\\xdd\\xae<\\xed\\x95N\\x03@\\x98\\xca\\x91\\x843kH@\\xd2\\x17\\xe7\\x14\\x89N\\x03@\\xf9\\xf2\\xa721kH@G\\x02\\r6uN\\x03@\\x89]\\xdb\\xdb-kH@D\\xbaD\\x9a\\x1dN\\x03@ \\x96rc\\x1fkH@U\\xb7\\x1f\\x95\\x07N\\x03@\\xf2e\\xfd\\xc1\\x1bkH@O\\x83X\\xec\\xe5M\\x03@\\x12}\\xe3\\x10\\x16kH@\\xb23\\xe0\\x87\\xdeM\\x03@f\\xdd\\x9a\\xcf\\x14kH@\\xdba]&\\xd4M\\x03@\\x9d>L\\x0c\\x13kH@^#\\x93\\x9d\\xc8M\\x03@\\xb0\\xf7,\\x19\\x11kH@\\xc9\\xd0\\x0c=\\xbdM\\x03@\\xabn?*\\x0fkH@\\xea\\xe4\\xb1\\x0b\\xabM\\x03@\\xbe\\xb7\\x8e\\x16\\x0ckH@\\xd86{V\\x88M\\x03@-\\x10\\x98\\xe2\\x05kH@t\\xf2}\\xccbM\\x03@q\\xbb\\xe1\\x88\\xffjH@\\x18\\x02%\\xaa\\\\M\\x03@$\\x80\\xf6~\\xfejH@\\xd6\\xe9\\x9b\\x8f\\xc6L\\x03@\\x0e\\xaeo\\x16\\xe5jH@\\x03>\\xe4\\xd2\\x9dL\\x03@\\xac.\\xf1\\x91\\xdejH@\\x9e\\x82W&WL\\x03@\\x05\\xb90w\\xd2jH@\\xc0\\x00g\\xce\\x9fK\\x03@t\\xa1\\xa8\"\\xcbjH@\\xac\\x91\\xb8\"\\x8cJ\\x03@\\xce\\xe30\\x98\\xbfjH@QJ\\xad\\x9cbJ\\x03@\\nJ\\xd1\\xca\\xbdjH@X\\xb3)\\xb21J\\x03@\\x05\\x1d\\x08$\\xbcjH@\\xab\\x8e\\xc1/\\x9aJ\\x03@Y\\xab\\xd1\\x06\\xbbjH@\\x07\\xe8c\\xe3fM\\x03@D\\xf7\\xack\\xb4jH@\\xe4,\\x91\\xb0\\x14N\\x03@\\x86\\xa4\\xbb\\x90\\xb3jH@u\\x9b&\"\\xb2N\\x03@\\noj\\xfb\\xb2jH@2>\\'\\x18)O\\x03@\\xbc\\x19\\xda\\xa5\\xb2jH@\\xd1\\x0c=\\xbd\\xadO\\x03@\\x04\\xb22u\\xb2jH@K\\x10d\\xf3\\'P\\x03@o\\xf2[t\\xb2jH@7\\xbb\\xff\\xd9\\xa0P\\x03@\\xec\\x9dv\\x9d\\xb2jH@\\xed\\x9d\\xd1V%Q\\x03@\\x87\\xecr\\x00\\xb3jH@\\xb9T\\xa5-\\xaeQ\\x03@\\x03\"\\xc4\\x95\\xb3jH@\\xf0\\xb8\\xf2\\xa3+R\\x03@3\\x8c\\xbbA\\xb4jH@\\'\\x1d@\\x1a\\xa9R\\x03@\\xb5\" \\x15\\xb5jH@\\xea\\xb9;!*S\\x03@\\x85\\xe0\\x02\\x1a\\xb6jH@\\xf4R\\xb11\\xafS\\x03@\\xfc\\xc8\\xadI\\xb7jH@\\x16 \\xc0\\xd81T\\x03@\\x13\\xd71\\xae\\xb8jH@\\xf50\\x0f\\xf4\\xabT\\x03@M_t\\x1e\\xbajH@w\\x88\\xda\\x91EU\\x03@^ R\\x1d\\xbcjH@j-q\\x89\\xc8U\\x03@\\xe0&H\\x11\\xbejH@8\\x07\\x19\\x12AV\\x03@\\xb6+\\x99\\x08\\xc0jH@\\xcf\\x9ep\\x1b\\xb2V\\x03@\\x0e\\xb3\\xe1\\xfa\\xc1jH@\\xa3\\x84\\xaa\\xe2\\xd7Y\\x03@\\xee4\\xe3~\\xd1jH@\\xf0l\\x8f\\xdep_\\x03@\\xd1J\\x10d\\xf3jH@b\\xefj^z`\\x03@PS\\xcb\\xd6\\xfajH@\\xd3\\xcd\\xb4\\xb3\\x9e`\\x03@\\xbb\\x03\\x86\\xf6\\xfbjH@q\\x9ff\\x92\\xa2_\\x03@q\\t\\x1b\\xf9\\x17kH@?\\xe0\\x81\\x01\\x84_\\x03@\\xf1yj\\x9a\\x1ckH@\\xfa\\x8cU\\x94\\\\_\\x03@\\xac>\\xb2\\x14$kH@\\'\\x1bjoK_\\x03@W\\xec/\\xbb\\'kH@\\xaf\\x05b~\\x13_\\x03@\\xd6\\xcfQ\\xfd9kH@;p\\xce\\x88\\xd2^\\x03@\\x03\\xfd\\xcf\\xabKkH@P\\xb0Z\\xf4\\xa9^\\x03@\\xc20`\\xc9UkH@6\\x91\\x99\\x0b\\\\^\\x03@g\\nB\\x1efkH@\\x17\\x0cS\\x001^\\x03@\\x80\\xbd\\x1d<nkH@\\x94\\x7f\\xd2\\xf5\\xe9]\\x03@\\xd4|:\\xc3ykH@)\\xe70\\x04\\xa5]\\x03@\\xe1\\xf1\\xed]\\x83kH@\\xfcm\\xf4\\xd6e]\\x03@Y\\x7f\\xf0F\\x8bkH@W9Y\\x0f\\x04]\\x03@\\x90+\\x9as\\x95kH@\\xcb\\x03\\xa2q\\xf2\\\\\\x03@<\\x83+E\\x97kH@U.T\\xfe\\xb5\\\\\\x03@\\xf2|\\x06\\xd4\\x9bkH@\\x06\\x96m\\xf1:\\\\\\x03@\\xbfj\\xc0{\\xa2kH@5\\xb6\\xd7\\x82\\xde[\\x03@?\\x1d\\x8f\\x19\\xa8kH@\\x1d\\t\\x8f\\x91G[\\x03@\\xe4\\xb4\\xf1q\\xb7kH@\\xa9V\\x15\\xd0\\xfaZ\\x03@Q\\xe8\\xab\\x9a\\xd6kH@\\xfc\\x9d7_6[\\x03@\\x0c\\xc7\\x98`\\xddkH@\\x15\\x0c\\x9d\\x8dK[\\x03@\\x11\\x98=\\xbf\\xdekH@\\x8e\\x07\\xb6\\xa5i[\\x03@\\xf3\\xee#\\x12\\xe0kH@\\xf1+\\xd6p\\x91[\\x03@\\xb6\\xb6\\x95\\x03\\xe2kH@\\xb7\\x00~\\xd7\\xb1[\\x03@\\x089\\xef\\xff\\xe3kH@Ds\\xf8\\xff\\xcc[\\x03@\\xde=@\\xf7\\xe5kH@\\xc0\\xae\\xcb\\x95\\xe6[\\x03@_\\xfc~{\\xe8kH@_>\\xfew\\xe9[\\x03@\\xca\\xc6\\xde\\xe6\\xe8kH@\\xa0\\xba\\x03\\x86\\xf6[\\x03@\\xac\\xd5\\r\\xca\\xeakH@\\xf6\\xed$\"\\xfc[\\x03@\\x04\\xd3\\x1fP\\xeckH@\\xb3NKb\\xff[\\x03@\\x0fui\\r\\xefkH@\\xa2\\x17\\xa4\\xcf\\xfd[\\x03@%iH&\\xf1kH@(VWO\\xf7[\\x03@\\xe90\\xba\\x17\\xf3kH@\\xde0\\x1b\\xae\\x1f\\\\\\x03@\\xd5\\x9f\\xb3\\xbb\\xf6kH@Wu\\xfbQy`\\x03@\\xca\\xc4\\xad\\x82\\x18lH@\\xb8D\\x89\\xf1\\xf5`\\x03@\\xb4L\\xd0p\\x14lH@\\x94G\\xdc\\x080a\\x03@\\x0f\\x14\\xd3\\xe0\\x11lH@\\xd3\\x17\\x9d\\x87na\\x03@\\x81e[\\xbc\\x0elH@\\x84\\xe6\\x84\\x1a\\xcfa\\x03@[\\xd0{c\\x08lH@\\xbd\\xbcJ\\x88\\x03b\\x03@\\xe6}w\\x86\\x04lH@\\xdcA\\x91\\x93.b\\x03@\\x05Gn\\xf2\\x00lH@&l\\xe4_pb\\x03@,\\xd9\\x0c\\xcb\\xfakH@\\xf81\\x8b\\xf5\\xb2b\\x03@\\xee/q\\x9a\\xf4kH@\\x99\\x9a\\x04oHc\\x03@=Z\\xe6\\xbe\\xe6kH@pq\\x9e\\xfb\\xbcc\\x03@\\x9b%\\\\#\\xddkH@\\\\\\xea{hzd\\x03@\\xc4\\xe3G\\xa1\\xd1kH@{\\xb6\\xb3T\\x83e\\x03@\\x8f\\xfbV\\xeb\\xc4kH@h\\x9e\\x12\\xc6\\x05f\\x03@\\xa2>nd\\xc3kH@\\x95\\x0fA\\xd5\\xe8e\\x03@-b3\\x1b\\xbfkH@\\xe9~NA~f\\x03@\\xe0\\x9c\\x11\\xa5\\xbdkH@\\x06\\x8a\\x0e7\\x96f\\x03@d\\xf1\\xf6{\\xbdkH@\\xde\\xfc+\\xd0\\x93g\\x03@\\xd5\\x98k,\\xbckH@\\x9f\\xcf\\xdb3\\xa6k\\x03@=\\xa4\\xce\\x92\\xb6kH@\\xc4}?\\x90\\x17m\\x03@-\\xe3\\xf0\\x93\\xb4kH@\\xc3I\\x9a?\\xa6u\\x03@\\xb6{\\x03\\xdd\\xa8kH@\\xeer\\xb6%\\x17x\\x03@\\xbd0>q\\xa5kH@\\r\\x9eS\\xda,x\\x03@\\xa2\\x8e\\xd88\\xackH@\\xbb\\xa0\\x19\\x1f\\xc1x\\x03@\\x19\\xf3\\x84o\\xabkH@&s\\x87\\xa8\\x1dy\\x03@\\xe4\\xb1\\xb0\\xf1\\xaakH@\\xdc\\x9b\\x84w^\\x7f\\x03@k>ST\\xa2kH@[q\\xbb\\xe1\\x88\\x7f\\x03@\\xa6\\xb5il\\xafkH@t!\\xfb\\xc5\\x11\\x80\\x03@\\x08^\\x880\\xd9kH@\\x93/\\xb2\\xae\\x1b\\x80\\x03@fZQ9\\xdckH@B\\xa9\\x07\\x16\\xd1\\x80\\x03@\\xd8\\x98|X\\x14lH@\\x96\\xb9T\\x00\\xe7\\x80\\x03@i\\x9c\\x97\\xd4\\x1alH@ \\xe9xq\\x87\\x82\\x03@\\x82\\xfeB\\x8f\\x18lH@T7\\x17\\x7f\\xdb\\x83\\x03@qkw\\xb4\\x16lH@xY\\xb8Q\\t\\x84\\x03@\\xd7J\\x8du\\x16lH@\\xfc\\n\\x88\\xff*\\x86\\x03@=\\xc0I\\x89\\x13lH@jRes0\\x86\\x03@~\\xd7\\xb1[\\x15lH@\\xa8Q\\xedx8\\x86\\x03@\\xa6\\xc0\\xb8\\n\\x18lH@\\xa3\\xee^IM\\x86\\x03@\\xc6\\x08\\xf2\\xfd\\x1elH@c\\xcc\\x02\\x92U\\x86\\x03@\\r9\\xb6\\x9e!lH@\\x8b\\xf7\\x88=Y\\x86\\x03@\\xa1h\\x1e\\xc0\"lH@\\x89\\xb7\\xce\\xbf]\\x86\\x03@p\\xb071$lH@\\x1b\\xad\\xb4\\xd6a\\x86\\x03@\\xa0\\xa4eI%lH@\\xe2O\\x9e\\xc3\\xc6\\x86\\x03@\\xdb\\xa8\\xa9\\xc0$lH@SN\\xc5\\xd7\\xe8\\x86\\x03@\\xdc\\xdf4\\xd8/lH@Z#\\xcc\\xfe\\x8a\\x86\\x03@\\xd0\\xa7D\\xc8/lH@\\xc5\\xed+j\\x8b\\x86\\x03@)\\x07\\xb3\\t0lH@\\xbe\\x10\\x17%\\x8d\\x86\\x03@\\xbd6\\x1b+1lH@j:\\x96\\xd2\\x8e\\x86\\x03@@)\\xa4F2lH@#u\\xf1m\\xb0\\x86\\x03@\\xcaR\\xeb\\xfdFlH@\\xa5\\xaekj\\x8f\\x8d\\x03@\\x1293\\xb0DlH@\\x0eu\\x0eT|\\x92\\x03@2\\x8c`\\x88AlH@\\x8a\\x93\\xfb\\x1d\\x8a\\x92\\x03@\\x03\"i\\xdc@lH@\\xc8\\xc78\\x90?\\x92\\x03@Em\\xd1\\xb8&lH@kKx\\x9dh\\x92\\x03@\\x16\\x8d\\x10y&lH@0G\\x8f\\xdf\\xdb\\x94\\x03@0\\xf5\\xf3\\xa6\"lH@*U\\xa2\\xec-\\x95\\x03@<u\\x9b&\"lH@~\\xb9`\\xbaZ\\x98\\x03@-\\xc0-\\x0e\\x1dlH@ihM=\\x1c\\x9e\\x03@\"q\\x8f\\xa5\\x0flH@\\xae~l\\x92\\x1f\\xa1\\x03@\\xf0G\\x9b\\xf4\\x08lH@2\\xabw\\xb8\\x1d\\xaa\\x03@#\\x0f\\xe9\\\\\\xf6kH@\\xb1\\x0e\\xec\\x9dv\\xad\\x03@\\xe0*O \\xeckH@8\\xb1\\xd1\\x83\\xcc\\xaf\\x03@[K\\xb7\\xdb\\xe4kH@\\x8c \\xdf\\xefa\\xb0\\x03@\\xfdb[\\xab\\xe2kH@,\\xb0\\x11\\xd2d\\xb0\\x03@n\\xa8s\\xa0\\xe2kH@j\\x1ev\\x95\\xa4\\xb1\\x03@q\\x02\\xd3i\\xddkH@^%\\xc4\\x01\\x99\\xb2\\x03@y\\x19j\\xb9\\xd8kH@*X>&\\xad\\xb3\\x03@vZm\\xb4\\xd2kH@&\\xb30\\xfa\\xc0\\xb4\\x03@VnX\\t\\xcckH@[\\xaa\\x1c\\xa4\\xf1\\xb5\\x03@\\xe3\\x89 \\xce\\xc3kH@\\xb7\\xa7\\x9a\\x0f\\xbe\\xb6\\x03@\\x04\\x8d\\x99D\\xbdkH@\\xa1\\xa6\\xf1fh\\xb7\\x03@7)\\x16\\t\\xb7kH@\\xae\\xc4\\xf2\\x9dN\\xb8\\x03@\\xa1,|}\\xadkH@M\\xed\\xb1\\x99\\xe8\\xb8\\x03@\\n\\x9a;\\x9f\\xa6kH@Z\\x94#\\xae\\xad\\xb9\\x03@\\xa4OP/\\x9dkH@\\x05\\x1al\\xea<\\xba\\x03@\\xc5>\\\\\\xcd\\x95kH@\\x1d\\xb2\\xdc-$\\xbb\\x03@\\xb4t\\x05\\xdb\\x88kH@\\t\\x06\\xc6\\xb0y\\xbb\\x03@R\\t\\xf4.\\x83kH@\\x14C\\xcd\\xeb\\xe3\\xbc\\x03@\\xcb\\xe3\\x1flgkH@\\x01\\x87P\\xa5f\\xbf\\x03@Q!\\r]?kH@;\\xb7\\x1a##\\xc1\\x03@\\x99k,\\xbc&kH@\\xd0}9\\xb3]\\xc1\\x03@\\xd6M\\xce\\xf5\"kH@\\xdc\\x8b\\x1e\\xae\\x8b\\xc1\\x03@\\xde\\xa6\\xe4A\\x1fkH@\\x8b\\x1aL\\xc3\\xf0\\xc1\\x03@\\xba\\x93>c\\x15kH@\\xae\\xc5]s\\xfd\\xc1\\x03@\\xe4F6\\xfc\\x13kH@\\x1fj\\xdb0\\n\\xc2\\x03@\\xfd2\\x18#\\x12kH@\\xe0g\\\\8\\x10\\xc2\\x03@u\\xb1i\\xa5\\x10kH@\\t\\xb3\\xbf\\xa2\\x11\\xc2\\x03@\\x8do9\\xa8\\x0ekH@\\xad\\x88\\x9a\\xe8\\xf3\\xc1\\x03@\\xad\\xfec|\\xf3jH@D\\xa7B\\x97\\xcb\\xc1\\x03@^\\xae\\x8f\\x98\\xeajH@R\\x93*\\x9b\\x83\\xc1\\x03@\\xa1\\x8c\\xa7\\xd4\\xdbjH@\\xfb\\xebp\\xcfN\\xc1\\x03@:\"\\xdf\\xa5\\xd4jH@\\xd3,u5\\x1e\\xc1\\x03@\\xae\\xc1Vd\\xcfjH@\\x99\\x19\\xec<\\xe0\\xc0\\x03@\\xc2\\xce^\\xc7\\xc9jH@\\xf7{\\xbdV\\x9d\\xc0\\x03@6n\\xd6\\x85\\xc4jH@\\xaa\\xf1\\xd2Mb\\xc0\\x03@\\xf1\\x1584\\xc0jH@\\xab\\t\\xa2\\xee\\x03\\xc0\\x03@\\x06\\xf5-s\\xbajH@\\xd8\\xe9Q\\x02\\xac\\xbf\\x03@,\\xaf\\xa6\\xfc\\xb5jH@G\\x0f2\\x7f;\\xbf\\x03@\\x82\\xbf\\xa9Y\\xb1jH@h\\xc4\\x16\\xcc\\xa9\\xbe\\x03@r\\xc2\\x84\\xd1\\xacjH@\\xbd\\x90i\\xc8\\xd3\\xbd\\x03@\\xd4>\\xc2\\xd5\\xa6jH@`A\\xf5j\\xdb\\xbb\\x03@\\x1eV\\x13\\x9f\\x96jH@\\xec\\xa3SW>\\xbb\\x03@i\\xd89\\x17\\x90jH@\\xac\\x91\\xb8\"\\x8c\\xba\\x03@\\x91\\x00\\x7fB\\x87jH@\\x8c[\\x16](\\xba\\x03@j\\xf5\\xd5U\\x81jH@\\x86\\x96\\xd0\\xb8\\xcb\\xb9\\x03@n;\\xc8F{jH@\\x05\\xb6\\x94=S\\xb9\\x03@\\xc6]s\\xfdqjH@\\xd5\\xbf\\xda\\x07\\x0f\\xb9\\x03@L\\x9c&}kjH@\\x9e\\x0c\\xe9K\\xca\\xb8\\x03@\\'\\x83H+cjH@\\xd8\\xc0\\xb1\\xc2\\x88\\xb8\\x03@[\\x17\\xc8\\xfdXjH@\\xbd\\x9e\\xf9\\xe6H\\xb8\\x03@\\xebD8\\x1cLjH@*\\xd6\\xba\\x1e\\x96\\xb7\\x03@\\x0f:2\\xa0(jH@\\x888\\x8c8S\\xb7\\x03@\\x93\\x12\\xcc\\xe2\\x0fjH@\\xd2\\xeeF\\xd5e\\xb7\\x03@\\xeb\\x03$\\xf5\\xf9iH@t5\\xc3W\\x85\\xb7\\x03@\\x85\\xa5\\xcb\\xac\\xefiH@\\xdex\\xd2\\x1d\\x1f\\xb8\\x03@\\x0f\\x05\\xd8\\xec\\xediH@\\x8fG\\xba\\xb0\\x7f\\xb8\\x03@KQ\\xd3\\xd3\\xeciH@\\x9e\\x0c\\xe9K\\xca\\xb8\\x03@\\x85q\\x81\\x15\\xf1iH@E\\x9e$]3\\xb9\\x03@K\\x93R\\xd0\\xediH@\\xac\\x05QR\\xbb\\xba\\x03@\\xba\\xf1\\x93\\x0f\\xe6iH@\\x1d\\xba\\x8f\\x92\\r\\xba\\x03@\\xbc\\xdd\\xdc\\xa9\\xcaiH@\\x9f\\x046\\xe7\\xe0\\xb9\\x03@T\\xa1&\\x9f\\xc3iH@\\x8dV\\xff1\\xbe\\xb9\\x03@\\xed\\x92\\x82\\xb8\\xbciH@\\xb11\\xaf#\\x0e\\xb9\\x03@\\xf3\\xca\\xf5\\xb6\\x99iH@\\x0e\\xc6>\\xb7\\x86\\xb8\\x03@v\\x95\\xa4!\\x99iH@x\\xc7s\\xc7\\xac\\xb8\\x03@\\xa5\\xdc}\\x8e\\x8fiH@jd\\xfc\\xa0\\xd3\\xb8\\x03@=X\\x10\\x14\\x89iH@\\xbd\"S\\x99\\xbd\\xb7\\x03@\\xc2\\xc3\\x0f)aiH@\\xe8s\\xa4\\xe9\\xa2\\xb7\\x03@?\\x13\\x06\\naiH@m\\xdfHE\\x08\\xb4\\x03@\\x8b\\t k\\xfchH@\\x14\\xf0\\xc6\\xdd{\\xb3\\x03@\\x81\\xd7\\x1dA\\xe0hH@9\\rQ\\x85?\\xb3\\x03@)\\x98\\x8c\\xbe\\xddhH@{%\\xda\\x9f\\xd5\\xb3\\x03@\\xf1\\xf3\\xdf\\x83\\xd7hH@\\xd6\\xd8o7\\xd2\\xb3\\x03@9\\xc0\\x82\\xea\\xd5hH@\\xd2$g\\x17\\xc2\\xb0\\x03@@/\\x81\\x00\\xbehH@\\x08|\\xd9\\xd1\\x93\\xad\\x03@)\\x15C(\\xa5hH@\\x8be\\x9flo\\xac\\x03@\\xa9\\xf2\\xe2i\\x9ehH@\\xe9\\xaf\\xa1\\xe5\\x8a\\xac\\x03@9\\xe7L\\x7f\\x9bhH@j\\x02\\xfb\\x9eG\\xab\\x03@\\x02w\\xea\\xdb\\x93hH@o\\xdfYq`\\xa8\\x03@\\xe4]?\\x0e\\x94hH@\\x03\\x0b\\xbb\\x833\\xa3\\x03@\\xf4F\\xf7\\xbd\\x97hH@\\xd5T\\xbb\\xcb\\xea\\xa2\\x03@\\x00\\xad\\xf9\\xf1\\x97hH@\\xaa#\\xec\\x80\\x90\\xa1\\x03@\\x1c\\x8c\"\\xb5\\x9ahH@\\xde\\xb6\\xa5\\xc4d\\xa0\\x03@\\xf1\\x1a\\xaa\\x18\\x9dhH@\\xbc\\x98\\xc1sJ\\x9b\\x03@0q\\x9a\\xf4\\xadhH@Zj\\x18\\x99\\xdb\\x98\\x03@\\noj\\xfb\\xb2hH@a82\\xea\\xb5\\x94\\x03@2\\xa0(\\x1a\\xb5hH@|.\\xaeLS\\x8f\\x03@\\x87b<\\x94\\xb2hH@\\xe2\\x93N$\\x98\\x8a\\x03@u\\x81\\x81\\xd6\\xb2hH@\\xfa\\xec\\x80\\xeb\\x8a\\x89\\x03@\\x03\\xf4\\xb1q\\xb3hH@\\xad\\x18\\xae\\x0e\\x80\\x88\\x03@ \\xed\\x7f\\x80\\xb5hH@\\xbd-\\xa27&\\x85\\x03@Q\\x94:\\xb7\\xbfhH@J\\x9b\\x055\\xd7\\x84\\x03@\\xbb^\\x9a\"\\xc0hH@\\x15%\\xd7\\x03\\x9c\\x84\\x03@\\x98\\x12\\xee:\\xc0hH@\\x8d\\xbe8\\xa7H\\x84\\x03@\\xd3\\xa0h\\x1e\\xc0hH@^E\\xebM\\xb1\\x7f\\x03@5\\xbbIg\\xbbhH@~\\x90e\\xc1\\xc4\\x7f\\x03@\\xed\\x9b\\xfb\\xab\\xc7hH@V\\x9f\\xab\\xad\\xd8\\x7f\\x03@\\xba\\xcb4P\\xcfhH@>\\xc5\\xbbm\\xf0\\x7f\\x03@\\x91\\xff\\x13m\\xd8hH@\\xb4x\\x0c\\xea\\xb6\\x7f\\x03@\\xf5v\\x95\\xff\\xdahH@6\\xa6\\xccr~\\x7f\\x03@\\xca{\\xe6\\xf6\\xdchH@?\\xd8s\\xe3\\'\\x7f\\x03@\\x88\\xc8\\x9f^\\xdfhH@\\x95=S\\xf9\\xe8~\\x03@\\nE_\\xe6\\xe0hH@\\x07\\xe0\\xb0~}~\\x03@\\xaa\\xee6\\x14\\xe3hH@\\x1d\\xfe?\\xf3\\xde}\\x03@~\\x07\\xf5\\xe3\\xe5hH@\\xe6\\xd3\\xbe\\x14y}\\x03@\\xcb\\xcc\\x16Z\\xe7hH@\\xb7\\xe0\\xfb\\xd1&}\\x03@\\xd1\\xe5r(\\xe8hH@a\\xffun\\xda|\\x03@\\xc4e\\xcb\\xa8\\xe8hH@\\xd8\\xef.\\xbc7{\\x03@dWZF\\xeahH@\\x15\\xb5\\xea)({\\x03@\\x05!\\x0f3\\xeahH@\\xe3\\xf5\\x05\\x99\\t{\\x03@\\xf4Y\\xf9\\xc0\\xe9hH@\\x99\\x8e\\xefA\\xbez\\x03@H\\x8c\\x9e[\\xe8hH@\\x8e\\x83\\x01:\\x82z\\x03@Z\\xcf\\xb5\\xd4\\xe6hH@\\xe3\\xc3\\xece\\xdby\\x03@o\\xdc\\xbd7\\xe1hH@\\xa7\\x19\\xf7\\x8b~y\\x03@])\\x15\\x9e\\xe1hH@E\\x9e$]3y\\x03@M\\x9c\\x816\\xdehH@\\xaa\\x1f\\xe5qby\\x03@\\xa1\\x98aH\\xf3hH@}\\x91\\xd0\\x96sy\\x03@\\xb5\\x8e\\x05\\xe0\\xfahH@J\\xe2\\xf6\\x15\\xb5u\\x03@\\xe2#bJ$iH@\\x1cA*\\xc5\\x8ev\\x03@\\xf5\\xb7\\xa9&-iH@\\xb7\\xb7[\\x92\\x03v\\x03@\\xd9CV\\x124iH@+X\\x99\\xdf\\x1fu\\x03@[\\xe5\\xae\\xca*iH@)\\xde\\x12\\xca\\x0cu\\x03@s;\\xea\\x9e+iH@\\xeb+Y_nq\\x03@\\xbd\\x03\\x97\"TiH@\\xef\\x93\\xfe\\xb9\\xc3q\\x03@\\x13K%\\x97ZiH@k\\xec\\xb7\\x1b\\xe9q\\x03@6\\x01+,]iH@\\x17m\\xe9,\\x0er\\x03@\\xdb9(\\xbc_iH@Z\\xa8\\xeb?!q\\x03@\\x7f8\\xa3AeiH@Np\\xfb/!p\\x03@j\\xcfv\\x96jiH@.\\x84\\xe6\\x84\\x1ao\\x03@ \\xf7cIoiH@\\xd9\\xd7\\x15\\x8e{n\\x03@I\\xb2X\\xd4qiH@\\x90I\\xeb\\x14Pm\\x03@jb&\\xf6uiH@\\xceS\\x1dr3l\\x03@?\\x05\\x1b2yiH@\\x96k\\x1b\\x90\\xcej\\x03@\\xf6`R||iH@\\x86\\xcb\\x85%yi\\x03@$\\xf3#\\xd9~iH@B\\xf7\\x9b?\\\\h\\x03@\\x18\\xb5\\xfbU\\x80iH@\\xc4\\xffg\\xde\\xbbg\\x03@\\x8e\\xe5]\\xf5\\x80iH@b\\x8f?\\x07Lf\\x03@\\xff\\x10\\xd1\\x9e\\x81iH@\\xbe\\xc1\\x17&Se\\x03@v\\x89\\xea\\xad\\x81iH@7\\xa8\\xfd\\xd6Nd\\x03@\\xac\\xb6QS\\x81iH@\\xad\\xc2f\\x80\\x0bb\\x03@\\x00\\x8d\\xd2\\xa5\\x7fiH@{j\\xf5\\xd5Ua\\x03@\\xbf\\x13\\x0e\\x18\\x7fiH@p\\x18\\x16\\xed;`\\x03@l\\x01F<~iH@O\\xa5\\xb0\\x9c\\xce_\\x03@\\xb4k\\x8c\\xe7}iH@\\xc8\\xd2\\x87.\\xa8_\\x03@~\\xb4\\xee\\xd5}iH@\\xea#\\xf0\\x87\\x9f_\\x03@C\\xe4\\xf4\\xf5|iH@\\x05\\x83\\x105v^\\x03@m\\xabYg|iH@\\x84.<\\x8a\\xce]\\x03@[@h=|iH@DkE\\x9b\\xe3\\\\\\x03@U\\x97\\x9d\\x8f|iH@\\xa2\\xcd\\x16\\xb5\\xa0\\\\\\x03@s:\\x7f\\xc9|iH@\\xb2KTo\\r\\\\\\x03@O\\xd4-\\x96}iH@\\xdb\"\\x1f\\xaa\\xdf[\\x03@\\xef\\xf9\\x06\\xcb}iH@M\\x14!u;[\\x03@\\xf5n\\x87\\xe1~iH@e\\x06\\xe0U\\xc5Z\\x03@\\x18\\xfd\\xb2\\xc5\\x7fiH@\\x9f\\x88\\xeaR\\xc8Z\\x03@\\x0bcf\\xfa\\x80iH@~\\xa6\\x03\\xfe\\x95Z\\x03@\\x88j\\xa5k\\x81iH@\\xe8Ko\\x7f.Z\\x03@4\\n\\xee\\xac\\x82iH@\\xa1\\x1f\\xfcztY\\x03@t5\\xc3W\\x85iH@1iBI7X\\x03@~\\xe5Az\\x8aiH@\\xaa\"\\x81\\xab\\xe1W\\x03@A#}\\xff\\x8biH@\\xeeM\\xc2;\\xafW\\x03@)\\xc7\\t\\xb8\\x8ciH@Hm\\xe2\\xe4~W\\x03@\\xac\\x01JC\\x8diH@yA\\x9f#MW\\x03@p\\xfd\\x05\\xcc\\x8diH@k \\xa7\\xf9tV\\x03@ulNo\\x90iH@@\\xda\\xff\\x00kU\\x03@\\xf0\\xf7\\x8b\\xd9\\x92iH@\\xfb\\'\\x13\\x12\\xc4T\\x03@+\\xf6\\x97\\xdd\\x93iH@&\\xfd\\xbd\\x14\\x1eT\\x03@\\xf6$U\\x80\\x94iH@5\\xad\\xb9HFS\\x03@\\x1f.9\\xee\\x94iH@d\\xda\\xedi=R\\x03@+f)\\xfe\\x94iH@c\\xe2\\xa0\\xce&Q\\x03@\\xc0\\x9b\\xc9\\x92\\x94iH@\\xa5\\n\\x90\\xb2\\x8fO\\x03@&\\xaf)\\xeb\\x92iH@fb_W8N\\x03@V\\x05\\xb4\\xbe\\x92iH@0K\\x96\\xee\\tM\\x03@C\\xdcA\\x91\\x93iH@\\xeb\\x98\\xa9\\xffbL\\x03@\\x9c\\xf3\\xf8b\\x94iH@\\xa9x\\x12\\xc7pK\\x03@\\x07.\\xea\\xee\\x95iH@\\x94\\xcc\\xa0\\x90SJ\\x03@\\xbe\\xa3\\xc6\\x84\\x98iH@\\xd5\\x8d\\x1c\\x8eSI\\x03@\\x04\\x02\\x9dI\\x9biH@\\x16T\\xaf\\xb6\\xbdH\\x03@\\x98s\\x84g\\x9diH@\\xc2\\x01\\x88\\x164H\\x03@\\x85D\\xda\\xc6\\x9fiH@\\x9b\\xf6\\xde).H\\x03@\\x8aw\\xdb\\xe0\\x9fiH@\\xf3D\\xc6Y\\xc7G\\x03@T\\xa0`\\x10\\xa2iH@\\xf0\\x19\\xe4\\x89{G\\x03@\\xca\\x12B\\xac\\xa3iH@\\x95\\xcd\\xc1\\xd8\\xe7F\\x03@\\n\\x80\\x96S\\xa7iH@\\x18\\x9f\\xb8\\xd2!F\\x03@\\xb9\\xb6\\x01\\xe9\\xaciH@\\xe5X(\\xe3)E\\x03@>N\\xe2\\xbd\\xb4iH@\\x9c{Y$7D\\x03@\\xf8\\x82\\xbbX\\xbdiH@V\\x10\\x03]\\xfbB\\x03@4B\\x89\\xe0\\xc9iH@\\xbb\\xd69a\\x1dB\\x03@\\xc9>#l\\xd3iH@kF\\x06\\xb9\\x8b@\\x03@\\r\\x04\\\\\\xeb\\xe6iH@k\\xady\\x9f\\xf4?\\x03@\\xf7\\xc2\\t\\xf1\\xediH@\\x17\\xa0\\xc8\\xee]>\\x03@;\\xa2\\xe7\\xbb\\x00jH@] \\x9c\\xaa\\xd6=\\x03@h\\xe0\\x91\\xc2\\x06jH@\\xb9wh\\xb3E=\\x03@\\xf3T\\x87\\xdc\\x0cjH@\\x18\\xf5\\xff`\\x96<\\x03@U0*\\xa9\\x13jH@[\\xdef;\\xf0;\\x03@\\xb1\\xc4^\\x83\\x19jH@T\\xf15\\xba9;\\x03@a\\xcd\\xb7\\xf4\\x1ejH@?\\xdeP\\x9d\\xb3:\\x03@N<\\xb1\\x98\"jH@(\\xb8XQ\\x839\\x03@,\\x05\\xee\\x8a*jH@\\'I|\\x93K8\\x03@(]\\x9f\\xde1jH@aR||B6\\x03@J\\xf6\\xbe\\xa7(jH@L\\x96I\\xc3\\xdf5\\x03@\\x9f\\x9e-\\xd6&jH@\\x9f\\x96zq=5\\x03@\\xf9\\t\\x0c\\xfe#jH@\\xc9F\\xd6\\xd0\\xbc2\\x03@/.\\xfa\\xaf\\x18jH@\\xf0\\x13\\xac\\x16}*\\x03@\\xb9\\xac\\x1d \\xf3iH@`\\xd8P \\xa2\\'\\x03@\\xbd\\x82~\\xf0\\xebiH@P\\x0e\\xb0\\xa0z%\\x03@\\xbfC\\xf6\\xe6\\xdciH@\\x7f\\xa2\\xb2aM%\\x03@$\\xe1\\x8c\\xab\\xdbiH@%\\xa1>\\x13\\xab \\x03@\\xdc\\xb7\\xffm\\xbbiH@\\x81\\x91<|>\\x1f\\x03@\\xa59he\\xb1iH@\\xfb\\xb4\\xe5\\xb7C\\x1e\\x03@&\\x17\\x08\\xa7\\xaaiH@\\x9e\\x82W&W\\x1c\\x03@\"\\x07\\xdb>\\x9aiH@\\xf2;\\xf2\\xacI\\x1c\\x03@|\\x80\\xee\\xcb\\x99iH@\\xedD\\xee\\x8e1\\x1c\\x03@\\xb8\\x842C\\x99iH@\\x85L\\xe8\\xe4\\xfb\\x18\\x03@s]\\x9d\\x08\\x87iH@\\xb0\\xba\\x1f\\x01\\xed\\x18\\x03@\\xbb\\xc7\\xe3\\xb3\\x86iH@\\xb3i[\\x83\\xad\\x18\\x03@\\xfd\\xbc\\xa9H\\x85iH@\\x9fT\\xa0\\xbb\\xc9\\x14\\x03@D\\x15\\xfe\\x0coiH@\\x13\\xbb\\xb6\\xb7[\\x12\\x03@\\xb0\\xb4BGaiH@\\'\\xdc+\\xf3V\\r\\x03@~\\xa7n\\xd3DiH@0\\xdf\\xb0#\\xc4\\x0b\\x03@B\\x83\\x03\\x10-iH@L\\x8b\\xfa$w\\x08\\x03@\\n\\xd6\\xdd\\xe1\\x1biH@\\xb1^Vr_\\x08\\x03@\\x93\\xd3\\x8df\\x1biH@<\\x1d~\\xedO\\x08\\x03@\\xc3\\xfb\\x05\\x16\\x1biH@?\\xa7\\xc5\\x85\\xa8\\x07\\x03@\\x89\\xef\\xc4\\xac\\x17iH@1\\x05\\x10\\xe3\\xda\\x05\\x03@\\xf3 =E\\x0eiH@2\\xeb \\n\\xc1\\x05\\x03@\\xb2\\xa7x\\xb7\\riH@\\xa1\\xf81\\xe6\\xae\\x05\\x03@\\x82\\x99\\xa5S\\riH@\\xc3\\xd3+e\\x19\\x02\\x03@\\xf1\\xac\\xee\\xa2\\xf9hH@\\xbc\\x16>l3\\xff\\x02@\\xac\\xa7\\xfb\\xa5\\xeahH@\\xe9]afD\\xfe\\x02@IPW\\xd2\\xe5hH@\\xa2\\xca\\xd54\\x94\\xef\\x02@j\\xcdE2\\x9ahH@\\x8f\\xc2\\x9ao\\xe9\\xed\\x02@WS\\xa3\\xa1\\x90hH@(\\x98\\xd6K\\xf8\\xea\\x02@(\\xa4\\xebx\\x82hH@\\xf1\\xd4\\xc8S\\xfb\\xe9\\x02@+,]f}hH@\\xf6\\xe3@YB\\xe8\\x02@_\\x8c\\x92\\xa1thH@\\xbd@\\xa4:x\\xe1\\x02@\\x1e-s_shH@t\\xbb\\xf2\\xb4W\\xda\\x02@\\xd2\\x95c\\rrhH@\\x1d\\xa5\\\\+\\xeb\\xd8\\x02@\\x90x\\xc3\\xc7qhH@\\xc6+\\xb5\\x83\\xb6\\xd1\\x02@k\\x95\\x05\\xb8\\xc5hH@\\xe5\\xb1\\x0b\\xab\\x1d\\xca\\x02@`\\x9e\\x84\\x88\\x8ahH@X\\xcb\\xf8R\\xd3\\xc9\\x02@\\xa2\\x7f\\xddD\\x88hH@C\\xbd*a\\xb7\\xc9\\x02@\\xa3kpl\\x87hH@\\x01\\x90\\xc9\\x98q\\xc9\\x02@\\xbc\\xfb-K\\x85hH@\\xfa\\xaa\\xa65\\x17\\xc9\\x02@\\xc9\\x9b\\xb2\\x89\\x82hH@E\"~\\x0f\\xa8\\xc8\\x02@\\xa1\\xccP&\\x7fhH@\\r\\xd8\\x1frD\\xc8\\x02@\\xaf\\x10\\xb1\\x1c|hH@\\xd1\\xebO\\xe2s\\xc7\\x02@\\x05\\xf9\\xd9\\xc8uhH@#}\\xff\\x8b\\x0c\\xc7\\x02@%L\\x07\\xa1rhH@\\xe9~NA~\\xc6\\x02@\\x0fx\\x05GnhH@Kvl\\x04\\xe2\\xc5\\x02@\\x80\\xff\\x9c8ohH@\\x8b\\xb0\\x97\\\\{\\xc5\\x02@\\x8b\\xef\\xd5\\xd8ohH@\\r}\\xc1\\xb8e\\xc1\\x02@5\\x07\\xad,vhH@\\xaf\\xa3`|\\x87\\xc1\\x02@\\x9d\\xf5)\\xc7dhH@\\xf9d\\xc5pu\\xc0\\x02@R\\x17\\xdf\\x06khH@\\xdf=\\xf6i\\xcb\\xbf\\x02@-\\xed\\xd4\\\\nhH@\\xd8\\x11\\xe2%\\x93\\xbe\\x02@}/t\\xdbthH@X\\xedP\\x03\\xbc\\xbb\\x02@\\xd7\\xe5J\\xf3}hH@\\x7f=\\x15&B\\xb9\\x02@\\x1e^\\xc6\\x03\\x80hH@\"b\\x94\\xb1\\xeb\\xb8\\x02@\\x1e\\xba\\xeaK\\x80hH@Zm\\xb4\\xd2Z\\xb7\\x02@\\xa6\\x83P9\\x81hH@B\\x8eR\\xae\\x95\\xb5\\x02@\\xdb\\xd8\\x91\\x8f\\x82hH@a\\xf6W4B\\xb4\\x02@\\xfe\\xc2\\xe1\\xbb\\x83hH@\\x8e#\\xd6\\xe2S\\xb0\\x02@\\xcd`\\xe7\\x01\\x87hH@\\\\\\x00\\x1a\\xa5K\\xaf\\x02@\\xcc\\xd0x\"\\x88hH@\\x8al1\\x89\\xc4\\xae\\x02@\\xd2\\xbb\\xc2\\xcc\\x88hH@y\\xa4\\x0b\\xfb\\x87\\xae\\x02@\\xc0\\xda\\x07\\x0f\\x89hH@\\xe8wP?^\\xae\\x02@+IC2\\x89hH@w\\xcb\\xc4c\\xf5\\xad\\x02@\\xfb \\xcb\\x82\\x89hH@\\xdfM\\\\3\\x9e\\xad\\x02@\\xfb|\\xef\\xca\\x89hH@\\x94Z\\xde\\x0b\\x82\\xad\\x02@\\xdd52\\xd9\\x89hH@\\xdby\\xd1\\r\\x03\\xac\\x02@\\x18\\x90b%\\x8bhH@\\xc7\\xfaa\\xdf\\xa9\\xab\\x02@\\x95i\\x8fr\\x8bhH@\\xcd&\\x1bjo\\xab\\x02@\\xd6\\x86/\\xb8\\x8bhH@x\\xaa\\x8d\\xfb\\xa0\\xa8\\x02@\\x98\\xe0\\xd4\\x07\\x92hH@9\\xf7\\xb2Hn\\xa8\\x02@\\x97<\\xf9O\\x92hH@\\xca\\x1b`\\xe6;\\xa8\\x02@\\xa3\\xfe\\x1f\\xcc\\x92hH@\\x14\\xcd\\x03X\\xe4\\xa7\\x02@\\xde\\xa0\\x07\\x88\\x93hH@+\\xa4\\xfc\\xa4\\xda\\xa7\\x02@U\\x19!\\x97\\x93hH@H\\x1bG\\xac\\xc5\\xa7\\x02@\\x97\\x08\\xaf\\xb8\\x93hH@\\x83\\xd5\\xfd\\x08h\\xa7\\x02@g<[Q\\x94hH@\\xa2\\xb6\\r\\xa3 \\xa8\\x02@\\xcd-c\\xf9\\xa9hH@\\x04\\xe0D\\x99\\xb2\\xa8\\x02@\\xdc-\\xc9\\x01\\xbbhH@\\xc4\\xb5\\xda\\xc3^\\xa8\\x02@\\xe7\\x03]V\\xbchH@\\xd0\\x15[\\xf7E\\xa8\\x02@\\xab\\xd1\\x06\\xbb\\xbchH@\\x08.\\xa0a{\\xa7\\x02@]p\\x06\\x7f\\xbfhH@9Q\\x01\\xe6\\x10\\xa7\\x02@8\\xf0\\x0f\\x00\\xc1hH@\\xb2y\\xc1L\\x80\\xa6\\x02@=y\\xfd\\xee\\xc2hH@\\xed](\\x05\\x82\\xa5\\x02@A\\xfc\\xb2j\\xc6hH@@\\xf7\\xe5\\xccv\\xa5\\x02@k\\xa9r\\x90\\xc6hH@\\xb6`Num\\xa4\\x02@W\\xeaY\\x10\\xcahH@q\\r\"\\x08F\\xa4\\x02@\\x03\\xa4G\\x9d\\xcahH@\\x97\\xbe!\\x9e6\\xa4\\x02@c\\x08\\xa5\\xd4\\xcahH@\\x1dl\\xfbh\\x82\\xa2\\x02@$48\\x00\\xd1hH@\\xdf\\x15\\xc1\\xffV\\xa2\\x02@\\xfal\\xd3\\x8e\\xd1hH@\\xa2);\\xfd\\xa0\\x9e\\x02@)\\x08\\x1e\\xdf\\xdehH@b\\xf2\\xab\\xde\\x86\\x9d\\x02@\\x0f\\xceL\\xd5\\xe2hH@\\xc7\\xc5\\x07,o\\x9d\\x02@2\\xa4/)\\xe3hH@\\xceKj\\rJ\\x9d\\x02@\\x1a\\xec\\x97\\x99\\xe3hH@\\xa0\\x95jU\\x01\\x9d\\x02@\\xa9\\xe8\\xfe\\xa0\\xe4hH@\\xd7\\xc7\\x9e\\x98P\\x9c\\x02@\\xef\\xea\\xb0\\x1d\\xe7hH@\\'\\xc7\\xf8\\x8b4\\x9c\\x02@\\xb3\\xb8Z\\x82\\xe7hH@\\x82\\x92]\\xc4\\xd2\\x9b\\x02@w\\xc8\\x83\\xe3\\xe8hH@n0\\xd4a\\x85\\x9b\\x02@\\x11\\xfd\\xda\\xfa\\xe9hH@\\xf9=\\xa0\"=\\x9b\\x02@\\x88\\xb7s\\x06\\xebhH@\\xea)\\xcdA+\\x9b\\x02@v\\xd6\\xb8H\\xebhH@\\x0b\\x90\\rI\\xd2\\x9a\\x02@]2\\x8e\\x91\\xechH@\\xb7\\x1c\\xf9\\xcd\\x0e\\x92\\x02@\\xee\\r\\x19\\xea\\x0biH@g-`]p\\x91\\x02@\\xa5\\xf9\\xbe\\x13\\x0eiH@\\x9a\\xe7-\\xc3$\\x91\\x02@\\x87\\xf4\\x80\\x1e\\x0fiH@\\x0f\\xad_\\xfa\\xa8\\x90\\x02@\\x1b\\xdc1\\xd0\\x10iH@P\\xb8h\\x12\\x06\\x8f\\x02@\\xfa\\xf2]\\xa5\\x16iH@\\xb0(\\xdbv\\x90\\x8d\\x02@\\xfe\\x9d\\xed\\xd1\\x1biH@c\\\\\\x16\\xb8\\xe1\\x8c\\x02@\\xa3\\xa8\\xd8=\\x1eiH@\\x08o\\xb4\\x88\\xcd\\x8c\\x02@\\x0eE&\\x85\\x1eiH@\\xf1]\\xef\\xa3\\xbf\\x8c\\x02@[l\\xa4\\xb6\\x1eiH@Q\\x91\\xf96\\xb3\\x8c\\x02@,\\x16\\x1a\\xe3\\x1eiH@\\x17Y|T\\r\\x8c\\x02@Np\\xfb/!iH@U\\x01R\\xf6\\xf1\\x8b\\x02@*\\x80s\\x90!iH@c%\\xe6YI\\x8b\\x02@\\xb2\\x15\\x8f\\xe6#iH@6\\xd9\\xf5\\xc1\\xe8\\x88\\x02@f\\xe9TC,iH@\\xdf\\x02dC\\x92\\x84\\x02@\\x88Z\\xe4\\xe8;iH@\\x03\\xa9^\\xc84\\x84\\x02@\\x8d\\xcfd\\xff<iH@H\\x80\\xe4\\xe7\\xd0\\x83\\x02@\\xc2$\\xa6U>iH@D\\xc1\\x8c)X\\x83\\x02@\\'Z\\xa8\\xeb?iH@\\xdf\\xe0\\x0b\\x93\\xa9\\x82\\x02@1r\\xbb<BiH@\\xe1\\xf6\\xba\\xfb\\xd2\\x81\\x02@\\x9b\\xd4\\x86yEiH@\\xc5E\\xa4\\\\\\xd0\\x81\\x02@w,\\xb6IEiH@\\x1d\\x8c}n\\r\\x81\\x02@\\xacM\\xad\\x08HiH@\\r\\x8d\\'\\x828\\x7f\\x02@\\xc0\\x01\\xd2\\xa3NiH@\\xa1S\\xebX\\x00~\\x02@\\xf9O\\x92\\tSiH@ky\\x8a\\xc1h{\\x02@\\xa1\\xff\\xd4.\\\\iH@l\\xfbh\\x82\\xf2x\\x02@\\x97\\xf0:\\xd1diH@u\\xacRz\\xa6w\\x02@\\x8f\\xab\\x91]iiH@\\x8b\\xd2\\xef\\x0cdw\\x02@\\x82\\xb5 JjiH@\\xfc*\\n\\x05\\xb6t\\x02@B1h\\xd7siH@\\x04\\xb4c\\xd9\\x82t\\x02@k\\x96p\\x8dtiH@\\xc6=L\\xb1Yt\\x02@)\\x8d= uiH@g7\\xe9l\\xb7s\\x02@\\xf3\\xb5\\xc2OwiH@\\xa2\\x0e\\x86\\x95es\\x02@\\xec ezxiH@\\x02\\x84\\x0f%Zr\\x02@\\xea\\xfaOH|iH@\\x06\\x07\\xc5\\xa0]o\\x02@&\\x92C\\x1f\\x87iH@\\xf7\\xb0\\x17\\n\\xd8n\\x02@\\x8a#j\\xfd\\x88iH@\\x8e\\xcf\\xbf\\xb8\\xafn\\x02@\\xb4Z`\\x8f\\x89iH@\\x1d\\xee~p\\x99n\\x02@\\x842\\xe8\\xdf\\x89iH@\\x945E\\xdb\\x8cn\\x02@~[\\x0b\\x0e\\x8aiH@\\x88\\x99\"e0k\\x02@}0:j\\x96iH@+\\x84\\xd5X\\xc2j\\x02@\\x894\\xe0\\xe2\\x97iH@\\xec\\xb3\\x14\\xda\\x83j\\x02@\\xca\\t\\xc9\\xb8\\x98iH@}/t\\xdbtj\\x02@A\\xb0\\xf4\\xeb\\x98iH@6\\xee()\\x0bj\\x02@\\xd5;\\x81U\\x9aiH@^\\x98\\xf1[\\x19i\\x02@\\x80\\x8d\\xda\\xb3\\x9diH@_i\\xcf\\x1b\\xddg\\x02@\\x12\\xb1\\xd2\\xee\\xa1iH@\\xc0\\x97\\xc2\\x83fg\\x02@w\\xe6\\xd4\\x84\\xa3iH@&\\xa0\\xd3=\\xfcf\\x02@\\xc9\\xb0\\xe5\\xf0\\xa4iH@\\xd8\\x0b\\xaa\\xb2\\x94a\\x02@xt\\xc8r\\xb7iH@\\xbc\\xf1\\xa4;>`\\x02@)\\xc5\\xd8S\\xbciH@;^7[/\\\\\\x02@t\\xa1\\xa8\"\\xcbiH@\\r\\x1fl\\x0c\\x95Z\\x02@\\xa7\\xb6/\\xfb\\xd0iH@\\xf9@<\\\\\\xbcY\\x02@\\x1c\\xf5\\xc6\\xff\\xd3iH@\\x8b\\xe2\\xb0\\x8f\\xa9V\\x02@p\\xfc\\x9a\\xf6\\xdeiH@\\xbd\\xb6m\\xcewV\\x02@\\x1c\\xe4\\x9a\\xa7\\xdfiH@!0 \\xc5JV\\x02@iM\\x98\\xd5\\xe0iH@\\xd6\\x1f\\xbc\\xd1\"V\\x02@\\xe0\\x071\\xe1\\xe1iH@f^XH\\nV\\x02@\\xd4\\xb5\\x9b\\x85\\xe2iH@m\\xe4\\xba)\\xe5U\\x02@\\x80\\xf9\\xbf~\\xe3iH@\\x95\\\\j)\\xc5S\\x02@x\\x1f\\xec\\xb9\\xf1iH@\\xd2\\xea\\x9a\\x7f\\xaaP\\x02@b\\x7f~\\x84\\x06jH@\\xec\\x89\\t\\xc5\\xb1I\\x02@m\\xfd\\xf4\\x9f5jH@\\xff%\\x04\\x06\\xa4H\\x02@\\xc9/\\xcd\\xbe<jH@\\x93Cz@\\x8fG\\x02@fQ3\\xffCjH@y^\\x85\\xefXG\\x02@\\xb9\\x1bDkEjH@ys]\\x9d\\x08G\\x02@\\xf9\\x8e\\xd0\\x85GjH@\\xa02\\xa3\\xc4SD\\x02@\\xde\\x7f\\x1a\\xadYjH@\\xf7\\xc7 \\x1cXC\\x02@\\xdb\\xdd\\x03t_jH@\\x89\\xdd-\\x7ft@\\x02@sePmpjH@\\xed\\x8b:)\\x82>\\x02@\\x7f0\\xf0\\xdc{jH@\\x8dP\"x2>\\x02@\\x13F\\xb3\\xb2}jH@1\\xcfJZ\\xf1=\\x02@\\xc5F\\x0f2\\x7fjH@\\xcc\\xd4\\x7f1\\xb6;\\x02@\\xb8\\xf7\\xbaV\\x8cjH@\\xee\\x91r\\x9c\\x80;\\x02@RZ$\\x92\\x8djH@\\xcc\\x85%y\\t9\\x02@\\xf2d\\x92\\xecljH@\\xdf\\xc5\\xfbq\\xfb5\\x02@\\xb3\\xd4\\xd5xDjH@)M\\x94\\xce\\xd14\\x02@\\xf7.\\xef\\xbb3jH@\\xc1\\xe0\\x9a;\\xfa/\\x02@>Mw\\xe8\\x05jH@\\xc4 U\\xb9\\xf5/\\x02@\\xeb \\n\\xc1\\x05jH@DS\\xd1\\xb3\\xb4.\\x02@\\xa9V\\x15\\xd0\\xfaiH@\\xb4c\\xd9\\x82\\x94.\\x02@\\xe5\\xa2\\x10\\xb7\\xf9iH@W\\xb0\\x8dx\\xb2+\\x02@o\\x16\\x8a\\xcf\\xf8iH@N4\\xfe39+\\x02@\\x81%W\\xb1\\xf8iH@\\xbdZI\\x86w$\\x02@\\x99?K\\xfc\\xf6iH@\\xa2\\xac)\\xdaf$\\x02@{\\xb0\\xd6\\x9a\\xf7iH@^\\x05B\\xfc\\r$\\x02@\\x92\\x14G\\xd4\\xfaiH@\\x98\\xd1\\xd9\\x13n#\\x02@O\\x19\\xa4\\x85pjH@\\xf8@\\xe1\\xa2I(\\x02@\\xd5U&\\xa1\\x99jH@\\x9e\\x9dgG\\x05)\\x02@\\xccfi\\x02\\xa0jH@\\xaa\\xdd\\n\\xbc\\xee(\\x02@\\x9cR^+\\xa1jH@\\xc54x\\x04\\xdc(\\x02@\\xf4\\x97\\'!\\xa2jH@\\x0b\\xf7%v\\xc8(\\x02@\\x89kk\\xfa\\xa2jH@\\xd9\\xdb\\x1c\\x9d\\xa9&\\x02@q5Wr\\xbajH@\\x14\\xa3\\x9d\\x89\\x9f%\\x02@Mv\"w\\xc7jH@\\x7f&\\x0c\\x14\\xc2$\\x02@\\x8e\\x82\\x96d\\xd3jH@Y\\x9a\\xa5\\xae\\xc6#\\x02@\\x93\\xaf_\\x0b\\xd5jH@\\x07)x\\n\\xb9\"\\x02@\\xd6 \\'\\xa7\\xd1jH@D\\xee3x\\xa9\"\\x02@\\xf49\\xd2t\\xd1jH@*&%\\xf3~\"\\x02@\\xee\\xd8\\xbe6\\xd1jH@\\xd8\\x87P\\x00 \"\\x02@f\\x99\\x8f\\xb5\\xd0jH@#\\xdd*\\xe3:!\\x02@x8\\xcbv\\xcfjH@`e#\\xc6!!\\x02@\\r\\xca\\x8fS\\xcfjH@b\\x83\\x85\\x934\\x1f\\x02@W\\xbcG\\xec\\xc9jH@\\xfd3\\x83\\xf8\\xc0\\x1e\\x02@\\xed\\xddz\\xa8\\xc8jH@\\xf4\\x855:\\x8c\\x1e\\x02@\\x9a\\'\\xd7\\x14\\xc8jH@i\\x95\\xf4\\x8bm\\x1d\\x02@\\x0c\\xd5\\x838\\xc5jH@\\xd1?\\xc1\\xc5\\x8a\\x1a\\x02@\\xcf\\xd5\\xfb2\\xbdjH@\\xd3wm%*\\x1a\\x02@\\xda\\xc54\\xd3\\xbdjH@\\xf8\\x0b,6\\x9c\\x18\\x02@bA\\xab\\xdd\\xc0jH@m#\\xf9\\xa5\\xd9\\x17\\x02@\\xc0C\\xacY\\xc2jH@n\\xb2Wi\\x9c\\x17\\x02@\\xae\\x90\\x03\\xc0\\xc2jH@%\\x19\\x83\\x98\\x95\\x17\\x02@=K\\xeb\\xca\\xc2jH@\\xde\\xd77\\xe6+\\x17\\x02@Us\\x14{\\xc3jH@\\x11\\xb2\\xe2\\n\\xde\\x16\\x02@rr\\x1a\\xfd\\xc3jH@\\xb6\\x85\\xe7\\xa5b\\x13\\x02@\\x15\\xb3\\x14\\x7f\\xcajH@\\xd6\\xa4\\x80YF\\x0f\\x02@q\\x9d5.\\xd2jH@\\x107L\\xd9\\x8e\\x0e\\x02@@\\xb7<{\\xd3jH@\\x93\\x84\\xe9 T\\x0e\\x02@\\x17\\xc2\\xc5\\xe5\\xd3jH@\\x82b\\x1a<\\x02\\x0e\\x02@\\x93\\xf7\\x16{\\xd4jH@}\\x1f\\x0e\\x12\\xa2\\x0c\\x02@\\xa4p=\\n\\xd7jH@\\xec\\x17\\xec\\x86m\\x0b\\x02@\\x91\\x13\\x81E\\xd9jH@s\\x17\\xbcC\\xe5\\n\\x02@\\x90U\\x00B\\xdajH@@\\xa7{\\xf8\\x8d\\n\\x02@\\xc6\\xc4\\xe6\\xe3\\xdajH@]\\xe4\\xf9ga\\n\\x02@\\xc4\\xe6\\x88!\\xdejH@\\xc4f6~\\x97\\x08\\x02@\\x95\\x07\\x8ep\\xffjH@\\x1d4`5;\\x07\\x02@\\xfe\\xa3%E\\x1akH@\\xaf[\\x04\\xc6\\xfa\\x06\\x02@\\xeb\\x9cUU\\x1ekH@\\x02aL\\x9f\\xc2\\x06\\x02@\\x8a\\xe4\\xd0\\xc7!kH@\\xba\\x8b\\x8b\\xfe+\\x06\\x02@\\xa2\\x8b<\\xff,kH@\\x01\\xe5J\\x98\\xc4\\x04\\x02@\\xffy\\x1a0HkH@_\\x84\\xdf<\\x8b\\x04\\x02@\\xce\\xe9\\rRKkH@\\x06C\\xc2\\x9cE\\x04\\x02@\\xdd\\x9e{jPkH@\\x8bD\\xb2\\x915\\x04\\x02@\\x00\\x89\\xcb\\x96QkH@R\\x98\\x9c\\x7f`\\x03\\x02@]\\xb6\\xe7CakH@\\x15\\x9c\\x0bmJ\\x03\\x02@\\x15\\xc5\\xab\\xacmkH@8\\xd0\\x8d\\xfa5\\x03\\x02@\\xeb\\x90\\xf6\\x9aykH@*\\xdc\\x97\\xd8!\\x03\\x02@\\xf1\\xb2\\xcb\\\\\\x85kH@u[}\\xd0\\x0e\\x03\\x02@\\x80\\\\\\x87\\x0f\\x91kH@\\xd4\\x17\\xf8@\\xe1\\x02\\x02@C\\xba\\xe9\\xe0\\xaakH@\\xa1\\xfeiY\\xad\\x02\\x02@/\\xb9\\x9b\\xf1\\xc7kH@\\xb5u\\xcbi\\xaa\\x02\\x02@\\xe0\\xe7\\t\\x95\\xc9kH@\\xf7\\xf4\\xc7j\\xa9\\x02\\x02@iUK:\\xcakH@\\x8d-_\\xf2\\x9a\\x02\\x02@\\xe1\\xdc\\x15\\xb0\\xd3kH@\\x95\\rk*\\x8b\\x02\\x02@\\xfa\\xff\\x82\\xee\\xdckH@Y.\\xc0\\xe3\\x80\\x02\\x02@\\xaa\\xc0$\\xf0\\xe2kH@\\x99\\xbc\\\\\\x1f1\\x05\\x02@\\xca\\xbf;\\x9e;lH@\\t\\\\\\r?\\xee\\x01\\x02@\\x05\\xbeG\\xa2<lH@pl,\\x17\\xe0\\x01\\x02@\\xb1\\xbf\\xec\\x9e<lH@\\xab\\xd4G;\\xc9\\x01\\x02@\\x05\\xbeG\\xa2<lH@\\xe6<c_\\xb2\\x01\\x02@F\\xdb\\xe7\\xe7<lH@\\xb6)\\xc3]b\\x01\\x02@\\x81O\\xbd\\x7f=lH@\\xc7\\xb2\\x05)\\x1d\\x01\\x02@\\x87\\x96+r>lH@{\\x9f\\xaaB\\x03\\x01\\x02@\\xfe\\x98{\\xed>lH@\\x12\\x9eu2\\xdd\\x00\\x02@QO\\x1f\\x81?lH@\\xbfA <\\x7f\\xff\\x01@\\x1eq#\\xc0DlH@\\xcaw\\xdf\\xe7\\xae\\xfb\\x01@Fq\\xd8\\xc7TlH@\\x0e\\xd3c\\x00M\\xf9\\x01@\\xc4\\x87\\xc8\\x9f^lH@\\xf66Gg\\xaa\\xf1\\x01@\\xfb_\\t\\xff}lH@\\x80\\xfa*T\\x92\\xf0\\x01@\\x17g\\x0cs\\x82lH@\\'\\xf6\\xd0>V\\xf0\\x01@?\\x08\\\\\\xb2\\x85lH@\\x03\\xcc!N\\xcc\\xef\\x01@\\x0b\\n\\x832\\x8dlH@\\xf2\\xf6\\xd6v\\xc9\\xee\\x01@\\x93\\xbc\\x84T\\x9blH@\\xe9eo\\x84\\xa0\\xee\\x01@n\"\\xe9\\x89\\x9dlH@p\\xa4\"\\x04\\x9a\\xee\\x01@\\xa35\\xab\\xe3\\x9dlH@D\\x85\\x8f-p\\xee\\x01@\\xcc\\x94{&\\xa0lH@\\xe6J\\xf3}\\'\\xec\\x01@\\x92U\\xb6\\xb4\\xbflH@\\xa2\\x86%\\xd4\\xc2\\xeb\\x01@r*c\\x8d\\xc4lH@\\x05L\\x85\\x1dk\\xeb\\x01@\\xa61\\xb5\\x00\\xc8lH@~\\x91+P\\xe6\\xea\\x01@\\x0f\\xa8\\xed\\x15\\xcclH@h\\xef\\xe7o\\x9d\\xea\\x01@%n\\xba\\n\\xcelH@k\\r\\xa5\\xf6\"\\xea\\x01@\\xe3\\x8caN\\xd0lH@\\x94\\xf9G\\xdf\\xa4\\xe9\\x01@/\\xae\\xa7\\x0c\\xd2lH@N\\xdbu%\\xb8\\xe7\\x01@>\\x8b\\xef\\xd5\\xd8lH@\\xc3\\xefK\\xa2\\x03\\xe7\\x01@~Z\\xa08\\xdblH@l\\xc5H@\\x96\\xcf\\x01@\\xd7(5\\xc5-mH@\\x07d\\n1\\xf2\\xcd\\x01@iF\\xf5\\x8c3mH@#R.\\xe8\\x18\\xcb\\x01@4\\x84c\\x96=mH@\\xf5ip\\xb6\\x14\\xcb\\x01@Wn\\xb3\\xc2>mH@\\xc5\\x045|\\x0b\\xcb\\x01@\\xe4J=\\x0bBmH@\\x97\\x1cwJ\\x07\\xcb\\x01@\\xbf\\x0c\\xc6\\x88DmH@u\\xae(%\\x04\\xcb\\x01@4\\xd5\\x93\\xf9GmH@^\\xbaI\\x0c\\x02\\xcb\\x01@\\xbc\\x08S\\x94KmH@^\\xbaI\\x0c\\x02\\xcb\\x01@\\xa1\\x10\\x01\\x87PmH@M\\x83\\xa2y\\x00\\xcb\\x01@Q\\xa3\\x90dVmH@'", "clipped": false, "tags": { "name": "Paris", "type": "boundary", "capital": "yes", "name:af": "Parys", "name:am": "ፓሪስ", "name:an": "París", "name:ar": "باريس", "name:ba": "Париж", "name:be": "Парыж", "name:bg": "Париж", "name:bn": "প্যারিস", "name:bo": "ཕ་རི།", "name:br": "Pariz", "name:bs": "Pariz", "name:ca": "París", "name:co": "Parighji", "name:cs": "Paříž", "name:cu": "Парижь", "name:cv": "Парис", "name:de": "Paris", "name:el": "Παρίσι", "name:eo": "Parizo", "name:es": "París", "name:et": "Pariis", "name:eu": "Paris", "name:fa": "پاریس", "name:fi": "Pariisi", "name:fr": "Paris", "name:fy": "Parys", "name:ga": "Páras", "name:gl": "París", "name:gn": "Parĩ", "name:gu": "પૅરિસ", "name:gv": "Paarys", "name:ha": "Pariis", "name:he": "פריז", "name:hi": "पैरिस", "name:hr": "Pariz", "name:ht": "Pari", "name:hu": "Párizs", "name:hy": "Փարիզ", "name:is": "París", "name:it": "Parigi", "name:ja": "パリ", "name:ka": "პარიზი", "name:kk": "Париж", "name:km": "ប៉ារីស", "name:kn": "ಪ್ಯಾರಿಸ್", "name:ko": "파리", "name:ku": "Parîs", "name:kv": "Париж", "name:ky": "Париж", "name:la": "Lutetia", "name:lb": "Paräis", "name:li": "Paries", "name:ln": "Pari", "name:lt": "Paryžius", "name:lv": "Parīze", "name:mi": "Parī", "name:mk": "Париз", "name:ml": "പാരിസ്", "name:mn": "Парис", "name:mr": "पॅरिस", "name:my": "ပါရီမြို့", "name:ne": "पेरिस", "name:nl": "Parijs", "name:no": "Paris", "name:oc": "París", "name:or": "ପ୍ୟାରିସ", "name:os": "Париж", "name:pa": "ਪੈਰਿਸ", "name:pl": "Paryż", "name:ps": "پاريس", "name:ru": "Париж", "name:sc": "Parigi", "name:sh": "Pariz", "name:sk": "Paríž", "name:sl": "Pariz", "name:so": "Baariis", "name:sq": "Parisi", "name:sr": "Париз", "name:sv": "Paris", "name:ta": "பாரிஸ்", "name:te": "పారిస్", "name:tg": "Париж", "name:th": "ปารีส", "name:tk": "Pariž", "name:tl": "Paris", "name:tt": "Париж", "name:ug": "پارىژ", "name:uk": "Париж", "name:ur": "پیرس", "name:uz": "Parij", "name:vi": "Paris", "name:wa": "Paris", "name:wo": "Pari", "name:yi": "פאריז", "name:yo": "Parisi", "name:za": "Bahliz", "name:zh": "巴黎", "name:zu": "IParisi", "boundary": "administrative", "name:arc": "ܦܐܪܝܣ", "name:arz": "باريس", "name:ast": "París", "name:cdo": "Bă-là̤", "name:ckb": "پاریس", "name:csb": "Pariz", "name:eml": "Parì", "name:ext": "París", "name:fur": "Parîs", "name:gan": "巴黎", "name:hak": "Pâ-lì-sṳ", "name:haw": "Palika", "name:jbo": "paris", "name:koi": "Париж", "name:krc": "Париж", "name:lez": "Париж", "name:lij": "Pariggi", "name:lzh": "巴黎", "name:mhr": "Париж", "name:mrj": "Париж", "name:myv": "Париж ош", "name:mzn": "پاریس", "name:nan": "Pa-lí", "name:nap": "Parigge", "name:nds": "Paris", "name:pcd": "Paris", "name:pnb": "پیرس", "name:rue": "Паріж", "name:sah": "Париж", "name:scn": "Pariggi", "name:szl": "Paryż", "name:tet": "París", "name:tzl": "Parighi", "name:udm": "Париж", "name:vec": "Parixe", "name:vep": "Pariž", "name:vls": "Parys", "name:vro": "Pariis", "name:xmf": "პარიზი", "name:yue": "巴黎", "wikidata": "Q90", "ref:INSEE": "75056", "wikipedia": "fr:Paris", "population": "2133111", "ref:FR:MGP": "T1", "admin_level": "8", "alt_name:vi": "Ba Lê", "loc_name:fr": "Paname", "name:nds-nl": "Paries", "old_name:fr": "Lutèce", "postal_code": "75000;75001;75002;75003;75004;75005;75006;75007;75008;75009;75010;75011;75012;75013;75014;75015;75016;75017;75018;75019;75020;75116", "name:bat-smg": "Parīžios", "name:roa-rup": "Parij", "ref:FR:SIREN": "217500016", "name:roa-tara": "Parigge", "name:be-tarask": "Парыж", "population:date": "2021", "source:population": "INSEE 2024", "name:zh-Latn-pinyin": "Bālí" }, "admin_level": "8" }, "geometry": { "type": "MultiPolygon", "coordinates": [ [ [ [ 2.224122, 48.854199 ], [ 2.224158, 48.854615 ], [ 2.224257, 48.855241 ], [ 2.224317, 48.85555 ], [ 2.224371, 48.85581 ], [ 2.224466, 48.856232 ], [ 2.224579, 48.856632 ], [ 2.224789, 48.857329 ], [ 2.224877, 48.857605 ], [ 2.225001, 48.85798 ], [ 2.225056, 48.858124 ], [ 2.225116, 48.858268 ], [ 2.22523, 48.858519 ], [ 2.225286, 48.858627 ], [ 2.22543, 48.858914 ], [ 2.2257078, 48.8594357 ], [ 2.2264045, 48.8609577 ], [ 2.226905, 48.8617931 ], [ 2.2272919, 48.8625733 ], [ 2.2279465, 48.8643329 ], [ 2.2282436, 48.8651445 ], [ 2.2284251, 48.8654293 ], [ 2.2286521, 48.8657664 ], [ 2.2294749, 48.8667271 ], [ 2.2295817, 48.8668473 ], [ 2.2303701, 48.8677341 ], [ 2.2312283, 48.8686235 ], [ 2.2320761, 48.8695071 ], [ 2.2328437, 48.8697546 ], [ 2.2340187, 48.8700812 ], [ 2.2373729, 48.8710133 ], [ 2.2396721, 48.8715756 ], [ 2.2401155, 48.8717175 ], [ 2.2404626, 48.8718878 ], [ 2.2410477, 48.8722768 ], [ 2.2433602, 48.8741266 ], [ 2.2456228, 48.8763642 ], [ 2.2460058, 48.8762821 ], [ 2.2476142, 48.8758711 ], [ 2.2495862, 48.8753761 ], [ 2.2548149, 48.8740806 ], [ 2.2550572, 48.8741525 ], [ 2.2554112, 48.8742636 ], [ 2.2584073, 48.8800973 ], [ 2.2584626, 48.8801181 ], [ 2.2584893, 48.8801283 ], [ 2.2588832, 48.8802792 ], [ 2.2588875, 48.8802807 ], [ 2.2602672, 48.8801053 ], [ 2.2646217, 48.8795663 ], [ 2.2774903, 48.8779625 ], [ 2.2780343, 48.8781258 ], [ 2.2786074, 48.8782982 ], [ 2.2786175, 48.8783012 ], [ 2.2798011, 48.8786534 ], [ 2.2799643, 48.8787025 ], [ 2.2808975, 48.8827946 ], [ 2.2809934, 48.8829464 ], [ 2.2811176, 48.883047 ], [ 2.2818271, 48.8835988 ], [ 2.2818613, 48.8836254 ], [ 2.2821522, 48.8838487 ], [ 2.2844692, 48.8856279 ], [ 2.2854584, 48.8864317 ], [ 2.2856609, 48.8865707 ], [ 2.2860664, 48.8867705 ], [ 2.2871097, 48.8872829 ], [ 2.2877584, 48.8876 ], [ 2.2896453, 48.8885254 ], [ 2.291175, 48.8892751 ], [ 2.2911516, 48.8892969 ], [ 2.2915043, 48.8894592 ], [ 2.2916837, 48.8894788 ], [ 2.2927238, 48.8895995 ], [ 2.292944, 48.8896198 ], [ 2.2935121, 48.8896858 ], [ 2.2937036, 48.8897081 ], [ 2.2940331, 48.889748 ], [ 2.2940396, 48.8897487 ], [ 2.294239, 48.8897734 ], [ 2.2942516, 48.889775 ], [ 2.2943705, 48.8897883 ], [ 2.295047, 48.8898693 ], [ 2.29556, 48.8901352 ], [ 2.2956134, 48.8901629 ], [ 2.2956666, 48.8901903 ], [ 2.2964597, 48.8905999 ], [ 2.2973247, 48.8910559 ], [ 2.2974274, 48.8911092 ], [ 2.2974716, 48.8911326 ], [ 2.2978671, 48.8913425 ], [ 2.2980112, 48.8914188 ], [ 2.2980293, 48.8914282 ], [ 2.2980951, 48.8914625 ], [ 2.2981869, 48.8915108 ], [ 2.2982029, 48.8915192 ], [ 2.2985613, 48.8917077 ], [ 2.2986328, 48.891742 ], [ 2.2989986, 48.8919132 ], [ 2.29906, 48.891942 ], [ 2.2993263, 48.8920679 ], [ 2.2994757, 48.8921386 ], [ 2.2996847, 48.8922374 ], [ 2.2998265, 48.8923037 ], [ 2.3000303, 48.892399 ], [ 2.3003454, 48.8925463 ], [ 2.3004252, 48.8925831 ], [ 2.300466, 48.8926015 ], [ 2.3006258, 48.8926735 ], [ 2.3015593, 48.8931164 ], [ 2.3032773, 48.8939169 ], [ 2.303395, 48.8939748 ], [ 2.3037934, 48.8941707 ], [ 2.3060163, 48.895227 ], [ 2.3071852, 48.895784 ], [ 2.3073107, 48.8958473 ], [ 2.3075545, 48.8959598 ], [ 2.3076874, 48.8960103 ], [ 2.3078197, 48.8960601 ], [ 2.3095441, 48.8967081 ], [ 2.3118553, 48.897577 ], [ 2.3123424, 48.8977601 ], [ 2.3130853, 48.8979786 ], [ 2.3134019, 48.8980717 ], [ 2.3152945, 48.8986503 ], [ 2.316169, 48.8989407 ], [ 2.3185323, 48.8996333 ], [ 2.3187182, 48.8997442 ], [ 2.319099, 48.8999762 ], [ 2.3198901, 48.9004581 ], [ 2.3202377, 48.9006804 ], [ 2.3203576, 48.9007571 ], [ 2.3213034, 48.9007949 ], [ 2.3222857, 48.9008264 ], [ 2.3240848, 48.9008857 ], [ 2.3258802, 48.9009525 ], [ 2.3277816, 48.9009898 ], [ 2.3301825, 48.9010281 ], [ 2.3311654, 48.901052 ], [ 2.3313375, 48.9010562 ], [ 2.3317196, 48.9010654 ], [ 2.334615, 48.9011358 ], [ 2.3346298, 48.9011361 ], [ 2.3346874, 48.9011373 ], [ 2.3347159, 48.9011379 ], [ 2.334835, 48.9011408 ], [ 2.3350075, 48.901145 ], [ 2.335107, 48.9011475 ], [ 2.3351638, 48.9011485 ], [ 2.3352678, 48.9011502 ], [ 2.3353793, 48.9011527 ], [ 2.3354309, 48.9011538 ], [ 2.3354926, 48.9011553 ], [ 2.3355071, 48.9011555 ], [ 2.3356163, 48.9011577 ], [ 2.3356539, 48.9011584 ], [ 2.3358319, 48.9011622 ], [ 2.3360336, 48.9011669 ], [ 2.3360628, 48.9011676 ], [ 2.3361725, 48.9011702 ], [ 2.336375, 48.9011752 ], [ 2.3365431, 48.9011783 ], [ 2.3365959, 48.9011795 ], [ 2.3367057, 48.9011817 ], [ 2.3367171, 48.9011819 ], [ 2.3367567, 48.901183 ], [ 2.3369673, 48.9011881 ], [ 2.3371369, 48.9011928 ], [ 2.3371435, 48.901193 ], [ 2.3372746, 48.9011971 ], [ 2.3373365, 48.9011983 ], [ 2.3374106, 48.9011998 ], [ 2.3378475, 48.9012083 ], [ 2.3386529, 48.901224 ], [ 2.3398966, 48.9012483 ], [ 2.3422315, 48.9012938 ], [ 2.3432779, 48.9013142 ], [ 2.3439867, 48.901328 ], [ 2.3441098, 48.9013304 ], [ 2.3442604, 48.9013336 ], [ 2.3449885, 48.9013489 ], [ 2.3480617, 48.9014138 ], [ 2.3518809, 48.9014902 ], [ 2.3519537, 48.9014922 ], [ 2.3520561, 48.9014901 ], [ 2.3530999, 48.901507 ], [ 2.3532526, 48.9015126 ], [ 2.3550659, 48.9015474 ], [ 2.3578445, 48.9016087 ], [ 2.3584323, 48.9016176 ], [ 2.3584812, 48.9016184 ], [ 2.3588508, 48.901624 ], [ 2.3594462, 48.9016362 ], [ 2.3615108, 48.9016786 ], [ 2.3617146, 48.9016827 ], [ 2.3619858, 48.9016883 ], [ 2.3656306, 48.9017644 ], [ 2.370105, 48.9018542 ], [ 2.3702923, 48.90186 ], [ 2.3715507, 48.9018858 ], [ 2.3759783, 48.9019808 ], [ 2.3790003, 48.9020474 ], [ 2.380076, 48.9020689 ], [ 2.3844292, 48.902156 ], [ 2.3849847, 48.9020514 ], [ 2.386186, 48.9018252 ], [ 2.38724, 48.9016275 ], [ 2.3892039, 48.901259 ], [ 2.3893896, 48.9012193 ], [ 2.3906903, 48.900981 ], [ 2.3912105, 48.9006945 ], [ 2.3912182, 48.9006901 ], [ 2.3912233, 48.9006873 ], [ 2.391278, 48.9006561 ], [ 2.39374, 48.8992669 ], [ 2.3955274, 48.8982617 ], [ 2.3957809, 48.8978504 ], [ 2.3960266, 48.8974517 ], [ 2.396441, 48.8967793 ], [ 2.3964598, 48.8967483 ], [ 2.3969294, 48.895982 ], [ 2.3969977, 48.8958673 ], [ 2.3970261, 48.8958206 ], [ 2.397073, 48.8957432 ], [ 2.397727, 48.8946512 ], [ 2.3977623, 48.8945923 ], [ 2.3980139, 48.8936755 ], [ 2.3980216, 48.8936459 ], [ 2.3980285, 48.8936194 ], [ 2.3980461, 48.8935581 ], [ 2.3980795, 48.8934363 ], [ 2.3981193, 48.8932835 ], [ 2.398286, 48.8926313 ], [ 2.3986237, 48.8913434 ], [ 2.3987974, 48.89024 ], [ 2.3989152, 48.8895628 ], [ 2.3991689, 48.8883292 ], [ 2.3991897, 48.8882343 ], [ 2.3991941, 48.8876735 ], [ 2.3991945, 48.8876351 ], [ 2.3992054, 48.886712 ], [ 2.3992069, 48.8865405 ], [ 2.399208, 48.8858693 ], [ 2.3992165, 48.8854211 ], [ 2.4000919, 48.8838165 ], [ 2.4014693, 48.8826113 ], [ 2.4037173, 48.8814851 ], [ 2.4046122, 48.8812198 ], [ 2.4071395, 48.8805138 ], [ 2.4083783, 48.8803825 ], [ 2.409293, 48.8802781 ], [ 2.4108392, 48.878426 ], [ 2.410856, 48.8784046 ], [ 2.4118563, 48.877152 ], [ 2.4125003, 48.8763788 ], [ 2.412525, 48.8762834 ], [ 2.4125297, 48.8762513 ], [ 2.4128442, 48.8752063 ], [ 2.4128549, 48.8751692 ], [ 2.4131542, 48.8741348 ], [ 2.4131861, 48.8740448 ], [ 2.4132183, 48.8739412 ], [ 2.4132894, 48.8736942 ], [ 2.4134012, 48.8733081 ], [ 2.4134473, 48.8731508 ], [ 2.4136317, 48.8724474 ], [ 2.4136461, 48.8724055 ], [ 2.4138209, 48.8705645 ], [ 2.4139452, 48.8695112 ], [ 2.4139679, 48.8693058 ], [ 2.4140042, 48.8689246 ], [ 2.4139667, 48.8678519 ], [ 2.413965, 48.8675931 ], [ 2.4139614, 48.8674618 ], [ 2.413912, 48.8656741 ], [ 2.4138943, 48.8651716 ], [ 2.4138599, 48.8640706 ], [ 2.4139019, 48.8637648 ], [ 2.4139144, 48.8636723 ], [ 2.4139599, 48.8633341 ], [ 2.4140589, 48.8625712 ], [ 2.4143316, 48.8608737 ], [ 2.4144118, 48.8604197 ], [ 2.4145003, 48.8598239 ], [ 2.4146685, 48.8588654 ], [ 2.4147117, 48.8587061 ], [ 2.4148508, 48.8577988 ], [ 2.4149659, 48.8570846 ], [ 2.4151669, 48.8558675 ], [ 2.4152669, 48.8552629 ], [ 2.4152827, 48.8551803 ], [ 2.4153405, 48.8548473 ], [ 2.415461, 48.8542264 ], [ 2.415524, 48.8539324 ], [ 2.4155987, 48.8534671 ], [ 2.4157103, 48.8527876 ], [ 2.4158824, 48.8518014 ], [ 2.4160156, 48.8509919 ], [ 2.416038, 48.8508465 ], [ 2.4161976, 48.8498896 ], [ 2.4163604, 48.8492351 ], [ 2.4164374, 48.8487895 ], [ 2.4164078, 48.8486413 ], [ 2.4164034, 48.8486194 ], [ 2.4163914, 48.8485641 ], [ 2.4163564, 48.8483846 ], [ 2.4163042, 48.8481235 ], [ 2.4162954, 48.8480794 ], [ 2.4162624, 48.8479143 ], [ 2.4162557, 48.8478811 ], [ 2.4162005, 48.847605 ], [ 2.4161931, 48.8475679 ], [ 2.4161844, 48.8475243 ], [ 2.4161771, 48.847488 ], [ 2.4161592, 48.8473985 ], [ 2.4161556, 48.8473806 ], [ 2.4161381, 48.8472933 ], [ 2.416119, 48.8472048 ], [ 2.4160714, 48.8469823 ], [ 2.4160155, 48.8467228 ], [ 2.4159926, 48.8466141 ], [ 2.4159377, 48.8464997 ], [ 2.4159441, 48.8464432 ], [ 2.4158669, 48.8459598 ], [ 2.4158594, 48.8459217 ], [ 2.4158088, 48.8456674 ], [ 2.4157916, 48.845581 ], [ 2.415793, 48.8455794 ], [ 2.4157655, 48.8454469 ], [ 2.4157466, 48.8453599 ], [ 2.4157227, 48.8452458 ], [ 2.4156926, 48.845106 ], [ 2.4153127, 48.8438715 ], [ 2.4152499, 48.843665 ], [ 2.415209, 48.8435303 ], [ 2.4151811, 48.8434373 ], [ 2.415178, 48.8434269 ], [ 2.4151421, 48.8433199 ], [ 2.4144915, 48.8412349 ], [ 2.4143498, 48.8407524 ], [ 2.4143134, 48.8406323 ], [ 2.4142862, 48.840537 ], [ 2.4142573, 48.8404383 ], [ 2.4142499, 48.8404131 ], [ 2.4140656, 48.8397848 ], [ 2.414057, 48.8397453 ], [ 2.413979, 48.8394954 ], [ 2.4139569, 48.8394155 ], [ 2.4139342, 48.8393327 ], [ 2.4139277, 48.8393106 ], [ 2.413905, 48.8392331 ], [ 2.413898, 48.8392092 ], [ 2.4138875, 48.8391733 ], [ 2.4138588, 48.8390755 ], [ 2.4138484, 48.83904 ], [ 2.4138157, 48.8389283 ], [ 2.4138044, 48.83889 ], [ 2.4137922, 48.8388482 ], [ 2.4137822, 48.8388142 ], [ 2.413719, 48.8385986 ], [ 2.4136412, 48.8383331 ], [ 2.4135969, 48.8381828 ], [ 2.4135428, 48.8379882 ], [ 2.4135331, 48.8379542 ], [ 2.413513, 48.8378838 ], [ 2.4133719, 48.8375097 ], [ 2.4133474, 48.8374389 ], [ 2.4133095, 48.837337 ], [ 2.4131424, 48.8368954 ], [ 2.4131004, 48.8367846 ], [ 2.4130362, 48.8366109 ], [ 2.4130221, 48.8365726 ], [ 2.4130023, 48.8365188 ], [ 2.4129803, 48.8364593 ], [ 2.4129586, 48.8364003 ], [ 2.4129239, 48.8363064 ], [ 2.4128577, 48.8361171 ], [ 2.4127861, 48.8359233 ], [ 2.4127744, 48.8358916 ], [ 2.4124881, 48.8351162 ], [ 2.4124104, 48.8349173 ], [ 2.4122756, 48.8345479 ], [ 2.4119259, 48.8343242 ], [ 2.4114001, 48.833972 ], [ 2.4113209, 48.833917 ], [ 2.4112276, 48.8338666 ], [ 2.4114269, 48.8338326 ], [ 2.4127939, 48.833631 ], [ 2.4131254, 48.8336049 ], [ 2.4134257, 48.8335871 ], [ 2.4136526, 48.8335769 ], [ 2.4139056, 48.8335711 ], [ 2.4141387, 48.833571 ], [ 2.4143693, 48.8335759 ], [ 2.414622, 48.8335877 ], [ 2.414883, 48.8336055 ], [ 2.4151223, 48.833626 ], [ 2.4153616, 48.8336512 ], [ 2.4156077, 48.8336823 ], [ 2.4158615, 48.8337185 ], [ 2.4161107, 48.833761 ], [ 2.4163436, 48.8338049 ], [ 2.4166366, 48.8338658 ], [ 2.4168864, 48.8339254 ], [ 2.4171163, 48.8339854 ], [ 2.4173319, 48.8340448 ], [ 2.4188688, 48.8345183 ], [ 2.421602, 48.8355527 ], [ 2.4221084, 48.83578 ], [ 2.4221777, 48.8358143 ], [ 2.4216968, 48.8366691 ], [ 2.4216385, 48.8368104 ], [ 2.4215633, 48.8370386 ], [ 2.4215306, 48.83715 ], [ 2.4214239, 48.8377072 ], [ 2.4213, 48.8382468 ], [ 2.4212226, 48.8385555 ], [ 2.421074, 48.8390539 ], [ 2.4209919, 48.8393016 ], [ 2.4208564, 48.8396534 ], [ 2.4207249, 48.8399465 ], [ 2.4206044, 48.8401879 ], [ 2.4204179, 48.8404984 ], [ 2.4203843, 48.8405539 ], [ 2.420269, 48.840693 ], [ 2.4200343, 48.8408961 ], [ 2.419858, 48.8410675 ], [ 2.4195701, 48.8415358 ], [ 2.4194237, 48.8424867 ], [ 2.4195373, 48.8426934 ], [ 2.4195777, 48.8427352 ], [ 2.4196351, 48.8427756 ], [ 2.419711, 48.8428349 ], [ 2.4197728, 48.8428955 ], [ 2.4198246, 48.8429555 ], [ 2.4198734, 48.8430323 ], [ 2.4198789, 48.8430451 ], [ 2.4199038, 48.8431027 ], [ 2.4199145, 48.8431492 ], [ 2.4199207, 48.8432328 ], [ 2.4199177, 48.8432968 ], [ 2.4199053, 48.8433561 ], [ 2.4199823, 48.8434672 ], [ 2.4221064, 48.844498 ], [ 2.4223441, 48.8443738 ], [ 2.4224549, 48.8442956 ], [ 2.4225741, 48.8441997 ], [ 2.4227583, 48.844006 ], [ 2.4228583, 48.8438881 ], [ 2.4229404, 48.8437789 ], [ 2.4230659, 48.8435911 ], [ 2.4231929, 48.8434022 ], [ 2.423478, 48.8429793 ], [ 2.4237003, 48.8426861 ], [ 2.4240616, 48.8423349 ], [ 2.4245669, 48.841947 ], [ 2.4248157, 48.8419004 ], [ 2.4247605, 48.8417696 ], [ 2.4250455, 48.841725 ], [ 2.4250912, 48.8417201 ], [ 2.4255749, 48.8416801 ], [ 2.4275631, 48.8415092 ], [ 2.4282676, 48.8414483 ], [ 2.432446, 48.8410908 ], [ 2.4336379, 48.8409864 ], [ 2.4336793, 48.8411933 ], [ 2.4339621, 48.8411693 ], [ 2.4341386, 48.8411543 ], [ 2.4371919, 48.8408914 ], [ 2.4372728, 48.841291 ], [ 2.4375339, 48.8425656 ], [ 2.4375528, 48.8426582 ], [ 2.4378988, 48.8443709 ], [ 2.4379406, 48.8445688 ], [ 2.4387349, 48.8444995 ], [ 2.4393835, 48.8444429 ], [ 2.4394709, 48.8444354 ], [ 2.4405117, 48.8443462 ], [ 2.4405221, 48.8444018 ], [ 2.4405374, 48.8444837 ], [ 2.4405771, 48.8446958 ], [ 2.4405929, 48.844776 ], [ 2.4405999, 48.8448105 ], [ 2.4406085, 48.8448545 ], [ 2.4406163, 48.8448879 ], [ 2.4408088, 48.8448716 ], [ 2.4408738, 48.8452101 ], [ 2.4406948, 48.8452082 ], [ 2.4406956, 48.845216 ], [ 2.4406989, 48.8452505 ], [ 2.4407021, 48.8452843 ], [ 2.4407662, 48.8459165 ], [ 2.4441212, 48.8458462 ], [ 2.4465262, 48.8457499 ], [ 2.4465525, 48.8457294 ], [ 2.4464103, 48.8449317 ], [ 2.4464886, 48.8449241 ], [ 2.447685, 48.8448075 ], [ 2.4478415, 48.8447922 ], [ 2.4493918, 48.8446367 ], [ 2.4522023, 48.8442275 ], [ 2.4536735, 48.8440233 ], [ 2.4580645, 48.8434559 ], [ 2.4596989, 48.8431435 ], [ 2.4608393, 48.8429217 ], [ 2.4611243, 48.8428549 ], [ 2.4611298, 48.8428536 ], [ 2.4617397, 48.8426945 ], [ 2.4622059, 48.8425514 ], [ 2.4627326, 48.8423677 ], [ 2.4632587, 48.8421642 ], [ 2.4638398, 48.841913 ], [ 2.4642297, 48.8417135 ], [ 2.4645546, 48.8415233 ], [ 2.4649937, 48.841232 ], [ 2.4652874, 48.8410224 ], [ 2.4656633, 48.8407344 ], [ 2.4659365, 48.8405091 ], [ 2.4663776, 48.840114 ], [ 2.4665407, 48.8399409 ], [ 2.4672316, 48.8390937 ], [ 2.4684575, 48.8378712 ], [ 2.4693053, 48.8371196 ], [ 2.469417, 48.8370044 ], [ 2.4695047, 48.8368914 ], [ 2.4696975, 48.8365902 ], [ 2.4697217, 48.8365474 ], [ 2.469746, 48.836491 ], [ 2.4697575, 48.8364455 ], [ 2.4697602, 48.8363848 ], [ 2.4697035, 48.8355556 ], [ 2.4696266, 48.8352843 ], [ 2.4694893, 48.8348337 ], [ 2.4693886, 48.8346145 ], [ 2.4692959, 48.8344541 ], [ 2.4691777, 48.8342828 ], [ 2.4690501, 48.8341224 ], [ 2.4689375, 48.8339906 ], [ 2.4687575, 48.833815 ], [ 2.4685898, 48.8336788 ], [ 2.4683752, 48.8335373 ], [ 2.4680973, 48.833399 ], [ 2.4676891, 48.8332164 ], [ 2.4667271, 48.8327216 ], [ 2.4664275, 48.8325223 ], [ 2.4660876, 48.8322528 ], [ 2.4658973, 48.832072 ], [ 2.4657206, 48.8318871 ], [ 2.4654908, 48.8316037 ], [ 2.4653607, 48.8314053 ], [ 2.4652296, 48.8311514 ], [ 2.4651046, 48.8308408 ], [ 2.4649828, 48.8304477 ], [ 2.4646418, 48.8293648 ], [ 2.4645142, 48.8286098 ], [ 2.4645497, 48.8279406 ], [ 2.4646098, 48.8276268 ], [ 2.4649031, 48.8275734 ], [ 2.4650873, 48.8275399 ], [ 2.4652296, 48.8276698 ], [ 2.46543, 48.82757 ], [ 2.4661776, 48.8273334 ], [ 2.4658462, 48.8264973 ], [ 2.465761, 48.8262824 ], [ 2.4656948, 48.8260718 ], [ 2.465359, 48.8250035 ], [ 2.4651007, 48.8249857 ], [ 2.4651733, 48.8246935 ], [ 2.4652474, 48.8244958 ], [ 2.4647171, 48.8232776 ], [ 2.4646662, 48.8232739 ], [ 2.4629064, 48.8202032 ], [ 2.4626386, 48.8193437 ], [ 2.4625235, 48.8192671 ], [ 2.4628098, 48.819077 ], [ 2.4628033, 48.8190282 ], [ 2.4613077, 48.8182984 ], [ 2.4597546, 48.8175402 ], [ 2.4591969, 48.8173344 ], [ 2.4592493, 48.8172454 ], [ 2.4586327, 48.8170123 ], [ 2.4572152, 48.8170183 ], [ 2.4546881, 48.8171308 ], [ 2.4545494, 48.817137 ], [ 2.4538889, 48.8172213 ], [ 2.4533172, 48.8172942 ], [ 2.4508256, 48.8178087 ], [ 2.4496376, 48.8179621 ], [ 2.4476126, 48.8180268 ], [ 2.4449831, 48.8179498 ], [ 2.442673, 48.8179577 ], [ 2.4421595, 48.8179762 ], [ 2.4416505, 48.818039 ], [ 2.4400143, 48.8183507 ], [ 2.4398636, 48.8183635 ], [ 2.4397507, 48.8183664 ], [ 2.4395917, 48.818363 ], [ 2.4373499, 48.8182191 ], [ 2.437387, 48.8185935 ], [ 2.437425, 48.8188267 ], [ 2.4374703, 48.8191048 ], [ 2.4373606, 48.8191833 ], [ 2.4372529, 48.8192433 ], [ 2.4370878, 48.8193167 ], [ 2.4369678, 48.8193634 ], [ 2.4367628, 48.8194299 ], [ 2.4364604, 48.8195157 ], [ 2.4362661, 48.8195603 ], [ 2.4361092, 48.8195849 ], [ 2.4359635, 48.8196002 ], [ 2.4351649, 48.8196495 ], [ 2.4351352, 48.8196472 ], [ 2.4350769, 48.8196336 ], [ 2.4349332, 48.819591 ], [ 2.4348187, 48.8195444 ], [ 2.4345005, 48.8193731 ], [ 2.4343234, 48.8193853 ], [ 2.43418, 48.8192814 ], [ 2.4342698, 48.8199244 ], [ 2.4343025, 48.8201561 ], [ 2.4324743, 48.82142 ], [ 2.4328895, 48.8216904 ], [ 2.432624, 48.8219016 ], [ 2.4321897, 48.8216184 ], [ 2.4321533, 48.8216437 ], [ 2.4303863, 48.8228801 ], [ 2.4305491, 48.8230771 ], [ 2.4306204, 48.8231559 ], [ 2.4306911, 48.8232341 ], [ 2.4302392, 48.8234026 ], [ 2.4297508, 48.8235653 ], [ 2.4292498, 48.8237087 ], [ 2.4289466, 48.8237863 ], [ 2.4283754, 48.8239124 ], [ 2.4278325, 48.8240111 ], [ 2.4271518, 48.8241115 ], [ 2.4265006, 48.8241836 ], [ 2.4259572, 48.824229 ], [ 2.4256513, 48.824248 ], [ 2.4249497, 48.8242682 ], [ 2.424475, 48.82427 ], [ 2.4239785, 48.8242592 ], [ 2.4228735, 48.824208 ], [ 2.422527, 48.8241911 ], [ 2.4219893, 48.8241649 ], [ 2.4217808, 48.8241548 ], [ 2.4217075, 48.8241527 ], [ 2.421691, 48.824126 ], [ 2.4211239, 48.824109 ], [ 2.4208041, 48.824104 ], [ 2.420356, 48.8241138 ], [ 2.4202284, 48.8241207 ], [ 2.4199475, 48.8241451 ], [ 2.4198602, 48.8241514 ], [ 2.419547, 48.8241846 ], [ 2.4193217, 48.8242118 ], [ 2.4193274, 48.8242486 ], [ 2.4192314, 48.8242621 ], [ 2.419034, 48.8243004 ], [ 2.4186792, 48.8243818 ], [ 2.4180742, 48.8245385 ], [ 2.4179109, 48.8245849 ], [ 2.4178147, 48.8246069 ], [ 2.4177225, 48.8246235 ], [ 2.4176276, 48.8246398 ], [ 2.4172153, 48.8247203 ], [ 2.416708, 48.824794 ], [ 2.4163896, 48.824825 ], [ 2.416073, 48.8248444 ], [ 2.4156614, 48.8248575 ], [ 2.4151562, 48.8248594 ], [ 2.4146248, 48.8248466 ], [ 2.4138483, 48.8247961 ], [ 2.4131934, 48.8247908 ], [ 2.4126166, 48.8248159 ], [ 2.4122982, 48.8248409 ], [ 2.4118362, 48.8248881 ], [ 2.4112922, 48.824967 ], [ 2.4108039, 48.8250515 ], [ 2.4105181, 48.8251161 ], [ 2.4102556, 48.8251885 ], [ 2.4102443, 48.8251916 ], [ 2.4100482, 48.8252583 ], [ 2.4099036, 48.8253074 ], [ 2.4096219, 48.8254189 ], [ 2.4092442, 48.8255893 ], [ 2.4087713, 48.8258283 ], [ 2.4083083, 48.8260909 ], [ 2.407706, 48.8264733 ], [ 2.4072826, 48.8267646 ], [ 2.4065165, 48.8273596 ], [ 2.4062283, 48.8275739 ], [ 2.4054526, 48.8281474 ], [ 2.4051946, 48.8283313 ], [ 2.4049181, 48.8285175 ], [ 2.4045837, 48.828725 ], [ 2.4042668, 48.8289036 ], [ 2.4039187, 48.8290697 ], [ 2.4036629, 48.8291808 ], [ 2.4030825, 48.8294233 ], [ 2.4024879, 48.8296469 ], [ 2.401494, 48.8293657 ], [ 2.4013057, 48.8293102 ], [ 2.4009961, 48.8292234 ], [ 2.3997742, 48.8288784 ], [ 2.3957464, 48.8277321 ], [ 2.3943522, 48.8275128 ], [ 2.3933003, 48.8270539 ], [ 2.393214, 48.8270163 ], [ 2.3909513, 48.8260324 ], [ 2.3902559, 48.8257262 ], [ 2.3897776, 48.8255204 ], [ 2.3888381, 48.8250197 ], [ 2.3888124, 48.825006 ], [ 2.3887664, 48.8249897 ], [ 2.3871992, 48.8244334 ], [ 2.3871708, 48.8244233 ], [ 2.3870497, 48.82438 ], [ 2.3851504, 48.8237015 ], [ 2.383964, 48.8232812 ], [ 2.3815135, 48.8224129 ], [ 2.3807452, 48.8216877 ], [ 2.3791335, 48.8211634 ], [ 2.3790883, 48.8211487 ], [ 2.3790587, 48.8211391 ], [ 2.3787394, 48.821035 ], [ 2.3778589, 48.820748 ], [ 2.3778096, 48.8207311 ], [ 2.377775, 48.8207192 ], [ 2.376025, 48.8201183 ], [ 2.3746098, 48.8196609 ], [ 2.3741539, 48.8195136 ], [ 2.3669819, 48.8172057 ], [ 2.3661679, 48.8169138 ], [ 2.3647314, 48.8164817 ], [ 2.3642489, 48.8163269 ], [ 2.3634078, 48.8160593 ], [ 2.3600926, 48.8160209 ], [ 2.3566126, 48.8159806 ], [ 2.3559173, 48.8159723 ], [ 2.3523989, 48.8185339 ], [ 2.3486894, 48.8167277 ], [ 2.3485476, 48.8166586 ], [ 2.3484943, 48.8166328 ], [ 2.3483612, 48.8165678 ], [ 2.3481888, 48.8164837 ], [ 2.3479768, 48.8163803 ], [ 2.3477868, 48.8162876 ], [ 2.347389, 48.8160945 ], [ 2.3471919, 48.8159982 ], [ 2.3469205, 48.8158654 ], [ 2.3466225, 48.8158942 ], [ 2.3464267, 48.8159133 ], [ 2.3444323, 48.8161064 ], [ 2.3444967, 48.8155755 ], [ 2.343974, 48.8157662 ], [ 2.3436497, 48.815868 ], [ 2.3430541, 48.8160662 ], [ 2.3416672, 48.8163437 ], [ 2.3404582, 48.8164067 ], [ 2.3402933, 48.8164153 ], [ 2.3395287, 48.8164436 ], [ 2.3386644, 48.8164844 ], [ 2.3380169, 48.8165202 ], [ 2.3360975, 48.8166201 ], [ 2.3355935, 48.8166545 ], [ 2.3353358, 48.8166748 ], [ 2.3352203, 48.8166827 ], [ 2.3351407, 48.8166869 ], [ 2.3349407, 48.8166965 ], [ 2.3347744, 48.8167051 ], [ 2.3347207, 48.8167068 ], [ 2.3339902, 48.8167464 ], [ 2.3338201, 48.8167556 ], [ 2.3337086, 48.8167639 ], [ 2.3323383, 48.8169565 ], [ 2.3322416, 48.8169651 ], [ 2.3321455, 48.8169799 ], [ 2.3319785, 48.8170023 ], [ 2.33196, 48.8170041 ], [ 2.33192, 48.8170081 ], [ 2.3317414, 48.8170263 ], [ 2.3320935, 48.8176872 ], [ 2.3323719, 48.818207 ], [ 2.332212, 48.8182476 ], [ 2.3321647, 48.8182596 ], [ 2.3317783, 48.818344 ], [ 2.3315752, 48.8183899 ], [ 2.3312994, 48.8184489 ], [ 2.3308144, 48.8185552 ], [ 2.330793, 48.8185597 ], [ 2.3302869, 48.8186665 ], [ 2.3302117, 48.8186833 ], [ 2.3301823, 48.8186899 ], [ 2.3293503, 48.8188782 ], [ 2.3292675, 48.8188952 ], [ 2.3274555, 48.8193015 ], [ 2.3269174, 48.8194224 ], [ 2.3268722, 48.8194324 ], [ 2.3268014, 48.8194458 ], [ 2.3266627, 48.8194772 ], [ 2.3263256, 48.8195531 ], [ 2.3262721, 48.8195651 ], [ 2.3260856, 48.8196072 ], [ 2.325938, 48.8196405 ], [ 2.3258002, 48.8196724 ], [ 2.3257661, 48.8196803 ], [ 2.3255964, 48.8197195 ], [ 2.3213173, 48.8206761 ], [ 2.3210151, 48.8207421 ], [ 2.3208709, 48.8207739 ], [ 2.3206348, 48.8208256 ], [ 2.3198358, 48.8210036 ], [ 2.3191232, 48.8211615 ], [ 2.3187899, 48.8212354 ], [ 2.3187514, 48.8212439 ], [ 2.3187249, 48.8212498 ], [ 2.3187012, 48.8212551 ], [ 2.3183848, 48.8213253 ], [ 2.3183326, 48.8213368 ], [ 2.318011, 48.8214081 ], [ 2.3168502, 48.8216633 ], [ 2.3147321, 48.8221408 ], [ 2.3145538, 48.822174 ], [ 2.3143633, 48.8222148 ], [ 2.314133, 48.8222632 ], [ 2.3138, 48.8223339 ], [ 2.3133907, 48.8224327 ], [ 2.3133857, 48.822427 ], [ 2.3130139, 48.8225108 ], [ 2.3121195, 48.8227124 ], [ 2.3115241, 48.8228466 ], [ 2.3102584, 48.8231257 ], [ 2.3090563, 48.8233892 ], [ 2.308423, 48.823528 ], [ 2.3082963, 48.8235562 ], [ 2.3069878, 48.8238477 ], [ 2.3068902, 48.8238694 ], [ 2.3068117, 48.8238869 ], [ 2.3065022, 48.8239536 ], [ 2.3063461, 48.8239892 ], [ 2.305836, 48.8241053 ], [ 2.3043778, 48.8244361 ], [ 2.304123, 48.8244931 ], [ 2.3040461, 48.8245105 ], [ 2.3040036, 48.8245201 ], [ 2.3039796, 48.8245256 ], [ 2.3023384, 48.8249028 ], [ 2.3021285, 48.8249477 ], [ 2.3020093, 48.8249732 ], [ 2.3019807, 48.8249793 ], [ 2.3017791, 48.8250224 ], [ 2.3013179, 48.8251252 ], [ 2.3007147, 48.8252543 ], [ 2.3004885, 48.8253027 ], [ 2.3002858, 48.8253461 ], [ 2.2976469, 48.8259109 ], [ 2.2969937, 48.8260598 ], [ 2.2950122, 48.8265117 ], [ 2.2942296, 48.8266901 ], [ 2.2938163, 48.8267822 ], [ 2.2923156, 48.8271168 ], [ 2.2922207, 48.8271379 ], [ 2.2921348, 48.8271739 ], [ 2.2920586, 48.8272058 ], [ 2.2920118, 48.8272254 ], [ 2.291941, 48.8272551 ], [ 2.2909034, 48.8276894 ], [ 2.2893877, 48.8283239 ], [ 2.2859836, 48.8297615 ], [ 2.2854691, 48.8299788 ], [ 2.2849412, 48.8302001 ], [ 2.2848376, 48.8302435 ], [ 2.2846844, 48.8303077 ], [ 2.2833629, 48.8308617 ], [ 2.2828829, 48.831038 ], [ 2.2814722, 48.831556 ], [ 2.2805217, 48.831905 ], [ 2.2803697, 48.831961 ], [ 2.2802455, 48.8320067 ], [ 2.2791561, 48.8324078 ], [ 2.2790539, 48.8324454 ], [ 2.2778501, 48.8314491 ], [ 2.2763585, 48.8302146 ], [ 2.2757908, 48.8297038 ], [ 2.2734265, 48.8283053 ], [ 2.2734179, 48.8283006 ], [ 2.2728056, 48.8279667 ], [ 2.2727442, 48.8279332 ], [ 2.2713365, 48.8279056 ], [ 2.2711052, 48.827902 ], [ 2.2678061, 48.8278499 ], [ 2.2677743, 48.8278688 ], [ 2.2676048, 48.8279672 ], [ 2.2672998, 48.8315589 ], [ 2.2696717, 48.8328134 ], [ 2.2700296, 48.8330081 ], [ 2.2699866, 48.8330435 ], [ 2.2699509, 48.8330728 ], [ 2.2699136, 48.8330987 ], [ 2.2688782, 48.8338149 ], [ 2.2683707, 48.8342122 ], [ 2.2679483, 48.8345762 ], [ 2.2674688, 48.8346266 ], [ 2.2669545, 48.8345231 ], [ 2.2669248, 48.8345171 ], [ 2.2668437, 48.8345097 ], [ 2.2666626, 48.8344943 ], [ 2.2662256, 48.8344563 ], [ 2.2661777, 48.8344521 ], [ 2.265237, 48.8342872 ], [ 2.2650165, 48.8342486 ], [ 2.2649159, 48.834231 ], [ 2.2643691, 48.8341437 ], [ 2.26296, 48.8338989 ], [ 2.2627757, 48.833918 ], [ 2.2620167, 48.8340108 ], [ 2.2616456, 48.8340561 ], [ 2.2615288, 48.8340683 ], [ 2.2615158, 48.8340696 ], [ 2.2613142, 48.8340906 ], [ 2.2611657, 48.8341061 ], [ 2.2594655, 48.8343047 ], [ 2.2574584, 48.8345392 ], [ 2.2571084, 48.8345789 ], [ 2.2569964, 48.8345916 ], [ 2.2568402, 48.8346094 ], [ 2.2561685, 48.8346875 ], [ 2.25558, 48.8347556 ], [ 2.2553201, 48.8347857 ], [ 2.2551536, 48.834805 ], [ 2.2550686, 48.8349039 ], [ 2.2541952, 48.8359204 ], [ 2.2535309, 48.8367392 ], [ 2.253408, 48.8368632 ], [ 2.2533009, 48.8369684 ], [ 2.2530136, 48.8373107 ], [ 2.2523281, 48.8381405 ], [ 2.2522187, 48.8382361 ], [ 2.2520859, 48.8383916 ], [ 2.2520553, 48.8384274 ], [ 2.2516489, 48.8389058 ], [ 2.2516068, 48.8392845 ], [ 2.2515678, 48.8396486 ], [ 2.2515294, 48.8400074 ], [ 2.2514931, 48.8403644 ], [ 2.2514062, 48.8411523 ], [ 2.2513072, 48.8420393 ], [ 2.2513016, 48.8420893 ], [ 2.2512997, 48.842109 ], [ 2.2512721, 48.8423977 ], [ 2.251242, 48.8426798 ], [ 2.2512224, 48.8428631 ], [ 2.2525351, 48.8455694 ], [ 2.2509427, 48.8456004 ], [ 2.2509157, 48.8456 ], [ 2.2508721, 48.8456004 ], [ 2.2508285, 48.8456087 ], [ 2.2506759, 48.8456268 ], [ 2.2505439, 48.8456557 ], [ 2.2504945, 48.8456704 ], [ 2.2504219, 48.845688 ], [ 2.2497544, 48.8458481 ], [ 2.2478922, 48.8463373 ], [ 2.2467289, 48.8466377 ], [ 2.2430008, 48.8475951 ], [ 2.2424666, 48.847731 ], [ 2.242352, 48.8478301 ], [ 2.2420889, 48.848059 ], [ 2.2415952, 48.8484903 ], [ 2.2415171, 48.8485577 ], [ 2.2415047, 48.8485684 ], [ 2.2414249, 48.8486374 ], [ 2.2403097, 48.8496004 ], [ 2.2401177, 48.8497483 ], [ 2.2399504, 48.8498536 ], [ 2.2396971, 48.8499782 ], [ 2.2395581, 48.8500379 ], [ 2.2393245, 48.850107 ], [ 2.239084, 48.8501602 ], [ 2.2381442, 48.8503673 ], [ 2.2377999, 48.8504401 ], [ 2.2263608, 48.8529593 ], [ 2.2255596, 48.8531357 ], [ 2.2241686, 48.853442 ], [ 2.2241606, 48.8534778 ], [ 2.224143, 48.853578 ], [ 2.224135, 48.853654 ], [ 2.224129, 48.853759 ], [ 2.224125, 48.853869 ], [ 2.224125, 48.85402 ], [ 2.224122, 48.854199 ] ] ] ] } }
]
}
